{
  "type": "FeatureCollection",
  "generator": "overpass-turbo",
  "copyright": "The data included in this document is from www.openstreetmap.org. The data is made available under ODbL.",
  "timestamp": "2025-11-04T23:36:01Z",
  "features": [
    {
      "type": "Feature",
      "properties": {
        "@id": "node/7204299969",
        "amenity": "bicycle_rental",
        "capacity": "23",
        "fee": "yes",
        "name": "NIATE UFPE",
        "network": "BikePE",
        "operator": "Tembici",
        "operator:type": "private",
        "payment:credit_cards": "yes",
        "payment:debit_cards": "yes",
        "ref": "79"
      },
      "geometry": {
        "type": "Point",
        "coordinates": [
          -34.9526868,
          -8.0550577
        ]
      },
      "id": "node/7204299969"
    },
    {
      "type": "Feature",
      "properties": {
        "@id": "node/7204299976",
        "amenity": "bicycle_rental",
        "bicycle_rental": "docking_station",
        "capacity": "23",
        "name": "Posto Polo Pina",
        "network": "Bike PE",
        "operator": "Tembici",
        "payment:credit_cards": "yes",
        "ref": "74"
      },
      "geometry": {
        "type": "Point",
        "coordinates": [
          -34.88231,
          -8.092206
        ]
      },
      "id": "node/7204299976"
    },
    {
      "type": "Feature",
      "properties": {
        "@id": "node/7204299983",
        "amenity": "bicycle_rental",
        "bicycle_rental": "docking_station",
        "capacity": "27",
        "name": "Parque Dona Lindu",
        "network": "Bike PE",
        "operator": "Tembici",
        "payment:credit_cards": "yes",
        "ref": "65"
      },
      "geometry": {
        "type": "Point",
        "coordinates": [
          -34.9036844,
          -8.1422653
        ]
      },
      "id": "node/7204299983"
    },
    {
      "type": "Feature",
      "properties": {
        "@id": "node/7204326585",
        "amenity": "bicycle_rental",
        "capacity": "27",
        "name": "Padre Carapuceiro",
        "network": "Bike PE",
        "operator": "Tembici",
        "payment:credit_cards": "yes",
        "ref": "63"
      },
      "geometry": {
        "type": "Point",
        "coordinates": [
          -34.8954169,
          -8.1210098
        ]
      },
      "id": "node/7204326585"
    },
    {
      "type": "Feature",
      "properties": {
        "@id": "node/7204326586",
        "amenity": "bicycle_rental",
        "bicycle_rental": "docking_station",
        "capacity": "19",
        "name": "R. Verdes Mares",
        "network": "Bike PE",
        "operator": "Tembici",
        "payment:credit_cards": "yes",
        "ref": "64"
      },
      "geometry": {
        "type": "Point",
        "coordinates": [
          -34.9013796,
          -8.1352308
        ]
      },
      "id": "node/7204326586"
    },
    {
      "type": "Feature",
      "properties": {
        "@id": "node/7204326587",
        "amenity": "bicycle_rental",
        "bicycle_rental": "docking_station",
        "capacity": "27",
        "name": "Segundo Jardim",
        "network": "Bike PE",
        "operator": "Tembici",
        "payment:credit_cards": "yes",
        "ref": "61"
      },
      "geometry": {
        "type": "Point",
        "coordinates": [
          -34.8867654,
          -8.1048814
        ]
      },
      "id": "node/7204326587"
    },
    {
      "type": "Feature",
      "properties": {
        "@id": "node/7204326588",
        "amenity": "bicycle_rental",
        "bicycle_rental": "docking_station",
        "capacity": "27",
        "name": "Prof. José Brandão",
        "network": "Bike PE",
        "operator": "Tembici",
        "payment:credit_cards": "yes",
        "ref": "62"
      },
      "geometry": {
        "type": "Point",
        "coordinates": [
          -34.89104,
          -8.1137369
        ]
      },
      "id": "node/7204326588"
    },
    {
      "type": "Feature",
      "properties": {
        "@id": "node/7204326589",
        "amenity": "bicycle_rental",
        "capacity": "15",
        "name": "Praça do Rosarinho",
        "network": "Bike PE",
        "operator": "Tembici",
        "payment:credit_cards": "yes",
        "ref": "59"
      },
      "geometry": {
        "type": "Point",
        "coordinates": [
          -34.8967708,
          -8.0327102
        ]
      },
      "id": "node/7204326589"
    },
    {
      "type": "Feature",
      "properties": {
        "@id": "node/7204326590",
        "amenity": "bicycle_rental",
        "bicycle_rental": "docking_station",
        "capacity": "27",
        "name": "Pina",
        "network": "Bike PE",
        "operator": "Tembici",
        "payment:credit_cards": "yes",
        "ref": "60"
      },
      "geometry": {
        "type": "Point",
        "coordinates": [
          -34.8840186,
          -8.0990083
        ]
      },
      "id": "node/7204326590"
    },
    {
      "type": "Feature",
      "properties": {
        "@id": "node/7204326591",
        "amenity": "bicycle_rental",
        "capacity": "10",
        "name": "R. Alfredo de Medeiros",
        "network": "Bike PE",
        "operator": "Tembici",
        "payment:credit_cards": "yes",
        "ref": "57"
      },
      "geometry": {
        "type": "Point",
        "coordinates": [
          -34.8905709,
          -8.0418614
        ]
      },
      "id": "node/7204326591"
    },
    {
      "type": "Feature",
      "properties": {
        "@id": "node/7204326592",
        "amenity": "bicycle_rental",
        "capacity": "23",
        "name": "Mercado da Encruzilhada",
        "network": "Bike PE",
        "operator": "Tembici",
        "payment:credit_cards": "yes",
        "ref": "58"
      },
      "geometry": {
        "type": "Point",
        "coordinates": [
          -34.8913845,
          -8.0369899
        ]
      },
      "id": "node/7204326592"
    },
    {
      "type": "Feature",
      "properties": {
        "@id": "node/7204326593",
        "amenity": "bicycle_rental",
        "capacity": "15",
        "name": "Hospital Oswaldo Cruz",
        "network": "Bike PE",
        "operator": "Tembici",
        "payment:credit_cards": "yes",
        "ref": "55"
      },
      "geometry": {
        "type": "Point",
        "coordinates": [
          -34.8881181,
          -8.0478164
        ]
      },
      "id": "node/7204326593"
    },
    {
      "type": "Feature",
      "properties": {
        "@id": "node/7204326594",
        "amenity": "bicycle_rental",
        "bicycle_rental": "docking_station",
        "capacity": "15",
        "name": "R. Bernardino Soares da Silva",
        "network": "Bike PE",
        "operator": "Tembici",
        "payment:credit_cards": "yes",
        "ref": "56"
      },
      "geometry": {
        "type": "Point",
        "coordinates": [
          -34.8907734,
          -8.0444877
        ]
      },
      "id": "node/7204326594"
    },
    {
      "type": "Feature",
      "properties": {
        "@id": "node/7204326595",
        "amenity": "bicycle_rental",
        "capacity": "11",
        "name": "Rua Doutor Vicente Meira",
        "network": "Bike PE",
        "operator": "Tembici",
        "payment:credit_cards": "yes",
        "ref": "53"
      },
      "geometry": {
        "type": "Point",
        "coordinates": [
          -34.8948128,
          -8.0440128
        ]
      },
      "id": "node/7204326595"
    },
    {
      "type": "Feature",
      "properties": {
        "@id": "node/7204326596",
        "amenity": "bicycle_rental",
        "capacity": "14",
        "name": "Venezuela",
        "network": "Bike PE",
        "operator": "Tembici",
        "payment:credit_cards": "yes",
        "ref": "54"
      },
      "geometry": {
        "type": "Point",
        "coordinates": [
          -34.8947475,
          -8.047012
        ]
      },
      "id": "node/7204326596"
    },
    {
      "type": "Feature",
      "properties": {
        "@id": "node/7204326597",
        "amenity": "bicycle_rental",
        "bicycle_rental": "docking_station",
        "capacity": "11",
        "name": "Praça da FEB",
        "network": "Bike PE",
        "operator": "Tembici",
        "payment:credit_cards": "yes",
        "ref": "51"
      },
      "geometry": {
        "type": "Point",
        "coordinates": [
          -34.8948252,
          -8.0401811
        ]
      },
      "id": "node/7204326597"
    },
    {
      "type": "Feature",
      "properties": {
        "@id": "node/7204326598",
        "amenity": "bicycle_rental",
        "capacity": "15",
        "name": "Náutico",
        "network": "Bike PE",
        "operator": "Tembici",
        "payment:credit_cards": "yes",
        "ref": "52"
      },
      "geometry": {
        "type": "Point",
        "coordinates": [
          -34.8974496,
          -8.0420719
        ]
      },
      "id": "node/7204326598"
    },
    {
      "type": "Feature",
      "properties": {
        "@id": "node/7204326599",
        "amenity": "bicycle_rental",
        "capacity": "15",
        "name": "Praça Dr. José Vilela",
        "network": "Bike PE",
        "operator": "Tembici",
        "payment:credit_cards": "yes",
        "ref": "49"
      },
      "geometry": {
        "type": "Point",
        "coordinates": [
          -34.91137,
          -8.03403
        ]
      },
      "id": "node/7204326599"
    },
    {
      "type": "Feature",
      "properties": {
        "@id": "node/7204326600",
        "amenity": "bicycle_rental",
        "bicycle_rental": "docking_station",
        "capacity": "15",
        "name": "Casa Rosada",
        "network": "Bike PE",
        "operator": "Tembici",
        "payment:credit_cards": "yes",
        "ref": "50"
      },
      "geometry": {
        "type": "Point",
        "coordinates": [
          -34.8973164,
          -8.0351458
        ]
      },
      "id": "node/7204326600"
    },
    {
      "type": "Feature",
      "properties": {
        "@id": "node/7204326601",
        "amenity": "bicycle_rental",
        "capacity": "18",
        "name": "Faculdade Damas",
        "network": "Bike PE",
        "operator": "Tembici",
        "payment:credit_cards": "yes",
        "ref": "47"
      },
      "geometry": {
        "type": "Point",
        "coordinates": [
          -34.9029058,
          -8.0390186
        ]
      },
      "id": "node/7204326601"
    },
    {
      "type": "Feature",
      "properties": {
        "@id": "node/7204326602",
        "amenity": "bicycle_rental",
        "bicycle_rental": "docking_station",
        "capacity": "23",
        "name": "Parque da Jaqueira",
        "network": "Bike PE",
        "operator": "Tembici",
        "payment:credit_cards": "yes",
        "ref": "48"
      },
      "geometry": {
        "type": "Point",
        "coordinates": [
          -34.9033728,
          -8.0366798
        ]
      },
      "id": "node/7204326602"
    },
    {
      "type": "Feature",
      "properties": {
        "@id": "node/7204326603",
        "amenity": "bicycle_rental",
        "capacity": "14",
        "name": "R. Bruno Maia",
        "network": "Bike PE",
        "operator": "Tembici",
        "payment:credit_cards": "yes",
        "ref": "45"
      },
      "geometry": {
        "type": "Point",
        "coordinates": [
          -34.8969794,
          -8.0469895
        ]
      },
      "id": "node/7204326603"
    },
    {
      "type": "Feature",
      "properties": {
        "@id": "node/7204326604",
        "amenity": "bicycle_rental",
        "capacity": "10",
        "name": "R. Adalberto Camargo",
        "network": "Bike PE",
        "operator": "Tembici",
        "payment:credit_cards": "yes",
        "ref": "46"
      },
      "geometry": {
        "type": "Point",
        "coordinates": [
          -34.8997584,
          -8.0442128
        ]
      },
      "id": "node/7204326604"
    },
    {
      "type": "Feature",
      "properties": {
        "@id": "node/7204326605",
        "amenity": "bicycle_rental",
        "capacity": "15",
        "name": "Rua Samuel Pinto",
        "network": "Bike PE",
        "operator": "Tembici",
        "payment:credit_cards": "yes",
        "ref": "43"
      },
      "geometry": {
        "type": "Point",
        "coordinates": [
          -34.8926042,
          -8.0520986
        ]
      },
      "id": "node/7204326605"
    },
    {
      "type": "Feature",
      "properties": {
        "@id": "node/7204326606",
        "amenity": "bicycle_rental",
        "capacity": "10",
        "name": "Praça Otília",
        "network": "Bike PE",
        "operator": "Tembici",
        "payment:credit_cards": "yes",
        "ref": "44"
      },
      "geometry": {
        "type": "Point",
        "coordinates": [
          -34.89233,
          -8.048384
        ]
      },
      "id": "node/7204326606"
    },
    {
      "type": "Feature",
      "properties": {
        "@id": "node/7204326607",
        "amenity": "bicycle_rental",
        "capacity": "14",
        "name": "Colégio Agnes Erskine",
        "network": "Bike PE",
        "operator": "Tembici",
        "payment:credit_cards": "yes",
        "ref": "41"
      },
      "geometry": {
        "type": "Point",
        "coordinates": [
          -34.9013058,
          -8.0466918
        ]
      },
      "id": "node/7204326607"
    },
    {
      "type": "Feature",
      "properties": {
        "@id": "node/7204326608",
        "amenity": "bicycle_rental",
        "capacity": "15",
        "name": "Praça do Entroncamento",
        "network": "Bike PE",
        "operator": "Tembici",
        "payment:credit_cards": "yes",
        "ref": "42"
      },
      "geometry": {
        "type": "Point",
        "coordinates": [
          -34.896989,
          -8.0504888
        ]
      },
      "id": "node/7204326608"
    },
    {
      "type": "Feature",
      "properties": {
        "@id": "node/7204326609",
        "amenity": "bicycle_rental",
        "capacity": "15",
        "name": "Instituto Capibaribe",
        "network": "Bike PE",
        "operator": "Tembici",
        "payment:credit_cards": "yes",
        "ref": "39"
      },
      "geometry": {
        "type": "Point",
        "coordinates": [
          -34.9018615,
          -8.0505195
        ]
      },
      "id": "node/7204326609"
    },
    {
      "type": "Feature",
      "properties": {
        "@id": "node/7204326610",
        "amenity": "bicycle_rental",
        "capacity": "17",
        "name": "Beira Rio",
        "network": "Bike PE",
        "operator": "Tembici",
        "payment:credit_cards": "yes",
        "ref": "40"
      },
      "geometry": {
        "type": "Point",
        "coordinates": [
          -34.9042585,
          -8.047239
        ]
      },
      "id": "node/7204326610"
    },
    {
      "type": "Feature",
      "properties": {
        "@id": "node/7204326611",
        "amenity": "bicycle_rental",
        "capacity": "14",
        "name": "Praça João Pereira Borges",
        "network": "Bike PE",
        "operator": "Tembici",
        "payment:credit_cards": "yes",
        "ref": "37"
      },
      "geometry": {
        "type": "Point",
        "coordinates": [
          -34.9018285,
          -8.0544086
        ]
      },
      "id": "node/7204326611"
    },
    {
      "type": "Feature",
      "properties": {
        "@id": "node/7204326612",
        "amenity": "bicycle_rental",
        "capacity": "15",
        "name": "Ponte da Capunga",
        "network": "Bike PE",
        "operator": "Tembici",
        "payment:credit_cards": "yes",
        "ref": "38"
      },
      "geometry": {
        "type": "Point",
        "coordinates": [
          -34.9050039,
          -8.0520241
        ]
      },
      "id": "node/7204326612"
    },
    {
      "type": "Feature",
      "properties": {
        "@id": "node/7204326613",
        "amenity": "bicycle_rental",
        "capacity": "23",
        "name": "Praça do Derby",
        "network": "Bike PE",
        "operator": "Tembici",
        "payment:credit_cards": "yes",
        "ref": "35"
      },
      "geometry": {
        "type": "Point",
        "coordinates": [
          -34.8991701,
          -8.0560671
        ]
      },
      "id": "node/7204326613"
    },
    {
      "type": "Feature",
      "properties": {
        "@id": "node/7204326614",
        "amenity": "bicycle_rental",
        "capacity": "22",
        "name": "Politécnica",
        "network": "Bike PE",
        "operator": "Tembici",
        "payment:credit_cards": "yes",
        "ref": "36"
      },
      "geometry": {
        "type": "Point",
        "coordinates": [
          -34.9038211,
          -8.0595212
        ]
      },
      "id": "node/7204326614"
    },
    {
      "type": "Feature",
      "properties": {
        "@id": "node/7204326615",
        "amenity": "bicycle_rental",
        "capacity": "15",
        "name": "CNBB",
        "network": "Bike PE",
        "operator": "Tembici",
        "payment:credit_cards": "yes",
        "ref": "33"
      },
      "geometry": {
        "type": "Point",
        "coordinates": [
          -34.89531,
          -8.057475
        ]
      },
      "id": "node/7204326615"
    },
    {
      "type": "Feature",
      "properties": {
        "@id": "node/7204326616",
        "amenity": "bicycle_rental",
        "capacity": "15",
        "name": "R. Silva Ramos",
        "network": "Bike PE",
        "operator": "Tembici",
        "payment:credit_cards": "yes",
        "ref": "34"
      },
      "geometry": {
        "type": "Point",
        "coordinates": [
          -34.8964212,
          -8.0560306
        ]
      },
      "id": "node/7204326616"
    },
    {
      "type": "Feature",
      "properties": {
        "@id": "node/7204326617",
        "amenity": "bicycle_rental",
        "bicycle_rental": "docking_station",
        "capacity": "19",
        "name": "Castelinho",
        "network": "Bike PE",
        "operator": "Tembici",
        "payment:credit_cards": "yes",
        "ref": "31"
      },
      "geometry": {
        "type": "Point",
        "coordinates": [
          -34.8986324,
          -8.1289861
        ]
      },
      "id": "node/7204326617"
    },
    {
      "type": "Feature",
      "properties": {
        "@id": "node/7204326618",
        "amenity": "bicycle_rental",
        "capacity": "15",
        "name": "Praça Chora Menino",
        "network": "Bike PE",
        "operator": "Tembici",
        "payment:credit_cards": "yes",
        "ref": "32"
      },
      "geometry": {
        "type": "Point",
        "coordinates": [
          -34.8951776,
          -8.0606218
        ]
      },
      "id": "node/7204326618"
    },
    {
      "type": "Feature",
      "properties": {
        "@id": "node/7204326619",
        "amenity": "bicycle_rental",
        "capacity": "14",
        "name": "Praça Miguel de Cervantes",
        "network": "Bike PE",
        "operator": "Tembici",
        "payment:credit_cards": "yes",
        "ref": "29"
      },
      "geometry": {
        "type": "Point",
        "coordinates": [
          -34.8937564,
          -8.065077
        ]
      },
      "id": "node/7204326619"
    },
    {
      "type": "Feature",
      "properties": {
        "@id": "node/7204326620",
        "amenity": "bicycle_rental",
        "capacity": "14",
        "name": "SJCC",
        "network": "Bike PE",
        "operator": "Tembici",
        "payment:credit_cards": "yes",
        "ref": "30"
      },
      "geometry": {
        "type": "Point",
        "coordinates": [
          -34.8787347,
          -8.0534257
        ]
      },
      "id": "node/7204326620"
    },
    {
      "type": "Feature",
      "properties": {
        "@id": "node/7204326621",
        "amenity": "bicycle_rental",
        "capacity": "14",
        "name": "Rua da Soledade",
        "network": "Bike PE",
        "operator": "Tembici",
        "payment:credit_cards": "yes",
        "ref": "27"
      },
      "geometry": {
        "type": "Point",
        "coordinates": [
          -34.8899672,
          -8.0579007
        ]
      },
      "id": "node/7204326621"
    },
    {
      "type": "Feature",
      "properties": {
        "@id": "node/7204326622",
        "amenity": "bicycle_rental",
        "bicycle_rental": "docking_station",
        "capacity": "14",
        "name": "Salesiano",
        "network": "Bike PE",
        "operator": "Tembici",
        "payment:credit_cards": "yes",
        "ref": "28"
      },
      "geometry": {
        "type": "Point",
        "coordinates": [
          -34.8921045,
          -8.0613555
        ]
      },
      "id": "node/7204326622"
    },
    {
      "type": "Feature",
      "properties": {
        "@id": "node/7204326623",
        "amenity": "bicycle_rental",
        "capacity": "19",
        "name": "Rua do Lazer",
        "network": "Bike PE",
        "operator": "Tembici",
        "payment:credit_cards": "yes",
        "ref": "25"
      },
      "geometry": {
        "type": "Point",
        "coordinates": [
          -34.8881673,
          -8.0542505
        ]
      },
      "id": "node/7204326623"
    },
    {
      "type": "Feature",
      "properties": {
        "@id": "node/7204326624",
        "amenity": "bicycle_rental",
        "capacity": "19",
        "name": "Praça Oswaldo Cruz",
        "network": "Bike PE",
        "operator": "Tembici",
        "payment:credit_cards": "yes",
        "ref": "26"
      },
      "geometry": {
        "type": "Point",
        "coordinates": [
          -34.8910526,
          -8.0546704
        ]
      },
      "id": "node/7204326624"
    },
    {
      "type": "Feature",
      "properties": {
        "@id": "node/7204326625",
        "amenity": "bicycle_rental",
        "capacity": "19",
        "name": "SESC Santo Amaro",
        "network": "Bike PE",
        "operator": "Tembici",
        "payment:credit_cards": "yes",
        "ref": "23"
      },
      "geometry": {
        "type": "Point",
        "coordinates": [
          -34.8827713,
          -8.0499004
        ]
      },
      "id": "node/7204326625"
    },
    {
      "type": "Feature",
      "properties": {
        "@id": "node/7204326626",
        "amenity": "bicycle_rental",
        "capacity": "15",
        "name": "BikePE -Cemitério de Santo Amaro",
        "network": "Bike PE",
        "operator": "Tembici",
        "payment:credit_cards": "yes",
        "ref": "24"
      },
      "geometry": {
        "type": "Point",
        "coordinates": [
          -34.8861592,
          -8.0511721
        ]
      },
      "id": "node/7204326626"
    },
    {
      "type": "Feature",
      "properties": {
        "@id": "node/7204326628",
        "amenity": "bicycle_rental",
        "capacity": "13",
        "name": "Frei Cassimiro",
        "network": "Bike PE",
        "operator": "Tembici",
        "payment:credit_cards": "yes",
        "ref": "22"
      },
      "geometry": {
        "type": "Point",
        "coordinates": [
          -34.8780758,
          -8.0480364
        ]
      },
      "id": "node/7204326628"
    },
    {
      "type": "Feature",
      "properties": {
        "@id": "node/7204326629",
        "amenity": "bicycle_rental",
        "capacity": "15",
        "name": "Sossego",
        "network": "Bike PE",
        "operator": "Tembici",
        "payment:credit_cards": "yes",
        "ref": "19"
      },
      "geometry": {
        "type": "Point",
        "coordinates": [
          -34.8840345,
          -8.0543316
        ]
      },
      "id": "node/7204326629"
    },
    {
      "type": "Feature",
      "properties": {
        "@id": "node/7204326630",
        "amenity": "bicycle_rental",
        "capacity": "15",
        "name": "Palmares",
        "network": "Bike PE",
        "operator": "Tembici",
        "payment:credit_cards": "yes",
        "ref": "20"
      },
      "geometry": {
        "type": "Point",
        "coordinates": [
          -34.882595,
          -8.0534341
        ]
      },
      "id": "node/7204326630"
    },
    {
      "type": "Feature",
      "properties": {
        "@id": "node/7204326631",
        "amenity": "bicycle_rental",
        "capacity": "15",
        "name": "Igreja de Santa Cruz",
        "network": "Bike PE",
        "operator": "Tembici",
        "payment:credit_cards": "yes",
        "ref": "17"
      },
      "geometry": {
        "type": "Point",
        "coordinates": [
          -34.88813,
          -8.06231
        ]
      },
      "id": "node/7204326631"
    },
    {
      "type": "Feature",
      "properties": {
        "@id": "node/7204326632",
        "amenity": "bicycle_rental",
        "capacity": "18",
        "name": "Riachuelo",
        "network": "Bike PE",
        "operator": "Tembici",
        "payment:credit_cards": "yes",
        "ref": "18"
      },
      "geometry": {
        "type": "Point",
        "coordinates": [
          -34.88571,
          -8.05826
        ]
      },
      "id": "node/7204326632"
    },
    {
      "type": "Feature",
      "properties": {
        "@id": "node/7204326633",
        "amenity": "bicycle_rental",
        "capacity": "10",
        "name": "Cine São Luiz",
        "network": "Bike PE",
        "operator": "Tembici",
        "payment:credit_cards": "yes",
        "ref": "15"
      },
      "geometry": {
        "type": "Point",
        "coordinates": [
          -34.8819838,
          -8.0623763
        ]
      },
      "id": "node/7204326633"
    },
    {
      "type": "Feature",
      "properties": {
        "@id": "node/7204326634",
        "amenity": "bicycle_rental",
        "capacity": "14",
        "name": "Matriz da Boa Vista",
        "network": "Bike PE",
        "operator": "Tembici",
        "payment:credit_cards": "yes",
        "ref": "16"
      },
      "geometry": {
        "type": "Point",
        "coordinates": [
          -34.88519,
          -8.06263
        ]
      },
      "id": "node/7204326634"
    },
    {
      "type": "Feature",
      "properties": {
        "@id": "node/7204326635",
        "amenity": "bicycle_rental",
        "capacity": "19",
        "name": "Tortura Nunca Mais",
        "network": "Bike PE",
        "operator": "Tembici",
        "payment:credit_cards": "yes",
        "ref": "13"
      },
      "geometry": {
        "type": "Point",
        "coordinates": [
          -34.878319,
          -8.056193
        ]
      },
      "id": "node/7204326635"
    },
    {
      "type": "Feature",
      "properties": {
        "@id": "node/7204326636",
        "amenity": "bicycle_rental",
        "capacity": "19",
        "name": "Parque Treze de Maio",
        "network": "Bike PE",
        "operator": "Tembici",
        "payment:credit_cards": "yes",
        "ref": "14"
      },
      "geometry": {
        "type": "Point",
        "coordinates": [
          -34.88106,
          -8.05854
        ]
      },
      "id": "node/7204326636"
    },
    {
      "type": "Feature",
      "properties": {
        "@id": "node/7204326637",
        "amenity": "bicycle_rental",
        "capacity": "11",
        "name": "Ponte do Limoeiro",
        "network": "Bike PE",
        "operator": "Tembici",
        "payment:credit_cards": "yes",
        "ref": "11"
      },
      "geometry": {
        "type": "Point",
        "coordinates": [
          -34.87397,
          -8.05039
        ]
      },
      "id": "node/7204326637"
    },
    {
      "type": "Feature",
      "properties": {
        "@id": "node/7204326638",
        "amenity": "bicycle_rental",
        "capacity": "15",
        "name": "Camilo Simões",
        "network": "Bike PE",
        "operator": "Tembici",
        "payment:credit_cards": "yes",
        "ref": "12"
      },
      "geometry": {
        "type": "Point",
        "coordinates": [
          -34.87581,
          -8.05316
        ]
      },
      "id": "node/7204326638"
    },
    {
      "type": "Feature",
      "properties": {
        "@id": "node/7204326639",
        "amenity": "bicycle_rental",
        "capacity": "27",
        "name": "Praça Joaquim Nabuco",
        "network": "Bike PE",
        "operator": "Tembici",
        "payment:credit_cards": "yes",
        "ref": "9"
      },
      "geometry": {
        "type": "Point",
        "coordinates": [
          -34.88135,
          -8.06444
        ]
      },
      "id": "node/7204326639"
    },
    {
      "type": "Feature",
      "properties": {
        "@id": "node/7204326640",
        "amenity": "bicycle_rental",
        "capacity": "27",
        "fee": "yes",
        "name": "Casa da Cultura",
        "network": "Bike PE",
        "operator": "Tembici",
        "operator:type": "private",
        "payment:credit_cards": "yes",
        "ref": "10"
      },
      "geometry": {
        "type": "Point",
        "coordinates": [
          -34.8829502,
          -8.0667863
        ]
      },
      "id": "node/7204326640"
    },
    {
      "type": "Feature",
      "properties": {
        "@id": "node/7204326641",
        "amenity": "bicycle_rental",
        "capacity": "19",
        "name": "Praça da República",
        "network": "Bike PE",
        "operator": "Tembici",
        "payment:credit_cards": "yes",
        "ref": "7"
      },
      "geometry": {
        "type": "Point",
        "coordinates": [
          -34.87839,
          -8.06112
        ]
      },
      "id": "node/7204326641"
    },
    {
      "type": "Feature",
      "properties": {
        "@id": "node/7204326642",
        "amenity": "bicycle_rental",
        "capacity": "23",
        "name": "Praça da Independência",
        "network": "Bike PE",
        "operator": "Tembici",
        "payment:credit_cards": "yes",
        "ref": "8"
      },
      "geometry": {
        "type": "Point",
        "coordinates": [
          -34.87837,
          -8.06418
        ]
      },
      "id": "node/7204326642"
    },
    {
      "type": "Feature",
      "properties": {
        "@id": "node/7204326643",
        "amenity": "bicycle_rental",
        "capacity": "31",
        "name": "Paço Alfândega",
        "network": "Bike PE",
        "operator": "Tembici",
        "payment:credit_cards": "yes",
        "ref": "5"
      },
      "geometry": {
        "type": "Point",
        "coordinates": [
          -34.8742295,
          -8.0637619
        ]
      },
      "id": "node/7204326643"
    },
    {
      "type": "Feature",
      "properties": {
        "@id": "node/7204326644",
        "amenity": "bicycle_rental",
        "capacity": "15",
        "name": "Cais de Santa Rita",
        "network": "Bike PE",
        "operator": "Tembici",
        "payment:credit_cards": "yes",
        "ref": "6"
      },
      "geometry": {
        "type": "Point",
        "coordinates": [
          -34.8757,
          -8.06707
        ]
      },
      "id": "node/7204326644"
    },
    {
      "type": "Feature",
      "properties": {
        "@id": "node/7204326645",
        "amenity": "bicycle_rental",
        "capacity": "22",
        "name": "Praça do Arsenal",
        "network": "Bike PE",
        "operator": "Tembici",
        "payment:credit_cards": "yes",
        "ref": "3"
      },
      "geometry": {
        "type": "Point",
        "coordinates": [
          -34.871049,
          -8.061392
        ]
      },
      "id": "node/7204326645"
    },
    {
      "type": "Feature",
      "properties": {
        "@id": "node/7204326646",
        "amenity": "bicycle_rental",
        "capacity": "22",
        "name": "Boulevard Rio Branco",
        "network": "Bike PE",
        "operator": "Tembici",
        "payment:credit_cards": "yes",
        "ref": "4"
      },
      "geometry": {
        "type": "Point",
        "coordinates": [
          -34.872696,
          -8.0625979
        ]
      },
      "id": "node/7204326646"
    },
    {
      "type": "Feature",
      "properties": {
        "@id": "node/7204326647",
        "amenity": "bicycle_rental",
        "capacity": "15",
        "name": "Prefeitura",
        "network": "Bike PE",
        "operator": "Tembici",
        "payment:credit_cards": "yes",
        "ref": "1"
      },
      "geometry": {
        "type": "Point",
        "coordinates": [
          -34.87221,
          -8.05529
        ]
      },
      "id": "node/7204326647"
    },
    {
      "type": "Feature",
      "properties": {
        "@id": "node/7204326648",
        "amenity": "bicycle_rental",
        "capacity": "15",
        "name": "Praça Tiradentes",
        "network": "Bike PE",
        "operator": "Tembici",
        "payment:credit_cards": "yes",
        "ref": "2"
      },
      "geometry": {
        "type": "Point",
        "coordinates": [
          -34.8723948,
          -8.0587934
        ]
      },
      "id": "node/7204326648"
    },
    {
      "type": "Feature",
      "properties": {
        "@id": "node/7969991050",
        "alt_name": "BikePE - 80 R.U UFPE",
        "amenity": "bicycle_rental",
        "capacity": "30",
        "fee": "yes",
        "name": "Restaurante Universitário UFPE",
        "network": "BikePE",
        "operator": "Tembici",
        "operator:type": "private",
        "payment:credit_cards": "yes",
        "payment:debit_cards": "yes",
        "ref": "80"
      },
      "geometry": {
        "type": "Point",
        "coordinates": [
          -34.9533747,
          -8.0505829
        ]
      },
      "id": "node/7969991050"
    },
    {
      "type": "Feature",
      "properties": {
        "@id": "node/7969991051",
        "amenity": "bicycle_rental",
        "capacity": "23",
        "fee": "yes",
        "name": "CCS UFPE",
        "network": "BikePE",
        "operator": "Tembici",
        "operator:type": "private",
        "payment:credit_cards": "yes",
        "payment:debit_cards": "yes",
        "ref": "78"
      },
      "geometry": {
        "type": "Point",
        "coordinates": [
          -34.9474288,
          -8.0501292
        ]
      },
      "id": "node/7969991051"
    },
    {
      "type": "Feature",
      "properties": {
        "@id": "node/12532218552",
        "amenity": "bicycle_rental",
        "name": "Boutique velo"
      },
      "geometry": {
        "type": "Point",
        "coordinates": [
          -34.8798685,
          -8.0667296
        ]
      },
      "id": "node/12532218552"
    }
  ]
}