{"type":"FeatureCollection","features":[{"type":"Feature","id":"way/1288468894","properties":{"id":"way/1288468894","type":"Bicicletários"},"geometry":{"type":"Polygon","coordinates":[[[-34.8973139,-7.9088601],[-34.897326,-7.9088832],[-34.8972947,-7.9088995],[-34.897232,-7.9089322],[-34.8972179,-7.9089072],[-34.8972536,-7.9088897],[-34.8973139,-7.9088601]]]}},{"type":"Feature","id":"way/48001666","properties":{"name":"Avenida D","id":"way/48001666","type":"Ciclofaixa"},"geometry":{"type":"LineString","coordinates":[[-34.9321689,-7.9226709],[-34.9318805,-7.9223089]]}},{"type":"Feature","id":"way/171854564","properties":{"name":"Avenida D","id":"way/171854564","type":"Ciclofaixa"},"geometry":{"type":"LineString","coordinates":[[-34.9093659,-7.9201947],[-34.9098239,-7.919865],[-34.9100273,-7.9196913],[-34.9101839,-7.9195663],[-34.9105465,-7.9192869],[-34.9107944,-7.9190811],[-34.9108795,-7.9190091],[-34.9112483,-7.9187258],[-34.9116104,-7.9184476],[-34.9117928,-7.9182928],[-34.9119484,-7.9181692],[-34.9123114,-7.9178835],[-34.9124795,-7.9177548],[-34.9126601,-7.9176111],[-34.9130286,-7.9173304],[-34.9132562,-7.9171563],[-34.9134339,-7.9170053],[-34.9137059,-7.9167792],[-34.9138499,-7.9166698],[-34.9140004,-7.9165752],[-34.9141504,-7.9164711],[-34.9142897,-7.9163989],[-34.9144722,-7.916314],[-34.9146334,-7.9162459]]}},{"type":"Feature","id":"way/171854986","properties":{"name":"Avenida D","id":"way/171854986","type":"Ciclofaixa"},"geometry":{"type":"LineString","coordinates":[[-34.9146334,-7.9162459],[-34.9147238,-7.9162128],[-34.9151328,-7.9160798],[-34.915342,-7.9160353],[-34.9155946,-7.9160167],[-34.9158266,-7.9160031],[-34.916024,-7.9159941],[-34.9161977,-7.9159961],[-34.9163479,-7.9160094],[-34.916494,-7.9160267],[-34.916718,-7.9160752],[-34.9169588,-7.91614],[-34.9173242,-7.9162811],[-34.9174502,-7.9163349],[-34.917644,-7.9164365],[-34.9177869,-7.9165208],[-34.9179089,-7.9165959],[-34.9185017,-7.9170628],[-34.9188866,-7.9173231],[-34.9190374,-7.9174141],[-34.919309,-7.9175582],[-34.9195907,-7.9177017],[-34.9197972,-7.917796],[-34.9201153,-7.9179029]]}},{"type":"Feature","id":"way/171854987","properties":{"name":"Avenida D","id":"way/171854987","type":"Ciclofaixa"},"geometry":{"type":"LineString","coordinates":[[-34.9203631,-7.91797],[-34.9205924,-7.9180245]]}},{"type":"Feature","id":"way/400041239","properties":{"name":"Avenida D","id":"way/400041239","type":"Ciclofaixa"},"geometry":{"type":"LineString","coordinates":[[-34.9093659,-7.9201947],[-34.9092728,-7.920298],[-34.9092281,-7.9203446],[-34.9091676,-7.9204061],[-34.9091178,-7.920456],[-34.9090478,-7.9205478],[-34.90898,-7.9206725]]}},{"type":"Feature","id":"way/400041240","properties":{"name":"Avenida D","id":"way/400041240","type":"Ciclofaixa"},"geometry":{"type":"LineString","coordinates":[[-34.9089577,-7.9209388],[-34.9089715,-7.9210099],[-34.9089966,-7.9211952],[-34.9090181,-7.9213353],[-34.9090502,-7.9215146],[-34.9090865,-7.9217119]]}},{"type":"Feature","id":"way/440516101","properties":{"name":"Rua São José","id":"way/440516101","type":"Baixa velocidade"},"geometry":{"type":"LineString","coordinates":[[-35.0573005,-7.8962573],[-35.0563273,-7.8975051]]}},{"type":"Feature","id":"way/440516102","properties":{"name":"Rua das Flores","id":"way/440516102","type":"Baixa velocidade"},"geometry":{"type":"LineString","coordinates":[[-35.0641828,-7.9012675],[-35.0642243,-7.8999008],[-35.0642474,-7.8992034]]}},{"type":"Feature","id":"way/440516104","properties":{"name":"Rua Arco Íris","id":"way/440516104","type":"Baixa velocidade"},"geometry":{"type":"LineString","coordinates":[[-35.0642069,-7.9019003],[-35.0632031,-7.9013618],[-35.0628598,-7.9011534]]}},{"type":"Feature","id":"way/440516105","properties":{"name":"Rua Alcenir Luís Monteiro","id":"way/440516105","type":"Baixa velocidade"},"geometry":{"type":"LineString","coordinates":[[-35.0559571,-7.8973191],[-35.0570004,-7.8959519]]}},{"type":"Feature","id":"way/440516106","properties":{"name":"Rua Conselheiro Águiar","id":"way/440516106","type":"Baixa velocidade"},"geometry":{"type":"LineString","coordinates":[[-35.0628703,-7.9005332],[-35.0623138,-7.9013188]]}},{"type":"Feature","id":"way/440516107","properties":{"name":"Rua da Esperança","id":"way/440516107","type":"Baixa velocidade"},"geometry":{"type":"LineString","coordinates":[[-35.0614418,-7.8998008],[-35.0609572,-7.900599]]}},{"type":"Feature","id":"way/440516109","properties":{"name":"Rua Tomás Jobim","id":"way/440516109","type":"Baixa velocidade"},"geometry":{"type":"LineString","coordinates":[[-35.0576318,-7.8966092],[-35.0566706,-7.8977654]]}},{"type":"Feature","id":"way/440516110","properties":{"name":"Rua São Francisco","id":"way/440516110","type":"Baixa velocidade"},"geometry":{"type":"LineString","coordinates":[[-35.0605104,-7.8993569],[-35.0598711,-7.9003241]]}},{"type":"Feature","id":"way/440516112","properties":{"name":"Rua da Primavera","id":"way/440516112","type":"Baixa velocidade"},"geometry":{"type":"LineString","coordinates":[[-35.061538,-7.8998575],[-35.0618104,-7.8994629]]}},{"type":"Feature","id":"way/440516113","properties":{"name":"Rua da Felicidade","id":"way/440516113","type":"Baixa velocidade"},"geometry":{"type":"LineString","coordinates":[[-35.0596979,-7.8987868],[-35.0592455,-7.8994365]]}},{"type":"Feature","id":"way/440516118","properties":{"name":"Rua da Palma","id":"way/440516118","type":"Baixa velocidade"},"geometry":{"type":"LineString","coordinates":[[-35.0589812,-7.898022],[-35.0583148,-7.8988095]]}},{"type":"Feature","id":"way/440516121","properties":{"name":"Rua Bom Jesus","id":"way/440516121","type":"Baixa velocidade"},"geometry":{"type":"LineString","coordinates":[[-35.0600583,-7.8991296],[-35.0595177,-7.8999231]]}},{"type":"Feature","id":"way/440516123","properties":{"name":"Rua da Paz","id":"way/440516123","type":"Baixa velocidade"},"geometry":{"type":"LineString","coordinates":[[-35.0582645,-7.8972844],[-35.0573492,-7.8981825]]}},{"type":"Feature","id":"way/440516125","properties":{"name":"Rua da Mangueira","id":"way/440516125","type":"Baixa velocidade"},"geometry":{"type":"LineString","coordinates":[[-35.0642119,-7.9021984],[-35.0631212,-7.9020207]]}},{"type":"Feature","id":"way/440516128","properties":{"name":"Rua União","id":"way/440516128","type":"Baixa velocidade"},"geometry":{"type":"LineString","coordinates":[[-35.0593296,-7.8984078],[-35.0587922,-7.8991257]]}},{"type":"Feature","id":"way/440516130","properties":{"name":"Rua Paulo Júnior","id":"way/440516130","type":"Baixa velocidade"},"geometry":{"type":"LineString","coordinates":[[-35.0555977,-7.8971225],[-35.0567054,-7.8956838]]}},{"type":"Feature","id":"way/440516132","properties":{"name":"Rua Caminho S/D","id":"way/440516132","type":"Baixa velocidade"},"geometry":{"type":"LineString","coordinates":[[-35.0642179,-7.9026718],[-35.0637163,-7.9027242]]}},{"type":"Feature","id":"way/440516133","properties":{"name":"Rua da Palmeira","id":"way/440516133","type":"Baixa velocidade"},"geometry":{"type":"LineString","coordinates":[[-35.0586302,-7.8976607],[-35.0577864,-7.8984668]]}},{"type":"Feature","id":"way/440516136","properties":{"name":"Rua Tom Jobim","id":"way/440516136","type":"Baixa velocidade"},"geometry":{"type":"LineString","coordinates":[[-35.0579077,-7.8969173],[-35.0570568,-7.8979461]]}},{"type":"Feature","id":"way/440516143","properties":{"name":"Rua Romeu da Fonte","id":"way/440516143","type":"Baixa velocidade"},"geometry":{"type":"LineString","coordinates":[[-35.0610178,-7.8996013],[-35.0605303,-7.9003338]]}},{"type":"Feature","id":"way/440516151","properties":{"id":"way/440516151","type":"Baixa velocidade"},"geometry":{"type":"LineString","coordinates":[[-35.0637546,-7.8993307],[-35.0637728,-7.9003124],[-35.0636766,-7.9010251]]}},{"type":"Feature","id":"way/440516152","properties":{"name":"Rua da Mocidade","id":"way/440516152","type":"Baixa velocidade"},"geometry":{"type":"LineString","coordinates":[[-35.0624268,-7.9002642],[-35.0619103,-7.9010613],[-35.0618155,-7.9012854]]}},{"type":"Feature","id":"way/440516153","properties":{"id":"way/440516153","type":"Baixa velocidade"},"geometry":{"type":"LineString","coordinates":[[-35.0627742,-7.8994211],[-35.0626942,-7.8994442],[-35.0625443,-7.8995203],[-35.0623757,-7.8996696],[-35.062204,-7.8998184],[-35.0620387,-7.9000816]]}},{"type":"Feature","id":"way/440516154","properties":{"name":"Rua José Pereira","id":"way/440516154","type":"Baixa velocidade"},"geometry":{"type":"LineString","coordinates":[[-35.0634311,-7.903069],[-35.0629923,-7.9030986],[-35.0629644,-7.9030981],[-35.06294,-7.9030946],[-35.062896,-7.903085],[-35.0622469,-7.9028663],[-35.0621775,-7.9028403],[-35.0621112,-7.902811],[-35.0620563,-7.9027732],[-35.0619864,-7.9027127],[-35.0619012,-7.9025858],[-35.0618625,-7.9025431],[-35.0618217,-7.9025113],[-35.0617751,-7.9024842],[-35.0617322,-7.9024595],[-35.0616773,-7.9024427],[-35.061628,-7.9024418],[-35.0613245,-7.9025394],[-35.0612399,-7.9025678]]}},{"type":"Feature","id":"way/440516155","properties":{"id":"way/440516155","type":"Baixa velocidade"},"geometry":{"type":"LineString","coordinates":[[-35.0637624,-7.9040958],[-35.063675,-7.9029299],[-35.0636788,-7.9027758],[-35.0636914,-7.902744],[-35.0637163,-7.9027242]]}},{"type":"Feature","id":"way/440516156","properties":{"name":"Rua Santa Luzia","id":"way/440516156","type":"Baixa velocidade"},"geometry":{"type":"LineString","coordinates":[[-35.063675,-7.9029299],[-35.0634311,-7.903069],[-35.0632347,-7.9033322],[-35.0631905,-7.9033983],[-35.0631772,-7.9034633],[-35.0631772,-7.9035369],[-35.0631802,-7.9036396]]}},{"type":"Feature","id":"way/440516157","properties":{"name":"Rua da Vitória","id":"way/440516157","type":"Baixa velocidade"},"geometry":{"type":"LineString","coordinates":[[-35.0619288,-7.9000324],[-35.0615202,-7.9006708],[-35.0614913,-7.9007184],[-35.0614638,-7.900773],[-35.0612637,-7.9011787],[-35.0612389,-7.901225],[-35.0612135,-7.9012595],[-35.0610545,-7.9014696],[-35.0608899,-7.9016971],[-35.0608764,-7.9017164],[-35.0608646,-7.901739],[-35.060733,-7.9019796],[-35.0607297,-7.9020027],[-35.0607377,-7.9020209],[-35.0608091,-7.9020929]]}},{"type":"Feature","id":"way/549395377","properties":{"name":"Rua Arame","id":"way/549395377","type":"Baixa velocidade"},"geometry":{"type":"LineString","coordinates":[[-35.0642243,-7.8999008],[-35.0644659,-7.8999979],[-35.0646509,-7.9000722],[-35.0653215,-7.8991753]]}},{"type":"Feature","id":"way/670345937","properties":{"name":"Avenida D","id":"way/670345937","type":"Ciclofaixa"},"geometry":{"type":"LineString","coordinates":[[-34.9293338,-7.9197108],[-34.9288972,-7.9195162],[-34.9288711,-7.9195039],[-34.9286733,-7.9194202],[-34.9284178,-7.9193123],[-34.927934,-7.9191051],[-34.9278505,-7.9190679],[-34.9276225,-7.9189762],[-34.9274649,-7.9189131],[-34.9271065,-7.9187607],[-34.9265993,-7.9185399],[-34.9263569,-7.9184339],[-34.9261151,-7.9183326],[-34.9256062,-7.9181341]]}},{"type":"Feature","id":"way/670345939","properties":{"name":"Avenida D","id":"way/670345939","type":"Ciclofaixa"},"geometry":{"type":"LineString","coordinates":[[-34.9307325,-7.9209136],[-34.9304301,-7.9205821]]}},{"type":"Feature","id":"way/670345942","properties":{"name":"Avenida D","id":"way/670345942","type":"Ciclofaixa"},"geometry":{"type":"LineString","coordinates":[[-34.929779,-7.9199691],[-34.9293338,-7.9197108]]}},{"type":"Feature","id":"way/670345944","properties":{"name":"Avenida D","id":"way/670345944","type":"Ciclofaixa"},"geometry":{"type":"LineString","coordinates":[[-34.9304301,-7.9205821],[-34.9302712,-7.9203975],[-34.9301297,-7.9202521]]}},{"type":"Feature","id":"way/670345946","properties":{"name":"Avenida D","id":"way/670345946","type":"Ciclofaixa"},"geometry":{"type":"LineString","coordinates":[[-34.9301297,-7.9202521],[-34.9300084,-7.9201485],[-34.929897,-7.9200588],[-34.929779,-7.9199691]]}},{"type":"Feature","id":"way/670345947","properties":{"name":"Avenida D","id":"way/670345947","type":"Ciclofaixa"},"geometry":{"type":"LineString","coordinates":[[-34.9318805,-7.9223089],[-34.9315862,-7.9219682],[-34.9313112,-7.9216083],[-34.9310289,-7.9212695],[-34.9307325,-7.9209136]]}},{"type":"Feature","id":"way/670642828","properties":{"name":"Avenida D","id":"way/670642828","type":"Ciclofaixa"},"geometry":{"type":"LineString","coordinates":[[-34.9256062,-7.9181341],[-34.9251361,-7.917978]]}},{"type":"Feature","id":"way/670642830","properties":{"name":"Avenida D","id":"way/670642830","type":"Ciclofaixa"},"geometry":{"type":"LineString","coordinates":[[-34.9251361,-7.917978],[-34.9249148,-7.9179282],[-34.9246761,-7.917887]]}},{"type":"Feature","id":"way/670642832","properties":{"name":"Avenida D","id":"way/670642832","type":"Ciclofaixa"},"geometry":{"type":"LineString","coordinates":[[-34.9242178,-7.9178415],[-34.924433,-7.9178588],[-34.9246761,-7.917887]]}},{"type":"Feature","id":"way/670642834","properties":{"name":"Avenida D","id":"way/670642834","type":"Ciclofaixa"},"geometry":{"type":"LineString","coordinates":[[-34.9237595,-7.9178545],[-34.9242178,-7.9178415]]}},{"type":"Feature","id":"way/670642836","properties":{"name":"Avenida D","id":"way/670642836","type":"Ciclofaixa"},"geometry":{"type":"LineString","coordinates":[[-34.9233149,-7.9179026],[-34.9237595,-7.9178545]]}},{"type":"Feature","id":"way/670642838","properties":{"name":"Avenida D","id":"way/670642838","type":"Ciclofaixa"},"geometry":{"type":"LineString","coordinates":[[-34.9228445,-7.9179557],[-34.9233149,-7.9179026]]}},{"type":"Feature","id":"way/670642840","properties":{"name":"Avenida D","id":"way/670642840","type":"Ciclofaixa"},"geometry":{"type":"LineString","coordinates":[[-34.9223962,-7.9179956],[-34.9228445,-7.9179557]]}},{"type":"Feature","id":"way/670642842","properties":{"name":"Avenida D","id":"way/670642842","type":"Ciclofaixa"},"geometry":{"type":"LineString","coordinates":[[-34.9219483,-7.9180457],[-34.9223962,-7.9179956]]}},{"type":"Feature","id":"way/670642844","properties":{"name":"Avenida D","id":"way/670642844","type":"Ciclofaixa"},"geometry":{"type":"LineString","coordinates":[[-34.9215157,-7.9180825],[-34.9216975,-7.9180736],[-34.9219483,-7.9180457]]}},{"type":"Feature","id":"way/670642846","properties":{"name":"Avenida D","id":"way/670642846","type":"Ciclofaixa"},"geometry":{"type":"LineString","coordinates":[[-34.9210445,-7.918084],[-34.9212681,-7.9180872],[-34.9215157,-7.9180825]]}},{"type":"Feature","id":"way/670642848","properties":{"name":"Avenida D","id":"way/670642848","type":"Ciclofaixa"},"geometry":{"type":"LineString","coordinates":[[-34.9205924,-7.9180245],[-34.9208241,-7.9180561],[-34.9210445,-7.918084]]}},{"type":"Feature","id":"way/670642849","properties":{"name":"Avenida D","id":"way/670642849","type":"Ciclofaixa"},"geometry":{"type":"LineString","coordinates":[[-34.9201153,-7.9179029],[-34.9203631,-7.91797]]}},{"type":"Feature","id":"way/769249317","properties":{"name":"Rua Uruguaiana","id":"way/769249317","type":"Baixa velocidade"},"geometry":{"type":"LineString","coordinates":[[-35.0634833,-7.9009296],[-35.0632031,-7.9013618]]}},{"type":"Feature","id":"way/1183566163","properties":{"name":"Avenida D","id":"way/1183566163","type":"Calçada compartilhada"},"geometry":{"type":"LineString","coordinates":[[-34.909116,-7.9217743],[-34.9091041,-7.9218932],[-34.9090372,-7.9219447],[-34.9089033,-7.9219668],[-34.9086542,-7.9219889],[-34.9085203,-7.9220626]]}},{"type":"Feature","id":"way/1265657171","properties":{"name":"Ciclovia da PE-15","id":"way/1265657171","type":"Ciclovia"},"geometry":{"type":"LineString","coordinates":[[-34.886524,-7.9297806],[-34.8867282,-7.9294529],[-34.8871465,-7.9286802],[-34.8873532,-7.9283049],[-34.8876484,-7.9277847],[-34.8878702,-7.9273724],[-34.8880911,-7.9270034],[-34.8883199,-7.9266435],[-34.8885783,-7.9262594],[-34.8889377,-7.9258832],[-34.8893709,-7.9254305],[-34.8898263,-7.9249975],[-34.8902584,-7.9245549],[-34.8907586,-7.9240696],[-34.8912208,-7.9236293],[-34.8916165,-7.9232485],[-34.8919367,-7.9229364],[-34.8922541,-7.9226258],[-34.8923637,-7.9224084],[-34.8923916,-7.9223998],[-34.8924859,-7.9223709],[-34.8930112,-7.9218251],[-34.8932293,-7.9215868],[-34.893234,-7.9215738],[-34.8936116,-7.9212034],[-34.8938656,-7.9209378],[-34.8938913,-7.9209045],[-34.8940666,-7.9207467],[-34.894289,-7.9205175],[-34.8948298,-7.919904],[-34.8948647,-7.9198614],[-34.8949774,-7.9196989],[-34.8950967,-7.919543],[-34.8951575,-7.9194761],[-34.8952357,-7.9193552],[-34.8956677,-7.9187069],[-34.8960819,-7.9181934],[-34.8961925,-7.9180491],[-34.8967051,-7.9173179],[-34.8975447,-7.9160729],[-34.8977325,-7.915759],[-34.8981281,-7.915195],[-34.8984371,-7.9147618],[-34.8986929,-7.9144288],[-34.8989911,-7.9140075],[-34.899415,-7.9134035]]}},{"type":"Feature","id":"node/11948545339","properties":{"id":"node/11948545339","type":"Bicicletários"},"geometry":{"type":"Point","coordinates":[-34.8972729,-7.9088939]}}]}