{"type":"FeatureCollection","features":[{"type":"Feature","id":"way/240718111","properties":{"name":"Rua Fim de Semana","id":"way/240718111","type":"Baixa velocidade"},"geometry":{"type":"LineString","coordinates":[[-34.9049127,-7.8542838],[-34.9051295,-7.8556937],[-34.9053669,-7.8570727]]}},{"type":"Feature","id":"way/240718112","properties":{"name":"Rua Tentativa","id":"way/240718112","type":"Baixa velocidade"},"geometry":{"type":"LineString","coordinates":[[-34.9054142,-7.8543186],[-34.9056271,-7.85561],[-34.9058282,-7.856997]]}},{"type":"Feature","id":"way/377495001","properties":{"name":"Rua São João","id":"way/377495001","type":"Baixa velocidade"},"geometry":{"type":"LineString","coordinates":[[-34.9131117,-7.8079447],[-34.9125858,-7.8086582]]}},{"type":"Feature","id":"way/377495002","properties":{"name":"Rua Motorista Robson viana","id":"way/377495002","type":"Baixa velocidade"},"geometry":{"type":"LineString","coordinates":[[-34.9126316,-7.8078037],[-34.9121123,-7.8085305]]}},{"type":"Feature","id":"way/377495003","properties":{"id":"way/377495003","type":"Baixa velocidade"},"geometry":{"type":"LineString","coordinates":[[-34.9128405,-7.8095072],[-34.9126564,-7.8093002],[-34.912382,-7.8089999],[-34.9122376,-7.8088359],[-34.9121815,-7.8087575],[-34.9121851,-7.8087422],[-34.9122275,-7.8086892],[-34.9122074,-7.8086399]]}},{"type":"Feature","id":"way/552966581","properties":{"name":"Passagem do Sítio","id":"way/552966581","type":"Baixa velocidade"},"geometry":{"type":"LineString","coordinates":[[-34.9053669,-7.8570727],[-34.9054205,-7.8571817],[-34.9055359,-7.8573663],[-34.9056566,-7.8576041],[-34.9057022,-7.8576945],[-34.9057612,-7.8577702],[-34.9058162,-7.8578366],[-34.905894,-7.8579097]]}},{"type":"Feature","id":"way/552966591","properties":{"name":"Rua Fim de Semana","id":"way/552966591","type":"Baixa velocidade"},"geometry":{"type":"LineString","coordinates":[[-34.905894,-7.8579097],[-34.9059972,-7.858388],[-34.906014,-7.8584391],[-34.90602,-7.858465],[-34.9060234,-7.8585069],[-34.906018,-7.8586351],[-34.9060039,-7.8588397],[-34.9059509,-7.8592143],[-34.9059174,-7.8593724],[-34.9059174,-7.8594295],[-34.9059194,-7.8594687],[-34.9059315,-7.8595019],[-34.9059623,-7.8595398],[-34.9059825,-7.8595584],[-34.9060307,-7.8595843],[-34.9061421,-7.8596235],[-34.9063157,-7.859668],[-34.9065417,-7.8597284],[-34.9066339,-7.8597683],[-34.9066788,-7.8598068],[-34.9067438,-7.8599179]]}},{"type":"Feature","id":"way/716001400","properties":{"name":"Passagem do Sítio","id":"way/716001400","type":"Baixa velocidade"},"geometry":{"type":"LineString","coordinates":[[-34.905894,-7.8579097],[-34.9059302,-7.8578413],[-34.9059409,-7.8577782],[-34.9059362,-7.8576892],[-34.9059074,-7.8573929],[-34.9058698,-7.8572175],[-34.9058282,-7.856997]]}},{"type":"Feature","id":"way/765690520","properties":{"name":"Rua Alterosa","id":"way/765690520","type":"Baixa velocidade"},"geometry":{"type":"LineString","coordinates":[[-34.9122074,-7.8086399],[-34.9121841,-7.8085923],[-34.9121613,-7.8085659],[-34.9121123,-7.8085305],[-34.9120247,-7.8084913],[-34.9119913,-7.8084619],[-34.9119212,-7.8084004],[-34.9116063,-7.808125]]}}]}