{"type":"FeatureCollection","features":[{"type":"Feature","id":"way/605949576","properties":{"id":"way/605949576","type":"Calçada compartilhada"},"geometry":{"type":"Polygon","coordinates":[[[-34.9713173,-8.0173719],[-34.9712983,-8.0173809],[-34.9711925,-8.0174056],[-34.9711693,-8.0174078],[-34.9712,-8.0173084],[-34.9713261,-8.017164],[-34.9713392,-8.0171491],[-34.9714418,-8.0170316],[-34.9715909,-8.0169875],[-34.9718682,-8.0166274],[-34.9718961,-8.0164299],[-34.9719164,-8.0164204],[-34.9720467,-8.0165947],[-34.9719281,-8.0167539],[-34.9717778,-8.0169558],[-34.9717056,-8.0169058],[-34.9716497,-8.0169761],[-34.9716623,-8.0170648],[-34.9716325,-8.0171146],[-34.9716233,-8.0173017],[-34.9716221,-8.0173257],[-34.9715896,-8.0172768],[-34.9715346,-8.0172419],[-34.9714767,-8.0172293],[-34.9714189,-8.0172363],[-34.9713667,-8.0172615],[-34.9713328,-8.0173048],[-34.9713173,-8.0173719]]]}},{"type":"Feature","id":"way/1017704428","properties":{"id":"way/1017704428","type":"Bicicletários"},"geometry":{"type":"Polygon","coordinates":[[[-35.0073002,-8.0212937],[-35.0072925,-8.0213108],[-35.0071973,-8.0212691],[-35.0072049,-8.021252],[-35.0073002,-8.0212937]]]}},{"type":"Feature","id":"way/1107989615","properties":{"id":"way/1107989615","type":"Bicicletários"},"geometry":{"type":"Polygon","coordinates":[[[-34.9992344,-8.0169958],[-34.9992518,-8.0168811],[-34.9992848,-8.0168859],[-34.9992674,-8.0170006],[-34.9992344,-8.0169958]]]}},{"type":"Feature","id":"way/240888952","properties":{"name":"Rua Topázio","id":"way/240888952","type":"Baixa velocidade"},"geometry":{"type":"LineString","coordinates":[[-34.9645679,-8.0069876],[-34.9645974,-8.0070434],[-34.9646605,-8.0071131],[-34.9648858,-8.0073648],[-34.965089,-8.0075759],[-34.9652318,-8.0077101],[-34.9655087,-8.0079591],[-34.9657817,-8.0081964]]}},{"type":"Feature","id":"way/241044892","properties":{"name":"Rua Sales Fernandes da Silva","id":"way/241044892","type":"Baixa velocidade"},"geometry":{"type":"LineString","coordinates":[[-35.0044918,-8.0188729],[-35.0043113,-8.0191247],[-35.0041312,-8.0194344],[-35.0040239,-8.0196097],[-35.0039826,-8.0196645],[-35.0039099,-8.0197611],[-35.0037366,-8.0199392]]}},{"type":"Feature","id":"way/245859010","properties":{"name":"Rua Dez","id":"way/245859010","type":"Baixa velocidade"},"geometry":{"type":"LineString","coordinates":[[-35.0059471,-7.9391508],[-35.0062615,-7.9397074],[-35.0063098,-7.9397665],[-35.0063454,-7.9397957],[-35.006405,-7.9398063],[-35.0068543,-7.9397399],[-35.0069113,-7.9397213],[-35.0069408,-7.9396921]]}},{"type":"Feature","id":"way/245859012","properties":{"name":"Rua Três","id":"way/245859012","type":"Baixa velocidade"},"geometry":{"type":"LineString","coordinates":[[-35.0068315,-7.9384754],[-35.0079337,-7.9383362],[-35.0094024,-7.938158]]}},{"type":"Feature","id":"way/245859013","properties":{"name":"Rua Dois","id":"way/245859013","type":"Baixa velocidade"},"geometry":{"type":"LineString","coordinates":[[-35.0071641,-7.9390748],[-35.0082657,-7.9389365],[-35.0097464,-7.9387437]]}},{"type":"Feature","id":"way/250475941","properties":{"name":"Rua Pérola","id":"way/250475941","type":"Baixa velocidade"},"geometry":{"type":"LineString","coordinates":[[-34.9657234,-8.0076448],[-34.9651728,-8.0071387],[-34.9649051,-8.0068741],[-34.9646313,-8.0066064]]}},{"type":"Feature","id":"way/251217254","properties":{"name":"Acesso ao Shopping","id":"way/251217254","type":"Baixa velocidade"},"geometry":{"type":"LineString","coordinates":[[-34.9764731,-8.0146248],[-34.9764823,-8.0146536],[-34.9764866,-8.0146707]]}},{"type":"Feature","id":"way/251217255","properties":{"id":"way/251217255","type":"Baixa velocidade"},"geometry":{"type":"LineString","coordinates":[[-34.976051,-8.0158767],[-34.9760696,-8.0154389],[-34.9760769,-8.0153557],[-34.9760867,-8.0152881],[-34.9761026,-8.0152251],[-34.976134,-8.0151427]]}},{"type":"Feature","id":"way/253029047","properties":{"name":"Rua Severino Rodrigues dos Reis","id":"way/253029047","type":"Baixa velocidade"},"geometry":{"type":"LineString","coordinates":[[-35.0075894,-8.0174722],[-35.0078161,-8.0172671],[-35.0078739,-8.0172148],[-35.0079004,-8.0171907],[-35.0079799,-8.0171187],[-35.0081395,-8.0169743]]}},{"type":"Feature","id":"way/253358484","properties":{"name":"Rua Jacuípe","id":"way/253358484","type":"Baixa velocidade"},"geometry":{"type":"LineString","coordinates":[[-35.0092091,-8.0116853],[-35.0093588,-8.0111872],[-35.0095037,-8.0106939],[-35.0096004,-8.0103709],[-35.0096821,-8.0100167],[-35.0097877,-8.0096672],[-35.0098288,-8.0095515],[-35.0098317,-8.0095448]]}},{"type":"Feature","id":"way/329849468","properties":{"name":"Rua Quatro","id":"way/329849468","type":"Baixa velocidade"},"geometry":{"type":"LineString","coordinates":[[-35.0062528,-7.9383718],[-35.0062488,-7.9383227],[-35.0062575,-7.9382729],[-35.0062864,-7.9382065],[-35.0064272,-7.9379634],[-35.006454,-7.9379235],[-35.0064895,-7.9378986],[-35.0065121,-7.9378889],[-35.0065398,-7.9378767],[-35.0065844,-7.9378658],[-35.0066947,-7.9378485],[-35.0075953,-7.937729]]}},{"type":"Feature","id":"way/329849469","properties":{"name":"Rua Nove","id":"way/329849469","type":"Baixa velocidade"},"geometry":{"type":"LineString","coordinates":[[-35.0069408,-7.9396921],[-35.0069482,-7.939635],[-35.0069408,-7.9395865],[-35.0069147,-7.9395321],[-35.006291,-7.9384635],[-35.0062696,-7.938419],[-35.0062528,-7.9383718]]}},{"type":"Feature","id":"way/329849470","properties":{"name":"Rua Seis","id":"way/329849470","type":"Baixa velocidade"},"geometry":{"type":"LineString","coordinates":[[-35.0090656,-7.9375479],[-35.0091103,-7.9376301],[-35.0094024,-7.938158],[-35.0097464,-7.9387437],[-35.0099663,-7.9391269],[-35.0099838,-7.9391874],[-35.0099838,-7.9392405],[-35.0099724,-7.9393003],[-35.0099402,-7.9393441]]}},{"type":"Feature","id":"way/329849474","properties":{"name":"Rua Um","id":"way/329849474","type":"Baixa velocidade"},"geometry":{"type":"LineString","coordinates":[[-35.0099402,-7.9393441],[-35.0098725,-7.93937],[-35.0097524,-7.9393879],[-35.0086065,-7.9395394],[-35.0077602,-7.9396403],[-35.0076392,-7.9396522],[-35.0075567,-7.939665],[-35.0075056,-7.9396737]]}},{"type":"Feature","id":"way/370563452","properties":{"name":"Avenida Rortary","id":"way/370563452","type":"Baixa velocidade"},"geometry":{"type":"LineString","coordinates":[[-34.9907872,-7.9816885],[-34.9916603,-7.9828851],[-34.9922557,-7.983715],[-34.9927462,-7.9845441],[-34.9931991,-7.9852848],[-34.9935474,-7.9858302],[-34.9939902,-7.9865445],[-34.9940652,-7.9866788],[-34.9941146,-7.9867788],[-34.9941391,-7.9868728],[-34.9941452,-7.9869843],[-34.9941425,-7.9871712],[-34.9941382,-7.9874195]]}},{"type":"Feature","id":"way/370953815","properties":{"name":"Rua Camelitas","id":"way/370953815","type":"Baixa velocidade"},"geometry":{"type":"LineString","coordinates":[[-34.977326,-8.0194446],[-34.9773162,-8.0195137],[-34.9773216,-8.0195577],[-34.977341,-8.0195947],[-34.9773748,-8.0196316],[-34.9774016,-8.0196681],[-34.9774197,-8.0197073],[-34.9774311,-8.0197485],[-34.9774332,-8.0198099],[-34.9774003,-8.0199759]]}},{"type":"Feature","id":"way/540434610","properties":{"name":"Rua Três","id":"way/540434610","type":"Baixa velocidade"},"geometry":{"type":"LineString","coordinates":[[-35.0068315,-7.9384754],[-35.0067303,-7.938492]]}},{"type":"Feature","id":"way/540434611","properties":{"name":"Rua Dois","id":"way/540434611","type":"Baixa velocidade"},"geometry":{"type":"LineString","coordinates":[[-35.0071641,-7.9390748],[-35.0070689,-7.9390977]]}},{"type":"Feature","id":"way/545026073","properties":{"name":"Rua Zacarias José do Rêgo","id":"way/545026073","type":"Baixa velocidade"},"geometry":{"type":"LineString","coordinates":[[-34.9764988,-8.0111101],[-34.9767865,-8.0107321],[-34.9769437,-8.0105422],[-34.9770068,-8.0104665],[-34.9770372,-8.0104443],[-34.9770724,-8.0104341],[-34.9771375,-8.0104373]]}},{"type":"Feature","id":"way/545157596","properties":{"id":"way/545157596","type":"Baixa velocidade"},"geometry":{"type":"LineString","coordinates":[[-34.9764594,-8.0158828],[-34.976051,-8.0158767]]}},{"type":"Feature","id":"way/573609258","properties":{"name":"Ramal Arena Pernambuco","id":"way/573609258","type":"Ciclofaixa"},"geometry":{"type":"LineString","coordinates":[[-34.997156,-8.0245322],[-34.9970999,-8.02478],[-34.9970372,-8.0250681],[-34.9970132,-8.0251784],[-34.996857,-8.0257907],[-34.9968297,-8.0259353],[-34.9968178,-8.0260972],[-34.9968219,-8.0262746],[-34.9968597,-8.0264546],[-34.9969087,-8.0266517],[-34.9969693,-8.0268552],[-34.9969806,-8.0270541],[-34.9970071,-8.0273077],[-34.9970114,-8.02758],[-34.9969993,-8.0277326],[-34.9969647,-8.0278683],[-34.9967337,-8.0286671],[-34.9966986,-8.0288225],[-34.996442,-8.0297064],[-34.9962727,-8.0305038],[-34.9962449,-8.0307082],[-34.9962267,-8.0310754],[-34.9962132,-8.0313242],[-34.9961889,-8.0315701],[-34.9961705,-8.0318278]]}},{"type":"Feature","id":"way/585005371","properties":{"name":"Rua Itapetinga","id":"way/585005371","type":"Trilha"},"geometry":{"type":"LineString","coordinates":[[-35.004442,-8.0133823],[-35.0044224,-8.0133893],[-35.004314,-8.0134184],[-35.0041799,-8.0134316],[-35.0039895,-8.0134687],[-35.0037816,-8.0135125]]}},{"type":"Feature","id":"way/587725691","properties":{"id":"way/587725691","type":"Baixa velocidade"},"geometry":{"type":"LineString","coordinates":[[-34.976134,-8.0151427],[-34.9763142,-8.0147417]]}},{"type":"Feature","id":"way/589342938","properties":{"name":"Rua Santo Antônio","id":"way/589342938","type":"Trilha"},"geometry":{"type":"LineString","coordinates":[[-34.9866002,-8.0249961],[-34.9864879,-8.0254012],[-34.9864796,-8.0258811]]}},{"type":"Feature","id":"way/601802495","properties":{"name":"Acesso ao Shopping","id":"way/601802495","type":"Baixa velocidade"},"geometry":{"type":"LineString","coordinates":[[-34.9764908,-8.0149946],[-34.9764847,-8.0151754],[-34.9764784,-8.0153525],[-34.9764646,-8.0157376],[-34.9764594,-8.0158828]]}},{"type":"Feature","id":"way/601802497","properties":{"name":"Acesso ao Shopping","id":"way/601802497","type":"Baixa velocidade"},"geometry":{"type":"LineString","coordinates":[[-34.9764866,-8.0146707],[-34.9764936,-8.0147447]]}},{"type":"Feature","id":"way/601802498","properties":{"name":"Acesso ao Shopping","id":"way/601802498","type":"Baixa velocidade"},"geometry":{"type":"LineString","coordinates":[[-34.9764936,-8.0147447],[-34.9764908,-8.0149946]]}},{"type":"Feature","id":"way/601802499","properties":{"id":"way/601802499","type":"Baixa velocidade"},"geometry":{"type":"LineString","coordinates":[[-34.9763393,-8.014676],[-34.9763418,-8.0146709],[-34.9763468,-8.0146579]]}},{"type":"Feature","id":"way/601802500","properties":{"id":"way/601802500","type":"Baixa velocidade"},"geometry":{"type":"LineString","coordinates":[[-34.9763142,-8.0147417],[-34.9763393,-8.014676]]}},{"type":"Feature","id":"way/637642165","properties":{"name":"Rua Padre Ozeas Cavalcante","id":"way/637642165","type":"Ciclofaixa"},"geometry":{"type":"LineString","coordinates":[[-34.9814468,-8.0166608],[-34.9814896,-8.01673],[-34.9815253,-8.0168148],[-34.9815453,-8.0169194],[-34.9815481,-8.0169915],[-34.981531,-8.0170975],[-34.9815072,-8.0171968],[-34.9814981,-8.0172286],[-34.9814697,-8.0173279],[-34.9814412,-8.0173944],[-34.9813999,-8.0174927],[-34.9813068,-8.0176592],[-34.9812399,-8.0177458],[-34.981138,-8.0178607],[-34.981024,-8.017963],[-34.9809448,-8.0180334],[-34.9808972,-8.0180832],[-34.9808696,-8.0181176]]}},{"type":"Feature","id":"way/637642167","properties":{"name":"Rua Manoel Honorato da Costa","id":"way/637642167","type":"Ciclofaixa"},"geometry":{"type":"LineString","coordinates":[[-34.9771019,-8.0147485],[-34.9775203,-8.0149046],[-34.9775412,-8.0149129],[-34.977601,-8.0149367],[-34.9780238,-8.015105]]}},{"type":"Feature","id":"way/691064794","properties":{"id":"way/691064794","type":"Baixa velocidade"},"geometry":{"type":"LineString","coordinates":[[-34.9773581,-8.0201184],[-34.9773299,-8.0201315],[-34.9772946,-8.0201359],[-34.9772443,-8.0201289],[-34.9771994,-8.0201193],[-34.977172,-8.0201167],[-34.9771447,-8.0201184],[-34.9771191,-8.0201272],[-34.977083,-8.0201464],[-34.9770548,-8.0201647],[-34.9770266,-8.0201874],[-34.9770019,-8.0202153],[-34.9769825,-8.0202468],[-34.9769737,-8.0202703],[-34.9769684,-8.0203026],[-34.9769693,-8.0203349],[-34.9769798,-8.0203803],[-34.9770037,-8.0204249],[-34.9770327,-8.020465],[-34.9770839,-8.0205296]]}},{"type":"Feature","id":"way/700010240","properties":{"name":"Plataforma 2","id":"way/700010240","type":"Baixa velocidade"},"geometry":{"type":"LineString","coordinates":[[-34.9958188,-8.0251423],[-34.9959107,-8.0249841],[-34.9960179,-8.0247995]]}},{"type":"Feature","id":"way/757376864","properties":{"name":"Rua Manoel Honorato da Costa","id":"way/757376864","type":"Ciclofaixa"},"geometry":{"type":"LineString","coordinates":[[-34.9780238,-8.015105],[-34.9788272,-8.0154399],[-34.9789657,-8.0154969],[-34.9791606,-8.0155771],[-34.9796896,-8.0158068],[-34.9803064,-8.0160747],[-34.9807428,-8.0162848],[-34.9812751,-8.0165552],[-34.9814468,-8.0166608]]}},{"type":"Feature","id":"way/773786627","properties":{"id":"way/773786627","type":"Baixa velocidade"},"geometry":{"type":"LineString","coordinates":[[-34.9770839,-8.0205296],[-34.9773049,-8.0206099],[-34.9773316,-8.0206283],[-34.9773457,-8.0206448],[-34.9773554,-8.0206667],[-34.9773589,-8.0206964],[-34.9773542,-8.0207165],[-34.9773466,-8.0207313],[-34.9773272,-8.0207487],[-34.9773016,-8.020754],[-34.9772523,-8.0207531],[-34.9772214,-8.0207348],[-34.9771879,-8.020699],[-34.9770839,-8.0205296]]}},{"type":"Feature","id":"way/777961317","properties":{"name":"Rua Castro Alves","id":"way/777961317","type":"Baixa velocidade"},"geometry":{"type":"LineString","coordinates":[[-35.0095037,-8.0106939],[-35.0090071,-8.0105377]]}},{"type":"Feature","id":"way/778620439","properties":{"name":"Rua São José da Laje","id":"way/778620439","type":"Baixa velocidade"},"geometry":{"type":"LineString","coordinates":[[-35.0116462,-8.0025082],[-35.0116991,-8.0022737],[-35.0117217,-8.0018599],[-35.0117619,-8.0016076],[-35.0118034,-8.0014682],[-35.011828,-8.0013849],[-35.0118633,-8.00137],[-35.0118933,-8.001338],[-35.0119362,-8.0012291],[-35.0120772,-8.0008209],[-35.012096,-8.000534],[-35.0121106,-8.0003087],[-35.0121389,-7.9994583],[-35.0121446,-7.9994008],[-35.012146,-7.9993012],[-35.0121443,-7.9985552]]}},{"type":"Feature","id":"way/830374506","properties":{"name":"Rua Camelitas","id":"way/830374506","type":"Baixa velocidade"},"geometry":{"type":"LineString","coordinates":[[-34.9774003,-8.0199759],[-34.9773795,-8.0200806],[-34.977366,-8.0201088],[-34.9773581,-8.0201184]]}},{"type":"Feature","id":"way/968918277","properties":{"name":"Rua Manoel Honorato da Costa","id":"way/968918277","type":"Ciclofaixa"},"geometry":{"type":"LineString","coordinates":[[-34.9770197,-8.0147222],[-34.977066,-8.014737],[-34.9771019,-8.0147485]]}},{"type":"Feature","id":"way/968918278","properties":{"name":"Rua Manoel Honorato da Costa","id":"way/968918278","type":"Ciclofaixa"},"geometry":{"type":"LineString","coordinates":[[-34.9768738,-8.0146753],[-34.9770197,-8.0147222]]}},{"type":"Feature","id":"way/990987044","properties":{"name":"Rua Manoel Honorato da Costa","id":"way/990987044","type":"Ciclofaixa"},"geometry":{"type":"LineString","coordinates":[[-34.9768051,-8.0146533],[-34.9768738,-8.0146753]]}},{"type":"Feature","id":"node/9406359415","properties":{"name":"Jss Bike","id":"node/9406359415","type":"Oficinas & lojas"},"geometry":{"type":"Point","coordinates":[-35.0034287,-8.0214426]}}]}