{"type":"FeatureCollection","features":[{"type":"Feature","id":"way/94749558","properties":{"name":"Rua das Acácias","id":"way/94749558","type":"Ciclofaixa"},"geometry":{"type":"LineString","coordinates":[[-34.9520219,-8.3399625],[-34.9518633,-8.3398406],[-34.9518409,-8.3398091],[-34.9518264,-8.3397846],[-34.9518228,-8.3397567],[-34.9518389,-8.3396668],[-34.9518791,-8.3394346],[-34.9519517,-8.3389029],[-34.9519924,-8.3384632],[-34.9520499,-8.3376947],[-34.9520624,-8.3364135],[-34.952052,-8.3355893],[-34.9520381,-8.3345753],[-34.9520367,-8.3344744]]}},{"type":"Feature","id":"way/94749583","properties":{"name":"Avenida Vereador Lúcio Fernando Monteiro Pereira","id":"way/94749583","type":"Ciclofaixa"},"geometry":{"type":"LineString","coordinates":[[-34.9533737,-8.3344493],[-34.9533986,-8.3340824],[-34.953412,-8.333886],[-34.9534193,-8.333748],[-34.9534334,-8.3335616],[-34.9534468,-8.333342],[-34.9534623,-8.332993],[-34.9534737,-8.3328391],[-34.9534817,-8.3326954],[-34.9534958,-8.3324894],[-34.9535131,-8.3319435]]}},{"type":"Feature","id":"way/94749596","properties":{"name":"Rua Vc Vinte e Quatro","id":"way/94749596","type":"Ciclofaixa"},"geometry":{"type":"LineString","coordinates":[[-34.9520367,-8.3344744],[-34.9523378,-8.3344675],[-34.9528842,-8.3344504],[-34.9529921,-8.3344528],[-34.9532628,-8.3344485],[-34.9533737,-8.3344493],[-34.9534676,-8.3344696]]}},{"type":"Feature","id":"way/104073044","properties":{"name":"Avenida Isaac Gomes da Costa","id":"way/104073044","type":"Ciclofaixa"},"geometry":{"type":"LineString","coordinates":[[-34.9535488,-8.3023254],[-34.9535854,-8.3022725],[-34.9536064,-8.3022046],[-34.9536153,-8.3020829],[-34.9536037,-8.3019591],[-34.9536091,-8.3018251],[-34.9536205,-8.3017417],[-34.9536354,-8.3016555],[-34.9536724,-8.3015474],[-34.9536968,-8.3014287],[-34.9537067,-8.3013646],[-34.9537134,-8.3012968],[-34.9537099,-8.3011771],[-34.953707,-8.3010873],[-34.9536826,-8.3008873],[-34.9536471,-8.3007663],[-34.9536212,-8.3006759],[-34.9535434,-8.3004781],[-34.9534884,-8.3002874],[-34.953462,-8.3001307],[-34.953466,-8.2999604],[-34.9534893,-8.2997494],[-34.953526,-8.2994112],[-34.953556,-8.2992754],[-34.9535809,-8.2991551],[-34.9537043,-8.2987463],[-34.9537553,-8.2986601],[-34.9538408,-8.298585],[-34.9539404,-8.2985446],[-34.9544996,-8.298469]]}},{"type":"Feature","id":"way/179536340","properties":{"name":"Avenida Historiador Pereira da Costa","id":"way/179536340","type":"Ciclofaixa"},"geometry":{"type":"LineString","coordinates":[[-35.0359569,-8.2855822],[-35.0350203,-8.2846934],[-35.0345911,-8.2842865],[-35.0341786,-8.2838766],[-35.0337307,-8.2834392],[-35.0332855,-8.2830045],[-35.0327854,-8.2825183],[-35.0323736,-8.2821023],[-35.0320204,-8.2817699],[-35.0318975,-8.2816505],[-35.0314683,-8.2811908]]}},{"type":"Feature","id":"way/179536780","properties":{"name":"Rua Tenente Manuel Barbosa da Silva","id":"way/179536780","type":"Ciclofaixa"},"geometry":{"type":"LineString","coordinates":[[-35.0314683,-8.2811908],[-35.0315766,-8.2811472],[-35.0324984,-8.2808391]]}},{"type":"Feature","id":"way/183655524","properties":{"name":"PE-024","id":"way/183655524","type":"Ciclofaixa"},"geometry":{"type":"LineString","coordinates":[[-34.9531242,-8.321222],[-34.9530872,-8.321212],[-34.9530383,-8.3212045],[-34.9529453,-8.3211849],[-34.9527764,-8.321153],[-34.9526758,-8.3211172],[-34.9525806,-8.321076],[-34.9524756,-8.3209757],[-34.9524638,-8.3209567],[-34.9523639,-8.3208142],[-34.9522884,-8.3206915],[-34.9519328,-8.3201215],[-34.9517307,-8.3197656],[-34.9516382,-8.3195583],[-34.9513747,-8.3189356],[-34.9513267,-8.3188449],[-34.950976,-8.3179089],[-34.9506246,-8.317051],[-34.9504486,-8.3166388],[-34.9500379,-8.3157329],[-34.9497293,-8.3150143],[-34.9489732,-8.3132353],[-34.9486244,-8.312419],[-34.9485233,-8.3121622],[-34.9484565,-8.3119952]]}},{"type":"Feature","id":"way/183655718","properties":{"name":"PE-024","id":"way/183655718","type":"Ciclofaixa"},"geometry":{"type":"LineString","coordinates":[[-34.9484565,-8.3119952],[-34.948078,-8.3111927],[-34.9471324,-8.3089663]]}},{"type":"Feature","id":"way/183656231","properties":{"name":"PE-024","id":"way/183656231","type":"Ciclofaixa"},"geometry":{"type":"LineString","coordinates":[[-34.9465451,-8.3075648],[-34.946483,-8.3074127],[-34.9464549,-8.3072506],[-34.946471,-8.3070029],[-34.9465345,-8.306314],[-34.9465585,-8.306175],[-34.9465931,-8.3060548],[-34.9467555,-8.3057531],[-34.946886,-8.3055637],[-34.947026,-8.305364],[-34.9471051,-8.305282],[-34.9472803,-8.3051152],[-34.9474133,-8.3050015],[-34.9474683,-8.3049441]]}},{"type":"Feature","id":"way/183656481","properties":{"name":"PE-024","id":"way/183656481","type":"Ciclofaixa"},"geometry":{"type":"LineString","coordinates":[[-34.9474683,-8.3049441],[-34.9476796,-8.3047386],[-34.9478157,-8.3045635],[-34.9479465,-8.3043661],[-34.9480333,-8.3041639],[-34.948116,-8.3040133],[-34.9482059,-8.3039246],[-34.948307,-8.3038582],[-34.9484256,-8.3038267],[-34.9486603,-8.3038034],[-34.9492809,-8.3037222],[-34.9494101,-8.3037069],[-34.9496998,-8.3036392],[-34.9498873,-8.3035786],[-34.9500972,-8.3034656],[-34.9503098,-8.3033577],[-34.9517543,-8.3026127],[-34.9519498,-8.3025282],[-34.9521594,-8.3024746],[-34.952463,-8.3024555],[-34.9529334,-8.3024279],[-34.9532551,-8.3024183],[-34.9534012,-8.3023971],[-34.9534871,-8.3023745],[-34.9535488,-8.3023254]]}},{"type":"Feature","id":"way/222799523","properties":{"name":"Rua Nossa Senhora do Carmo","id":"way/222799523","type":"Baixa velocidade"},"geometry":{"type":"LineString","coordinates":[[-34.9625704,-8.2215223],[-34.9626902,-8.221341],[-34.9627823,-8.2211308],[-34.9628145,-8.2208905],[-34.9628346,-8.2206264],[-34.9627353,-8.2202468],[-34.9626817,-8.2200875],[-34.9626388,-8.219984],[-34.9625932,-8.2199096],[-34.9625288,-8.219834],[-34.9624604,-8.2197597],[-34.9620192,-8.2193721],[-34.9619739,-8.2193233],[-34.9615753,-8.2189726],[-34.9612051,-8.2186115],[-34.9611582,-8.2185465],[-34.9610804,-8.218423],[-34.9610047,-8.2182617],[-34.9609423,-8.2180978],[-34.9607559,-8.2175762],[-34.9607028,-8.2173705],[-34.9606298,-8.2170648],[-34.960501,-8.2165316]]}},{"type":"Feature","id":"way/222804057","properties":{"name":"Rua Manoel Francisco do Nascimento","id":"way/222804057","type":"Baixa velocidade"},"geometry":{"type":"LineString","coordinates":[[-35.021846,-8.2861819],[-35.0220812,-8.2862429],[-35.0228415,-8.2864633],[-35.0230834,-8.286531],[-35.0232082,-8.2865643],[-35.0235692,-8.2866686],[-35.0236416,-8.2866818],[-35.02371,-8.2866778],[-35.0237474,-8.2866534],[-35.0237842,-8.2865183]]}},{"type":"Feature","id":"way/222807348","properties":{"name":"Avenida Vereador Lúcio Fernando Monteiro Pereira","id":"way/222807348","type":"Ciclofaixa"},"geometry":{"type":"LineString","coordinates":[[-34.9536149,-8.3273213],[-34.9535561,-8.3267682],[-34.953483,-8.3261054],[-34.9534179,-8.3254149],[-34.9533436,-8.3247791],[-34.9533074,-8.3243969],[-34.9532805,-8.3241634],[-34.9532792,-8.3240692],[-34.9531853,-8.3230481],[-34.953129,-8.3224204],[-34.9531022,-8.3220648],[-34.9530479,-8.3214451],[-34.9530383,-8.3212045],[-34.9530363,-8.3211014]]}},{"type":"Feature","id":"way/240215572","properties":{"name":"Rua Vereador Benedito Alves dos Santos","id":"way/240215572","type":"Baixa velocidade"},"geometry":{"type":"LineString","coordinates":[[-35.0230855,-8.2870087],[-35.0217225,-8.2866139]]}},{"type":"Feature","id":"way/240273094","properties":{"name":"PE-024","id":"way/240273094","type":"Ciclofaixa"},"geometry":{"type":"LineString","coordinates":[[-34.9525615,-8.3209275],[-34.9525721,-8.3209377],[-34.9526019,-8.3209647],[-34.9526596,-8.3210072],[-34.9527575,-8.321047],[-34.9530363,-8.3211014],[-34.9531435,-8.3211283]]}},{"type":"Feature","id":"way/255427449","properties":{"id":"way/255427449","type":"Baixa velocidade"},"geometry":{"type":"LineString","coordinates":[[-34.9543581,-8.2953311],[-34.9542676,-8.2953298],[-34.9540932,-8.295349],[-34.953663,-8.2954019],[-34.9534129,-8.2954318],[-34.953182,-8.295461]]}},{"type":"Feature","id":"way/312277585","properties":{"name":"Ciclovia do Paiva","id":"way/312277585","type":"Ciclovia"},"geometry":{"type":"LineString","coordinates":[[-34.9532569,-8.2814936],[-34.9531604,-8.2813768],[-34.9530048,-8.2813025],[-34.9528868,-8.2812361],[-34.9528171,-8.2811326],[-34.9527688,-8.2810025],[-34.952742,-8.2809388],[-34.9526025,-8.2807955],[-34.9524898,-8.2807583],[-34.9524454,-8.280689],[-34.9524201,-8.2806495],[-34.9524128,-8.2806455],[-34.952353,-8.2805858],[-34.9523235,-8.2805221],[-34.9522699,-8.2803894],[-34.9521814,-8.2801691],[-34.9521673,-8.2800919],[-34.9521546,-8.2800205],[-34.9521238,-8.2797652],[-34.9521288,-8.2796341],[-34.9520795,-8.2792454],[-34.9520365,-8.2788818],[-34.9520044,-8.2788234],[-34.9520026,-8.2787958],[-34.9520043,-8.2787385],[-34.9520164,-8.278696],[-34.9519253,-8.277917],[-34.9518898,-8.2778429],[-34.9518917,-8.2777551],[-34.9518985,-8.2777258],[-34.9517638,-8.2766501],[-34.9517335,-8.2765142],[-34.9516905,-8.2764664],[-34.951594,-8.2764399],[-34.9515484,-8.2764133],[-34.9515242,-8.2763762],[-34.9515283,-8.2763018],[-34.9515712,-8.2762422],[-34.9516583,-8.2761465],[-34.9516771,-8.2760789],[-34.9516873,-8.2760038],[-34.9516776,-8.2758876],[-34.9516431,-8.2757911],[-34.9515997,-8.2756398],[-34.9515832,-8.2755029],[-34.9515752,-8.2753888],[-34.9515001,-8.2752056],[-34.9513874,-8.2750039],[-34.9512238,-8.2747677],[-34.9511085,-8.274635],[-34.9509315,-8.2744704],[-34.9507276,-8.2743164],[-34.9505721,-8.2741784],[-34.9503977,-8.2739767],[-34.9503445,-8.2738864],[-34.9502663,-8.2737537],[-34.9501761,-8.2736137],[-34.950049,-8.2734166],[-34.949931,-8.273199],[-34.9498264,-8.2731008],[-34.9497998,-8.2730526],[-34.949762,-8.272984],[-34.9497111,-8.2728805],[-34.949644,-8.2727371],[-34.9495367,-8.272554],[-34.9493463,-8.2722434],[-34.9491907,-8.271901],[-34.9491674,-8.2718658],[-34.9491237,-8.2718466],[-34.9490051,-8.2717915],[-34.948981,-8.2717623],[-34.9489789,-8.2717484],[-34.9489535,-8.2716275],[-34.9489389,-8.271596],[-34.9489279,-8.2715494],[-34.9489568,-8.2715101],[-34.9490137,-8.2714206],[-34.9490513,-8.2713237],[-34.9490351,-8.2711392],[-34.9490301,-8.2710791],[-34.9490137,-8.2708897],[-34.9490271,-8.270558],[-34.9490673,-8.2701943],[-34.9491049,-8.2699422],[-34.9491263,-8.2697643],[-34.9491424,-8.2695334],[-34.949129,-8.2694113],[-34.94907,-8.2693343],[-34.9490271,-8.2692547],[-34.9490205,-8.2692334],[-34.9490164,-8.2690875],[-34.9490045,-8.2690186],[-34.9489386,-8.2688778],[-34.948834,-8.2687451],[-34.9487079,-8.2686309],[-34.9485765,-8.2685433],[-34.9484842,-8.2684836],[-34.9483673,-8.268408],[-34.94826,-8.2682354],[-34.9481152,-8.2679222],[-34.9480454,-8.2676541],[-34.9479837,-8.2672533],[-34.9479649,-8.2670277],[-34.9479703,-8.2668791],[-34.9480186,-8.2666853],[-34.9480749,-8.2664968],[-34.9481071,-8.266396],[-34.9481017,-8.2662765],[-34.9481473,-8.2661518],[-34.9482198,-8.2660748],[-34.9483324,-8.2659739],[-34.9483887,-8.265897],[-34.9486301,-8.265374],[-34.9487642,-8.2650608],[-34.9488259,-8.2648193],[-34.9488581,-8.2645804],[-34.9488625,-8.264433],[-34.9488635,-8.2644026],[-34.9488313,-8.2641185],[-34.9488045,-8.2638717],[-34.9487803,-8.2637469],[-34.9487294,-8.2636169],[-34.9487297,-8.263605],[-34.9487267,-8.2635213],[-34.9487401,-8.2634231],[-34.948724,-8.2632054],[-34.9487094,-8.2630595],[-34.9486945,-8.2629108],[-34.9486704,-8.2627967],[-34.9486006,-8.2627559],[-34.9485946,-8.2626866],[-34.9485926,-8.2626639],[-34.9485926,-8.2625949],[-34.9486355,-8.2625551],[-34.9486435,-8.2624675],[-34.9485563,-8.2618087],[-34.9485255,-8.2615757],[-34.9484719,-8.2614987],[-34.9484612,-8.2613845],[-34.9484692,-8.2613049],[-34.948496,-8.2612385],[-34.9484799,-8.2611271],[-34.9484156,-8.2605856],[-34.9483512,-8.260198],[-34.9482447,-8.2600453],[-34.9481943,-8.2600003],[-34.948186,-8.2599691],[-34.9481791,-8.2598175],[-34.9481929,-8.2597441],[-34.9481796,-8.2596858],[-34.948126,-8.2596047],[-34.9480883,-8.2595663],[-34.9479971,-8.2595052],[-34.9479133,-8.2594387],[-34.9478952,-8.2594256],[-34.9477879,-8.2592504],[-34.9477289,-8.259192],[-34.9476592,-8.2591549],[-34.9475519,-8.259046],[-34.9474982,-8.2589399],[-34.9473266,-8.258754],[-34.9471361,-8.258539],[-34.9470637,-8.2584222],[-34.9470047,-8.2582842],[-34.9469698,-8.2580028],[-34.9468733,-8.2572039],[-34.9467714,-8.2563863],[-34.9466963,-8.2563253],[-34.9466493,-8.2562735],[-34.946626,-8.2561998],[-34.9466265,-8.2561421],[-34.9466501,-8.2560816],[-34.9466936,-8.2560107],[-34.9467164,-8.2559749],[-34.9467217,-8.2559284],[-34.9467146,-8.2558686],[-34.9466909,-8.2556444],[-34.9466694,-8.2555396],[-34.9466279,-8.2554599],[-34.9466136,-8.2553736],[-34.9466126,-8.2553185],[-34.9466185,-8.2552316],[-34.9466158,-8.2551095],[-34.9464794,-8.2538766],[-34.9464549,-8.2537266],[-34.9464066,-8.2535833],[-34.9463476,-8.253501],[-34.9462054,-8.253347],[-34.9460257,-8.2532355],[-34.9458809,-8.2531931],[-34.9456878,-8.2531851],[-34.9454598,-8.2531957],[-34.945264,-8.2531851],[-34.9450574,-8.2531532],[-34.9449501,-8.2531585],[-34.9448885,-8.2531771],[-34.9448234,-8.2531503],[-34.9446264,-8.2530699],[-34.9445532,-8.2530391],[-34.9444915,-8.2529621],[-34.9443744,-8.2529143],[-34.9441976,-8.2528021],[-34.9440409,-8.2527312],[-34.9439889,-8.2527047],[-34.9439711,-8.2526967],[-34.9439202,-8.2526436],[-34.9438558,-8.2525401],[-34.9437512,-8.2524233],[-34.9435795,-8.2522215],[-34.9434079,-8.251972],[-34.9432228,-8.2516004],[-34.9428983,-8.2510403],[-34.9428635,-8.2509723],[-34.942791,-8.2508306],[-34.9424906,-8.2502493],[-34.9423645,-8.250021],[-34.9422492,-8.2497423],[-34.9421499,-8.2495034],[-34.942107,-8.2493335],[-34.9420292,-8.2489751],[-34.9420179,-8.2488644],[-34.9420023,-8.2488516],[-34.9419166,-8.2487814],[-34.9418441,-8.2486885],[-34.9418432,-8.248687],[-34.9417996,-8.2486125],[-34.9417315,-8.2485531],[-34.941702,-8.2484788],[-34.941702,-8.2483912],[-34.9416752,-8.2483062],[-34.9416009,-8.2482251],[-34.9415491,-8.2481363],[-34.9415062,-8.2480142],[-34.9413613,-8.2478496],[-34.9412567,-8.2477753],[-34.9410609,-8.2475789],[-34.9409161,-8.2473692],[-34.9401141,-8.2460154],[-34.9400149,-8.2459039],[-34.9398405,-8.2457367],[-34.9395777,-8.2455641],[-34.9395153,-8.2455178],[-34.9393953,-8.2454288],[-34.9392183,-8.2453067],[-34.9390707,-8.2452005],[-34.9389821,-8.2451388],[-34.9389527,-8.2451182],[-34.9388454,-8.2449324],[-34.9385745,-8.2445899],[-34.9382983,-8.2442608],[-34.938212,-8.2441738],[-34.9381481,-8.2441095],[-34.9378825,-8.2438732],[-34.9377319,-8.2437563],[-34.9375312,-8.2436237],[-34.9372951,-8.2434246],[-34.9371861,-8.2433082],[-34.9370913,-8.243207],[-34.9369303,-8.2430105],[-34.9369049,-8.2429733],[-34.9369519,-8.2429416],[-34.9370067,-8.2428805],[-34.9370606,-8.2428117],[-34.9370846,-8.2427809],[-34.9371886,-8.2428226],[-34.9373314,-8.2428672],[-34.9374515,-8.2428797],[-34.9375768,-8.2428619],[-34.9376996,-8.2428027],[-34.9377667,-8.2427622]]}},{"type":"Feature","id":"way/312277587","properties":{"name":"Ponte do Paiva","id":"way/312277587","type":"Ciclovia"},"geometry":{"type":"LineString","coordinates":[[-34.9378663,-8.2426368],[-34.9382797,-8.2420753],[-34.9385041,-8.2417634],[-34.9387874,-8.2413625],[-34.9389838,-8.2410717],[-34.9389997,-8.2410468],[-34.9390211,-8.2410144],[-34.9390394,-8.2409867],[-34.9391888,-8.2407603],[-34.9394362,-8.2403926]]}},{"type":"Feature","id":"way/336009721","properties":{"name":"Avenida Presidente Getulio Vargas","id":"way/336009721","type":"Ciclofaixa"},"geometry":{"type":"LineString","coordinates":[[-35.0324984,-8.2808391],[-35.0326419,-8.2809862],[-35.0330668,-8.2814185]]}},{"type":"Feature","id":"way/355553752","properties":{"name":"Rua das Florentinas","id":"way/355553752","type":"Proibido"},"geometry":{"type":"LineString","coordinates":[[-35.0385838,-8.2892863],[-35.0387838,-8.289027],[-35.0388865,-8.2889311],[-35.0391658,-8.2887362]]}},{"type":"Feature","id":"way/355556206","properties":{"name":"Avenida Presidente Getulio Vargas","id":"way/355556206","type":"Ciclofaixa"},"geometry":{"type":"LineString","coordinates":[[-35.0330668,-8.2814185],[-35.0334864,-8.2818591],[-35.0335811,-8.281966],[-35.0336345,-8.2820207],[-35.0338496,-8.2822309],[-35.0338918,-8.2822753],[-35.0339694,-8.282349]]}},{"type":"Feature","id":"way/355556210","properties":{"name":"Avenida Presidente Getulio Vargas","id":"way/355556210","type":"Ciclofaixa"},"geometry":{"type":"LineString","coordinates":[[-35.0339694,-8.282349],[-35.0343999,-8.2828118],[-35.0348088,-8.283242],[-35.0352304,-8.2836707],[-35.0353313,-8.2837523],[-35.0355305,-8.2839783],[-35.0356493,-8.2840972],[-35.0358163,-8.2842783]]}},{"type":"Feature","id":"way/359261315","properties":{"name":"Avenida Almirante Paulo Moreira","id":"way/359261315","type":"Ciclofaixa"},"geometry":{"type":"LineString","coordinates":[[-35.0201916,-8.2701153],[-35.0201561,-8.2700652],[-35.0201363,-8.2700014],[-35.0201306,-8.2699321],[-35.020148,-8.269822],[-35.020199,-8.2697317],[-35.0202714,-8.2696282],[-35.0203706,-8.2695419],[-35.0211513,-8.2689035]]}},{"type":"Feature","id":"way/364440011","properties":{"id":"way/364440011","type":"Baixa velocidade"},"geometry":{"type":"LineString","coordinates":[[-34.9540932,-8.295349],[-34.9540217,-8.294789]]}},{"type":"Feature","id":"way/364440012","properties":{"id":"way/364440012","type":"Baixa velocidade"},"geometry":{"type":"LineString","coordinates":[[-34.953663,-8.2954019],[-34.9535887,-8.2948483]]}},{"type":"Feature","id":"way/364440013","properties":{"id":"way/364440013","type":"Baixa velocidade"},"geometry":{"type":"LineString","coordinates":[[-34.9534129,-8.2954318],[-34.9533481,-8.2948711]]}},{"type":"Feature","id":"way/440484169","properties":{"name":"Avenida Vereador Lúcio Fernando Monteiro Pereira","id":"way/440484169","type":"Ciclofaixa"},"geometry":{"type":"LineString","coordinates":[[-34.9535202,-8.3318884],[-34.9535385,-8.3317517],[-34.9535749,-8.3311578]]}},{"type":"Feature","id":"way/440484170","properties":{"name":"PE-024","id":"way/440484170","type":"Ciclofaixa"},"geometry":{"type":"LineString","coordinates":[[-34.9465867,-8.3070452],[-34.9465712,-8.3072696],[-34.9465941,-8.3074],[-34.9466356,-8.3074986],[-34.947212,-8.3089348]]}},{"type":"Feature","id":"way/488151253","properties":{"id":"way/488151253","type":"Ciclofaixa"},"geometry":{"type":"LineString","coordinates":[[-35.0091201,-8.267088],[-35.0091821,-8.2670601],[-35.0092375,-8.2670296],[-35.0093206,-8.2669871],[-35.0095848,-8.2668551],[-35.0112397,-8.2660436],[-35.0114117,-8.2659592],[-35.0115062,-8.2659129],[-35.01419,-8.2646348],[-35.0144466,-8.2645126],[-35.014546,-8.2644653]]}},{"type":"Feature","id":"way/488151256","properties":{"id":"way/488151256","type":"Ciclofaixa"},"geometry":{"type":"LineString","coordinates":[[-35.014605,-8.2646298],[-35.0145468,-8.2646578],[-35.0121135,-8.2658259],[-35.0119834,-8.2658902],[-35.0115013,-8.2661271],[-35.0094239,-8.26708],[-35.0093773,-8.2671092],[-35.0093508,-8.2671291],[-35.0093216,-8.2671729],[-35.0093032,-8.2672361]]}},{"type":"Feature","id":"way/627056057","properties":{"name":"Calçadão do Estudante","id":"way/627056057","type":"Proibido"},"geometry":{"type":"LineString","coordinates":[[-35.0358926,-8.2856641],[-35.0352368,-8.2850047],[-35.0349341,-8.2847004],[-35.0345475,-8.2843164],[-35.034143,-8.2839101],[-35.033696,-8.2834731],[-35.0332418,-8.2830462],[-35.0323321,-8.2821427],[-35.0319858,-8.2817967],[-35.0318662,-8.2816742],[-35.0314605,-8.2811985]]}},{"type":"Feature","id":"way/627918647","properties":{"name":"Calçadão da Vila Social","id":"way/627918647","type":"Calçada compartilhada"},"geometry":{"type":"LineString","coordinates":[[-35.0229642,-8.2791045],[-35.0234147,-8.2793131],[-35.0234286,-8.2793194],[-35.0234458,-8.2793278],[-35.023592,-8.2794079],[-35.023651,-8.279469],[-35.0241043,-8.2797145],[-35.0247849,-8.2800841],[-35.0261399,-8.2808009],[-35.0273647,-8.2814635],[-35.028458,-8.2820594],[-35.0289225,-8.2823139],[-35.0289297,-8.2823162],[-35.0289371,-8.2823171],[-35.0289437,-8.2823169],[-35.0289538,-8.2823143],[-35.0289657,-8.2823071],[-35.0289746,-8.2822964],[-35.0289797,-8.2822864],[-35.0289872,-8.2822288]]}},{"type":"Feature","id":"way/627918648","properties":{"name":"Calçadão da Vila Roca","id":"way/627918648","type":"Calçada compartilhada"},"geometry":{"type":"LineString","coordinates":[[-35.0289572,-8.2826506],[-35.0284047,-8.2823347],[-35.0273291,-8.2817561],[-35.0272402,-8.281707],[-35.0270046,-8.2815862],[-35.0264923,-8.2813208],[-35.0260229,-8.2810792],[-35.0260209,-8.2811203]]}},{"type":"Feature","id":"way/654819531","properties":{"id":"way/654819531","type":"Calçada compartilhada"},"geometry":{"type":"LineString","coordinates":[[-35.0260254,-8.2810715],[-35.0260321,-8.2810496]]}},{"type":"Feature","id":"way/654819532","properties":{"id":"way/654819532","type":"Calçada compartilhada"},"geometry":{"type":"LineString","coordinates":[[-35.0260229,-8.2810792],[-35.0260254,-8.2810715]]}},{"type":"Feature","id":"way/654819533","properties":{"id":"way/654819533","type":"Calçada compartilhada"},"geometry":{"type":"LineString","coordinates":[[-35.0260852,-8.2808805],[-35.0261051,-8.280839]]}},{"type":"Feature","id":"way/654819535","properties":{"id":"way/654819535","type":"Calçada compartilhada"},"geometry":{"type":"LineString","coordinates":[[-35.0260321,-8.2810496],[-35.0260367,-8.2810369],[-35.0260516,-8.2809965],[-35.0260759,-8.2809274],[-35.0260833,-8.2809062]]}},{"type":"Feature","id":"way/665465638","properties":{"id":"way/665465638","type":"Baixa velocidade"},"geometry":{"type":"LineString","coordinates":[[-34.9468134,-8.2516351],[-34.9468211,-8.2516491],[-34.9468191,-8.2516653],[-34.9467158,-8.2519089],[-34.9466575,-8.2520496],[-34.9465133,-8.252384],[-34.9464677,-8.2525035],[-34.946392,-8.2527152],[-34.9463347,-8.2528973],[-34.9463443,-8.2529826],[-34.946396,-8.2530981]]}},{"type":"Feature","id":"way/665465639","properties":{"id":"way/665465639","type":"Baixa velocidade"},"geometry":{"type":"LineString","coordinates":[[-34.9460755,-8.2530344],[-34.9461881,-8.2529235],[-34.9462384,-8.2528704],[-34.9462894,-8.2528067],[-34.9463437,-8.2527019],[-34.9464389,-8.2524298]]}},{"type":"Feature","id":"way/665465645","properties":{"id":"way/665465645","type":"Baixa velocidade"},"geometry":{"type":"LineString","coordinates":[[-34.9443164,-8.2533748],[-34.9441599,-8.2532511],[-34.944092,-8.2532022],[-34.9440269,-8.2531459],[-34.9437665,-8.2534626],[-34.9435052,-8.2537803],[-34.9434784,-8.2538134],[-34.9434362,-8.2538406],[-34.9434026,-8.2538459],[-34.9433617,-8.2538367],[-34.9433309,-8.2538128],[-34.9433,-8.2537577],[-34.9432866,-8.2537006],[-34.9432746,-8.2536203]]}},{"type":"Feature","id":"way/665465646","properties":{"id":"way/665465646","type":"Baixa velocidade"},"geometry":{"type":"LineString","coordinates":[[-34.9445406,-8.2532606],[-34.9444427,-8.2532985],[-34.9443696,-8.253339],[-34.9443164,-8.2533748],[-34.9440382,-8.2536839],[-34.9440189,-8.2537053]]}},{"type":"Feature","id":"way/665465647","properties":{"id":"way/665465647","type":"Baixa velocidade"},"geometry":{"type":"LineString","coordinates":[[-34.9445406,-8.2532606],[-34.9445865,-8.2531538],[-34.9446123,-8.2530984],[-34.9446264,-8.2530699],[-34.9446499,-8.2530237],[-34.9446676,-8.2529922]]}},{"type":"Feature","id":"way/665465648","properties":{"id":"way/665465648","type":"Baixa velocidade"},"geometry":{"type":"LineString","coordinates":[[-34.9448664,-8.2530596],[-34.9448234,-8.2531503],[-34.9448081,-8.2531744],[-34.9447712,-8.2532129],[-34.9447183,-8.2532371],[-34.944622,-8.253247],[-34.9445406,-8.2532606]]}},{"type":"Feature","id":"way/665465661","properties":{"name":"Ponte do Paiva","id":"way/665465661","type":"Ciclovia"},"geometry":{"type":"LineString","coordinates":[[-34.9377667,-8.2427622],[-34.9378663,-8.2426368]]}},{"type":"Feature","id":"way/683175221","properties":{"name":"Avenida Vereador Lúcio Fernando Monteiro Pereira","id":"way/683175221","type":"Ciclofaixa"},"geometry":{"type":"LineString","coordinates":[[-34.9531435,-8.3211283],[-34.9531404,-8.3211432],[-34.9531374,-8.3211584],[-34.9531337,-8.3211757],[-34.95313,-8.3211916],[-34.953127,-8.3212082],[-34.9531242,-8.321222],[-34.9531096,-8.3212817],[-34.9531064,-8.3214123],[-34.9531649,-8.3221285],[-34.9531862,-8.3223507],[-34.9532629,-8.3231147],[-34.9533583,-8.324117],[-34.9533845,-8.3244163],[-34.953414,-8.3247691],[-34.95348,-8.3254177],[-34.953546,-8.3261033],[-34.9535623,-8.326289],[-34.9535662,-8.326334],[-34.9536286,-8.3267569],[-34.9536824,-8.3273156]]}},{"type":"Feature","id":"way/696784721","properties":{"name":"PE-024","id":"way/696784721","type":"Ciclofaixa"},"geometry":{"type":"LineString","coordinates":[[-34.947212,-8.3089348],[-34.9485289,-8.311974],[-34.948702,-8.3123777],[-34.9490426,-8.3131686]]}},{"type":"Feature","id":"way/753056368","properties":{"name":"Avenida Isaac Gomes da Costa","id":"way/753056368","type":"Ciclofaixa"},"geometry":{"type":"LineString","coordinates":[[-34.9573245,-8.2957834],[-34.9573987,-8.2961716],[-34.9574421,-8.2964298],[-34.9574392,-8.296578],[-34.9574219,-8.2969813],[-34.9574313,-8.2971154],[-34.9574433,-8.2973078],[-34.9574977,-8.2977735],[-34.9575148,-8.2979286],[-34.9575164,-8.2980253],[-34.9574921,-8.298085],[-34.9574641,-8.298117],[-34.9574115,-8.2981494],[-34.9573173,-8.2981691],[-34.95724,-8.2981735],[-34.9571284,-8.2981801],[-34.9570831,-8.2981828],[-34.9568857,-8.2981956],[-34.9562066,-8.2982777],[-34.9555117,-8.2983883],[-34.9546075,-8.2985256]]}},{"type":"Feature","id":"way/753056877","properties":{"name":"PE-024","id":"way/753056877","type":"Ciclofaixa"},"geometry":{"type":"LineString","coordinates":[[-34.9505373,-8.3166015],[-34.9506842,-8.3169344],[-34.9514133,-8.3187507],[-34.9514352,-8.3188062],[-34.9514715,-8.3188917],[-34.951724,-8.3194703],[-34.9519594,-8.3200098],[-34.9525615,-8.3209275]]}},{"type":"Feature","id":"way/753056878","properties":{"name":"PE-024","id":"way/753056878","type":"Ciclofaixa"},"geometry":{"type":"LineString","coordinates":[[-34.9490426,-8.3131686],[-34.9498326,-8.3149627],[-34.9505373,-8.3166015]]}},{"type":"Feature","id":"way/753056879","properties":{"name":"Avenida Isaac Gomes da Costa","id":"way/753056879","type":"Ciclofaixa"},"geometry":{"type":"LineString","coordinates":[[-34.9573642,-8.2965819],[-34.9573575,-8.2964412],[-34.957324,-8.2961877],[-34.9572569,-8.29586],[-34.9572462,-8.2957936]]}},{"type":"Feature","id":"way/753056880","properties":{"name":"Avenida Isaac Gomes da Costa","id":"way/753056880","type":"Ciclofaixa"},"geometry":{"type":"LineString","coordinates":[[-34.9568997,-8.2941463],[-34.9568412,-8.2937406],[-34.9567717,-8.2933009],[-34.9566789,-8.2927135]]}},{"type":"Feature","id":"way/755190923","properties":{"id":"way/755190923","type":"Baixa velocidade"},"geometry":{"type":"LineString","coordinates":[[-34.9544808,-8.2956981],[-34.9535474,-8.2958215]]}},{"type":"Feature","id":"way/755265820","properties":{"name":"Rota dos Coqueiros","id":"way/755265820","type":"Baixa velocidade"},"geometry":{"type":"LineString","coordinates":[[-34.9562737,-8.2904763],[-34.9562715,-8.2903687],[-34.9562697,-8.2902801]]}},{"type":"Feature","id":"way/755265822","properties":{"name":"Rota dos Coqueiros","id":"way/755265822","type":"Baixa velocidade"},"geometry":{"type":"LineString","coordinates":[[-34.9563705,-8.2904771],[-34.956369,-8.2903712],[-34.9563677,-8.2902796]]}},{"type":"Feature","id":"way/755265824","properties":{"name":"Rota dos Coqueiros","id":"way/755265824","type":"Baixa velocidade"},"geometry":{"type":"LineString","coordinates":[[-34.9563191,-8.2904758],[-34.9563181,-8.2903704],[-34.9563172,-8.2902796]]}},{"type":"Feature","id":"way/756029147","properties":{"id":"way/756029147","type":"Baixa velocidade"},"geometry":{"type":"LineString","coordinates":[[-34.9570276,-8.2885597],[-34.9569941,-8.2887123],[-34.956809,-8.2892325],[-34.9567694,-8.2892962],[-34.9567191,-8.289336],[-34.9566601,-8.2893606],[-34.9565823,-8.2893718],[-34.9565435,-8.2893696]]}},{"type":"Feature","id":"way/776206012","properties":{"id":"way/776206012","type":"Baixa velocidade"},"geometry":{"type":"LineString","coordinates":[[-34.9440269,-8.2531459],[-34.9441848,-8.2529],[-34.9441969,-8.2528336],[-34.9441976,-8.2528021],[-34.9441708,-8.2527238]]}},{"type":"Feature","id":"way/778535338","properties":{"name":"Avenida Vereador Lúcio Fernando Monteiro Pereira","id":"way/778535338","type":"Ciclofaixa"},"geometry":{"type":"LineString","coordinates":[[-34.9535131,-8.3319435],[-34.9535166,-8.3319163],[-34.9535202,-8.3318884]]}},{"type":"Feature","id":"way/778535340","properties":{"name":"Avenida Vereador Lúcio Fernando Monteiro Pereira","id":"way/778535340","type":"Ciclofaixa"},"geometry":{"type":"LineString","coordinates":[[-34.9536544,-8.3311449],[-34.9536172,-8.3317191],[-34.9536151,-8.3318525]]}},{"type":"Feature","id":"way/778535341","properties":{"name":"Avenida Vereador Lúcio Fernando Monteiro Pereira","id":"way/778535341","type":"Ciclofaixa"},"geometry":{"type":"LineString","coordinates":[[-34.9536151,-8.3318525],[-34.9536101,-8.3319238],[-34.9536039,-8.3320043],[-34.953589,-8.3322088],[-34.9535736,-8.3325624],[-34.9535675,-8.3327263],[-34.9535591,-8.3328414],[-34.9535481,-8.3329916],[-34.953534,-8.3333386],[-34.9535239,-8.3334713],[-34.9535045,-8.333756],[-34.9534918,-8.3339922],[-34.9534837,-8.3341176],[-34.9534676,-8.3344696],[-34.9535457,-8.3344841],[-34.9535702,-8.3344991]]}},{"type":"Feature","id":"way/788567362","properties":{"id":"way/788567362","type":"Ciclovia"},"geometry":{"type":"LineString","coordinates":[[-34.9537694,-8.3402881],[-34.9537674,-8.3402989]]}},{"type":"Feature","id":"way/788567371","properties":{"name":"Ciclovia Praça de Gaibu","id":"way/788567371","type":"Ciclovia"},"geometry":{"type":"LineString","coordinates":[[-34.9532568,-8.3396875],[-34.9533281,-8.3396935],[-34.9533386,-8.3396622],[-34.9533551,-8.3396331],[-34.9533762,-8.3396134],[-34.9534032,-8.3396017],[-34.9534314,-8.3395959],[-34.9534631,-8.3395971],[-34.9534936,-8.3396099],[-34.9535289,-8.339632],[-34.9535523,-8.3396564],[-34.9535829,-8.3397098],[-34.9536275,-8.339776],[-34.9536616,-8.3398062],[-34.9537297,-8.3398434],[-34.9538988,-8.3399352],[-34.9540749,-8.3400165],[-34.954136,-8.340034],[-34.9542029,-8.340034],[-34.9542499,-8.3400177],[-34.9543332,-8.3399712],[-34.9543641,-8.3399508],[-34.9547266,-8.339711],[-34.95479,-8.3396715],[-34.9548452,-8.3396471],[-34.9548946,-8.3396389],[-34.9549169,-8.3396378],[-34.954938,-8.3396482]]}},{"type":"Feature","id":"way/788567372","properties":{"name":"Ciclovia Praça de Gaibu","id":"way/788567372","type":"Ciclovia"},"geometry":{"type":"LineString","coordinates":[[-34.954938,-8.3396482],[-34.9549793,-8.3396966]]}},{"type":"Feature","id":"way/788567373","properties":{"id":"way/788567373","type":"Ciclovia"},"geometry":{"type":"LineString","coordinates":[[-34.9543641,-8.3399508],[-34.954346,-8.33993]]}},{"type":"Feature","id":"way/788567375","properties":{"name":"Ciclovia Praça de Gaibu","id":"way/788567375","type":"Ciclovia"},"geometry":{"type":"LineString","coordinates":[[-34.9551496,-8.3396708],[-34.9551912,-8.3396616]]}},{"type":"Feature","id":"way/788567376","properties":{"id":"way/788567376","type":"Ciclovia"},"geometry":{"type":"LineString","coordinates":[[-34.9544342,-8.3403424],[-34.9544372,-8.3402977]]}},{"type":"Feature","id":"way/788567378","properties":{"name":"Ciclovia Praça de Gaibu","id":"way/788567378","type":"Ciclovia"},"geometry":{"type":"LineString","coordinates":[[-34.9532568,-8.3396875],[-34.9532268,-8.3396846]]}},{"type":"Feature","id":"way/790740468","properties":{"name":"PE-024","id":"way/790740468","type":"Ciclofaixa"},"geometry":{"type":"LineString","coordinates":[[-34.9536123,-8.3023886],[-34.9535058,-8.3024661],[-34.9534133,-8.3024953],[-34.9529452,-8.3025157],[-34.9522103,-8.3025576],[-34.9520776,-8.3025789],[-34.9519448,-8.302612],[-34.9518161,-8.3026757],[-34.9500632,-8.3035781],[-34.9498245,-8.3036909],[-34.9496837,-8.3037347],[-34.9494544,-8.3037838],[-34.9490861,-8.3038279],[-34.9484445,-8.3039046],[-34.9483112,-8.3039566],[-34.948236,-8.3040079],[-34.9481605,-8.3040927],[-34.9480956,-8.3042256],[-34.9480311,-8.3044018],[-34.9479256,-8.3045546],[-34.947779,-8.3047545],[-34.9474922,-8.3050443],[-34.9473297,-8.3051701],[-34.9471763,-8.3053314],[-34.9470819,-8.3054355],[-34.9469739,-8.3055694],[-34.9468304,-8.3058012],[-34.9466784,-8.3061016],[-34.9466417,-8.3062033],[-34.9465867,-8.3070452]]}},{"type":"Feature","id":"way/790740469","properties":{"name":"Avenida Isaac Gomes da Costa","id":"way/790740469","type":"Ciclofaixa"},"geometry":{"type":"LineString","coordinates":[[-34.9544996,-8.298469],[-34.9554907,-8.2982898],[-34.9559609,-8.2982084],[-34.956881,-8.2980966],[-34.9572247,-8.2980788],[-34.9573012,-8.2980782],[-34.9573601,-8.2980728],[-34.9574123,-8.2980436],[-34.9574394,-8.2979925],[-34.9574407,-8.2979269],[-34.9574031,-8.2977218],[-34.9573622,-8.2973172],[-34.9573416,-8.2971047],[-34.9573394,-8.2969702],[-34.9573642,-8.2965819]]}},{"type":"Feature","id":"way/791084170","properties":{"name":"PE-060","id":"way/791084170","type":"Ciclovia"},"geometry":{"type":"LineString","coordinates":[[-35.0164409,-8.2637802],[-35.0163205,-8.2635972]]}},{"type":"Feature","id":"way/791084171","properties":{"name":"PE-060","id":"way/791084171","type":"Ciclovia"},"geometry":{"type":"LineString","coordinates":[[-35.0163205,-8.2635972],[-35.0162879,-8.2635458],[-35.0162949,-8.2635329],[-35.0163425,-8.2634457],[-35.0163507,-8.2633862],[-35.0163398,-8.2633429],[-35.0162879,-8.2632861],[-35.0162195,-8.2632023],[-35.0154596,-8.2622581],[-35.0152628,-8.2620634],[-35.0148172,-8.2615926],[-35.0146176,-8.2614114],[-35.0144208,-8.261176],[-35.0140682,-8.2607784],[-35.0136527,-8.2603076],[-35.0135214,-8.2601913],[-35.0134449,-8.2601318],[-35.0133902,-8.2600642],[-35.0132863,-8.2598667],[-35.0131852,-8.2596151],[-35.013136,-8.2594555],[-35.0128845,-8.2590226]]}},{"type":"Feature","id":"way/791084172","properties":{"name":"PE-060","id":"way/791084172","type":"Ciclovia"},"geometry":{"type":"LineString","coordinates":[[-35.0128845,-8.2590226],[-35.0126248,-8.2586818]]}},{"type":"Feature","id":"way/791084173","properties":{"name":"PE-060","id":"way/791084173","type":"Ciclovia"},"geometry":{"type":"LineString","coordinates":[[-35.0126248,-8.2586818],[-35.0122543,-8.2582486],[-35.0113521,-8.2571953],[-35.0105722,-8.2562687],[-35.0100852,-8.2556691],[-35.0101405,-8.2556274]]}},{"type":"Feature","id":"way/791084177","properties":{"name":"PE-060","id":"way/791084177","type":"Ciclovia"},"geometry":{"type":"LineString","coordinates":[[-35.0164409,-8.2637802],[-35.0164968,-8.2638546],[-35.0165168,-8.2638812],[-35.0169296,-8.2644305],[-35.0171644,-8.2647031],[-35.0172398,-8.2647605],[-35.0173702,-8.2648293],[-35.0176021,-8.2650531],[-35.0179123,-8.2653313],[-35.0182138,-8.2655666],[-35.0185646,-8.265842],[-35.0187298,-8.265974],[-35.0189066,-8.266126],[-35.0191124,-8.2663555],[-35.0198372,-8.2672219],[-35.020185,-8.2676436],[-35.0204199,-8.267942],[-35.0205445,-8.2681112],[-35.0208228,-8.2684928],[-35.0211513,-8.2689035]]}},{"type":"Feature","id":"way/802199625","properties":{"id":"way/802199625","type":"Proibido"},"geometry":{"type":"LineString","coordinates":[[-35.0188307,-8.3609415],[-35.0190655,-8.3607944],[-35.019397,-8.3605679],[-35.019488,-8.3604588],[-35.019559,-8.3603155],[-35.0195965,-8.360155],[-35.0195995,-8.360008],[-35.0195658,-8.3597555]]}},{"type":"Feature","id":"way/802199626","properties":{"id":"way/802199626","type":"Proibido"},"geometry":{"type":"LineString","coordinates":[[-35.0184516,-8.3611942],[-35.0188307,-8.3609415]]}},{"type":"Feature","id":"way/813997414","properties":{"id":"way/813997414","type":"Baixa velocidade"},"geometry":{"type":"LineString","coordinates":[[-34.9487359,-8.2619461],[-34.94886,-8.2619304],[-34.9489091,-8.2619236],[-34.9497065,-8.2618138],[-34.9498481,-8.2618055],[-34.9499014,-8.2617929],[-34.9499429,-8.2617687],[-34.9499429,-8.2617118],[-34.9498594,-8.2612869],[-34.9498433,-8.2612524],[-34.949813,-8.261223],[-34.9497896,-8.2611977]]}},{"type":"Feature","id":"way/815080443","properties":{"id":"way/815080443","type":"Baixa velocidade"},"geometry":{"type":"LineString","coordinates":[[-34.9479578,-8.273679],[-34.9479847,-8.2736099],[-34.9480273,-8.2735208],[-34.948639,-8.2721989],[-34.9488261,-8.2717715],[-34.9488413,-8.2717495],[-34.9488609,-8.2717211],[-34.9488891,-8.2716926],[-34.9489139,-8.271664],[-34.9489535,-8.2716275],[-34.9490263,-8.2716107]]}},{"type":"Feature","id":"way/815567866","properties":{"id":"way/815567866","type":"Baixa velocidade"},"geometry":{"type":"LineString","coordinates":[[-34.9613151,-8.2729434],[-34.9612078,-8.2729967],[-34.960983,-8.2731354],[-34.9605724,-8.2734598],[-34.9605082,-8.2735418],[-34.9603871,-8.2736083],[-34.960202,-8.2736773],[-34.9601322,-8.2736906],[-34.9599861,-8.2737073],[-34.9597377,-8.2737307],[-34.9594218,-8.2737942],[-34.9587594,-8.2738879],[-34.9582795,-8.2739414],[-34.9580965,-8.2739878],[-34.9579155,-8.2740489],[-34.9577601,-8.2740931],[-34.9576366,-8.2741374],[-34.9575557,-8.2741626],[-34.9574684,-8.2741985],[-34.9573769,-8.2742553],[-34.9572683,-8.2743333],[-34.9571363,-8.2744365],[-34.9570789,-8.2744765],[-34.9569575,-8.2745608],[-34.9568702,-8.274605],[-34.9567723,-8.2746282],[-34.956685,-8.2746282],[-34.9565679,-8.274605],[-34.9564444,-8.2745924],[-34.956355,-8.274584],[-34.9562678,-8.2745756],[-34.956189,-8.2745798],[-34.9560974,-8.2745903],[-34.9560442,-8.274605],[-34.9559718,-8.2746303],[-34.9559037,-8.2746788],[-34.9557632,-8.2747483],[-34.9555908,-8.2748557],[-34.9549436,-8.275176],[-34.9545774,-8.275315],[-34.9544582,-8.2753361],[-34.9543369,-8.275355],[-34.9542262,-8.275374],[-34.9541517,-8.2753761],[-34.9538621,-8.2753656],[-34.95343,-8.2753171],[-34.9532016,-8.2753061],[-34.9528616,-8.2752897],[-34.9527636,-8.275296],[-34.9526976,-8.275315],[-34.9526614,-8.2753529],[-34.952604,-8.2755046],[-34.9525614,-8.2755699],[-34.9525167,-8.2755868],[-34.9524784,-8.2755889],[-34.9524102,-8.2755762],[-34.9523187,-8.2755109],[-34.9521888,-8.2754119],[-34.9520739,-8.2753614],[-34.9519972,-8.275355],[-34.9519653,-8.2753656],[-34.9519003,-8.2753951],[-34.95176,-8.2754587]]}},{"type":"Feature","id":"way/867487196","properties":{"id":"way/867487196","type":"Calçada compartilhada"},"geometry":{"type":"LineString","coordinates":[[-35.0260833,-8.2809062],[-35.0260852,-8.2808805]]}},{"type":"Feature","id":"way/902148281","properties":{"name":"Avenida Vereador Lúcio Fernando Monteiro Pereira","id":"way/902148281","type":"Ciclofaixa"},"geometry":{"type":"LineString","coordinates":[[-34.9536902,-8.3273961],[-34.9537275,-8.3277835],[-34.9537772,-8.3283987],[-34.9537908,-8.3287514],[-34.9537908,-8.3289763],[-34.9537633,-8.3294527],[-34.9537483,-8.3297605],[-34.9537211,-8.3301921],[-34.9536705,-8.3309336],[-34.9536648,-8.3310171],[-34.9536591,-8.3310905],[-34.9536544,-8.3311449]]}},{"type":"Feature","id":"way/902148282","properties":{"name":"Avenida Vereador Lúcio Fernando Monteiro Pereira","id":"way/902148282","type":"Ciclofaixa"},"geometry":{"type":"LineString","coordinates":[[-34.9536824,-8.3273156],[-34.9536902,-8.3273961]]}},{"type":"Feature","id":"way/902148283","properties":{"name":"Avenida Vereador Lúcio Fernando Monteiro Pereira","id":"way/902148283","type":"Ciclofaixa"},"geometry":{"type":"LineString","coordinates":[[-34.9535749,-8.3311578],[-34.9535876,-8.3310092],[-34.953593,-8.3309316],[-34.953644,-8.330154],[-34.9536654,-8.3298149],[-34.9536936,-8.329304],[-34.9537164,-8.328902],[-34.9537151,-8.3286432],[-34.9536956,-8.3282584],[-34.9536644,-8.327787],[-34.9536234,-8.3274017]]}},{"type":"Feature","id":"way/902148284","properties":{"name":"Avenida Vereador Lúcio Fernando Monteiro Pereira","id":"way/902148284","type":"Ciclofaixa"},"geometry":{"type":"LineString","coordinates":[[-34.9536234,-8.3274017],[-34.9536149,-8.3273213]]}},{"type":"Feature","id":"way/907811162","properties":{"name":"Avenida Presidente Getulio Vargas","id":"way/907811162","type":"Ciclofaixa"},"geometry":{"type":"LineString","coordinates":[[-35.0358163,-8.2842783],[-35.0365483,-8.2850639],[-35.0368783,-8.2853904],[-35.037082,-8.2855807]]}},{"type":"Feature","id":"way/994960856","properties":{"name":"Rua dos Juazeiros","id":"way/994960856","type":"Baixa velocidade"},"geometry":{"type":"LineString","coordinates":[[-34.9503952,-8.2819297],[-34.949963,-8.2815419],[-34.9496203,-8.2812208],[-34.9496033,-8.2811814],[-34.9495887,-8.2810747]]}},{"type":"Feature","id":"way/994960939","properties":{"name":"Ciclovia do Paiva","id":"way/994960939","type":"Ciclovia"},"geometry":{"type":"LineString","coordinates":[[-34.9564289,-8.2914889],[-34.9563932,-8.2913649],[-34.9563634,-8.2912907],[-34.956298,-8.2911674],[-34.9561827,-8.2909445],[-34.9560927,-8.2907731],[-34.9560513,-8.2906684],[-34.9560432,-8.2905782],[-34.956039,-8.2903079],[-34.9560539,-8.2902225],[-34.9560802,-8.2901514],[-34.956117,-8.2900885],[-34.9561626,-8.2900102],[-34.9562672,-8.2897355],[-34.9562792,-8.2896426],[-34.9562645,-8.2895762],[-34.9562166,-8.2895358],[-34.9561787,-8.2894727],[-34.9561678,-8.2894273],[-34.9561673,-8.2893775],[-34.9561739,-8.289326],[-34.9562135,-8.2892763],[-34.9562511,-8.2891715],[-34.9562622,-8.2890956],[-34.9562577,-8.288984],[-34.9561961,-8.2885172],[-34.9561704,-8.2884804],[-34.9561427,-8.2884346],[-34.9561432,-8.2883872],[-34.9561438,-8.288338],[-34.9561596,-8.2882589],[-34.9561323,-8.2880025],[-34.9560861,-8.2879227],[-34.9560655,-8.2878345],[-34.9560875,-8.2876838],[-34.9560834,-8.2875657],[-34.9560624,-8.2874874],[-34.9560164,-8.2874064],[-34.9559654,-8.2872405],[-34.955923,-8.2871912],[-34.9555946,-8.2869152],[-34.9554974,-8.2868557],[-34.9553839,-8.2868259],[-34.9552841,-8.2868251],[-34.9550835,-8.2868247],[-34.9550401,-8.2865805],[-34.9550996,-8.286526],[-34.9551085,-8.2864907],[-34.9551064,-8.2864304],[-34.9550513,-8.2862712],[-34.9549762,-8.2860217],[-34.9549772,-8.2860024],[-34.9549851,-8.2857767],[-34.9549534,-8.2855254],[-34.9548958,-8.2854324],[-34.9549069,-8.285302],[-34.9548314,-8.2845566],[-34.9547948,-8.2844916],[-34.954792,-8.2844775],[-34.9547697,-8.2844159],[-34.9547965,-8.2843335],[-34.9547148,-8.2836434],[-34.954697,-8.2835095],[-34.9546624,-8.2832029],[-34.9546463,-8.2830543],[-34.9546249,-8.2829773],[-34.9545149,-8.2828844],[-34.9544737,-8.2828415],[-34.9543567,-8.2827198],[-34.9543218,-8.2826455],[-34.9542869,-8.2825818],[-34.9542038,-8.28255],[-34.9541804,-8.2825273],[-34.9541367,-8.2824863],[-34.9541206,-8.2824146],[-34.9537827,-8.2820483],[-34.9534635,-8.2817165],[-34.9533535,-8.2817139],[-34.9532382,-8.2817351],[-34.9532338,-8.2816708],[-34.9532333,-8.2816304],[-34.9532301,-8.2815705],[-34.9532569,-8.2814936]]}},{"type":"Feature","id":"way/1046350036","properties":{"name":"Avenida Isaac Gomes da Costa","id":"way/1046350036","type":"Ciclofaixa"},"geometry":{"type":"LineString","coordinates":[[-34.9569811,-8.2941178],[-34.9570151,-8.2943531],[-34.9570491,-8.2945884],[-34.9572314,-8.2953583],[-34.9572482,-8.2954236],[-34.9572717,-8.2955149],[-34.9573245,-8.2957834]]}},{"type":"Feature","id":"way/1046350037","properties":{"name":"Avenida Isaac Gomes da Costa","id":"way/1046350037","type":"Ciclofaixa"},"geometry":{"type":"LineString","coordinates":[[-34.9546075,-8.2985256],[-34.9539582,-8.2986275],[-34.9538771,-8.2986634],[-34.9538213,-8.2987186],[-34.9537685,-8.2988045],[-34.9536701,-8.2991684],[-34.9536329,-8.2992904],[-34.9535712,-8.2997611],[-34.953545,-8.2999676],[-34.9535391,-8.3001139],[-34.9535645,-8.3002786],[-34.953627,-8.3004675],[-34.9536896,-8.3006573],[-34.9537191,-8.3007467],[-34.9537478,-8.3008888],[-34.9537884,-8.3011764],[-34.9537909,-8.301311],[-34.9537824,-8.3013955],[-34.9537757,-8.3014473],[-34.9537478,-8.3015894],[-34.9537106,-8.3017599],[-34.953694,-8.3018493],[-34.9536929,-8.3019639],[-34.9537056,-8.3020718],[-34.953703,-8.3022114],[-34.9536684,-8.3023092],[-34.9536123,-8.3023886]]}},{"type":"Feature","id":"way/1046350038","properties":{"name":"PE-024","id":"way/1046350038","type":"Ciclofaixa"},"geometry":{"type":"LineString","coordinates":[[-34.9471324,-8.3089663],[-34.9465451,-8.3075648]]}},{"type":"Feature","id":"way/1050880913","properties":{"id":"way/1050880913","type":"Baixa velocidade"},"geometry":{"type":"LineString","coordinates":[[-35.0187192,-8.3500175],[-35.0184529,-8.3500193],[-35.0181592,-8.3500147]]}},{"type":"Feature","id":"way/1240293756","properties":{"name":"Avenida Isaac Gomes da Costa","id":"way/1240293756","type":"Ciclofaixa"},"geometry":{"type":"LineString","coordinates":[[-34.9565864,-8.2914647],[-34.9566422,-8.2918435]]}},{"type":"Feature","id":"way/1240293757","properties":{"name":"Avenida Isaac Gomes da Costa","id":"way/1240293757","type":"Ciclofaixa"},"geometry":{"type":"LineString","coordinates":[[-34.9566422,-8.2918435],[-34.9566937,-8.2921932],[-34.9567116,-8.2923027],[-34.9567768,-8.2927028]]}},{"type":"Feature","id":"way/1240293758","properties":{"name":"Avenida Isaac Gomes da Costa","id":"way/1240293758","type":"Ciclofaixa"},"geometry":{"type":"LineString","coordinates":[[-34.9567768,-8.2927028],[-34.9568375,-8.2931235],[-34.9568611,-8.2932872],[-34.9569168,-8.2936723],[-34.9569811,-8.2941178]]}},{"type":"Feature","id":"way/1240293759","properties":{"name":"Avenida Isaac Gomes da Costa","id":"way/1240293759","type":"Ciclofaixa"},"geometry":{"type":"LineString","coordinates":[[-34.9572462,-8.2957936],[-34.9571995,-8.2955345],[-34.9571795,-8.2954414],[-34.9571627,-8.2953636],[-34.9570431,-8.2948511],[-34.9569852,-8.2946032],[-34.9569363,-8.2943689],[-34.9568997,-8.2941463]]}},{"type":"Feature","id":"way/1240293760","properties":{"name":"Avenida Isaac Gomes da Costa","id":"way/1240293760","type":"Ciclofaixa"},"geometry":{"type":"LineString","coordinates":[[-34.9566789,-8.2927135],[-34.9566118,-8.2922052],[-34.9565161,-8.291479]]}},{"type":"Feature","id":"way/1298188775","properties":{"name":"Rua Marcos Antonio de Barros","id":"way/1298188775","type":"Ciclovia"},"geometry":{"type":"LineString","coordinates":[[-35.0284779,-8.2845574],[-35.0286481,-8.2840298],[-35.0289946,-8.2827284],[-35.0289758,-8.2826842],[-35.0289572,-8.2826506]]}},{"type":"Feature","id":"way/1298188776","properties":{"name":"Calçadão do Estudante","id":"way/1298188776","type":"Calçada compartilhada"},"geometry":{"type":"LineString","coordinates":[[-35.0314605,-8.2811985],[-35.0312858,-8.2811252],[-35.0301861,-8.280029],[-35.0299416,-8.2798001],[-35.0299163,-8.2797917],[-35.0298506,-8.2798111]]}},{"type":"Feature","id":"way/1298192373","properties":{"name":"Calçadão da Praça de Gaibu","id":"way/1298192373","type":"Calçada compartilhada"},"geometry":{"type":"LineString","coordinates":[[-34.9533281,-8.3396935],[-34.9533154,-8.3398088],[-34.9533208,-8.3398672],[-34.953479,-8.3398897],[-34.9535729,-8.3399017],[-34.9536721,-8.3399282],[-34.953803,-8.3399782],[-34.9539129,-8.3400549],[-34.9541147,-8.3401724],[-34.9542066,-8.3401657],[-34.9543118,-8.3401146],[-34.954511,-8.3399514],[-34.9547987,-8.3397637],[-34.9551496,-8.3396708]]}},{"type":"Feature","id":"way/1303699617","properties":{"name":"PE-060","id":"way/1303699617","type":"Ciclovia"},"geometry":{"type":"LineString","coordinates":[[-35.0211513,-8.2689035],[-35.0214358,-8.2692353],[-35.0217144,-8.2695632],[-35.0218177,-8.2697105],[-35.0219075,-8.2697914],[-35.0226948,-8.2706567],[-35.0237837,-8.2717463],[-35.0251269,-8.2731155],[-35.0252504,-8.2732493],[-35.026077,-8.2741286],[-35.0265652,-8.2745081],[-35.02682,-8.2747041],[-35.0273041,-8.2752062],[-35.0278339,-8.2757981],[-35.0281535,-8.2762832],[-35.0284964,-8.2767298],[-35.0286841,-8.2769607],[-35.0289926,-8.2772938],[-35.0291267,-8.2774212]]}},{"type":"Feature","id":"way/1336934201","properties":{"id":"way/1336934201","type":"Baixa velocidade"},"geometry":{"type":"LineString","coordinates":[[-35.091759,-8.3269022],[-35.092264,-8.327742],[-35.092779,-8.3286762],[-35.0950749,-8.3297802],[-35.0949677,-8.3301836],[-35.0951822,-8.3310328],[-35.0952681,-8.3316698],[-35.0955899,-8.3323704],[-35.0954397,-8.3334107],[-35.0949516,-8.3346233],[-35.0943722,-8.3353877],[-35.0941791,-8.3358017],[-35.0938894,-8.3357061],[-35.0936856,-8.3357804],[-35.0934496,-8.3360034],[-35.0923659,-8.3370437],[-35.0921728,-8.3373728],[-35.0920333,-8.3374895],[-35.0918402,-8.3375108],[-35.0916471,-8.3373621],[-35.0913467,-8.3371286],[-35.0909819,-8.3370755],[-35.0907137,-8.3371605],[-35.0904991,-8.3370012],[-35.0900914,-8.336842],[-35.0896837,-8.3365766],[-35.0892224,-8.3366191],[-35.0890185,-8.3366403],[-35.0888469,-8.3365448],[-35.0886108,-8.3362688],[-35.0884285,-8.3359927],[-35.0883426,-8.3359609]]}},{"type":"Feature","id":"way/1338144205","properties":{"id":"way/1338144205","type":"Ciclovia"},"geometry":{"type":"LineString","coordinates":[[-35.0273851,-8.2900581],[-35.026488,-8.2931837]]}},{"type":"Feature","id":"way/1338144206","properties":{"id":"way/1338144206","type":"Ciclovia"},"geometry":{"type":"LineString","coordinates":[[-35.028991,-8.2950781],[-35.0278612,-8.2926319],[-35.02782,-8.2925046],[-35.0278509,-8.2923262],[-35.0289356,-8.2884853]]}}]}