{"type":"FeatureCollection","features":[{"type":"Feature","id":"way/282837006","properties":{"name":"Ciclovia da Arena de Pernambuco","id":"way/282837006","type":"Ciclovia"},"geometry":{"type":"LineString","coordinates":[[-35.0107439,-8.0448462],[-35.0106668,-8.0447992],[-35.0106674,-8.0447572],[-35.0106526,-8.0446847],[-35.0105115,-8.0445326],[-35.0099333,-8.0439402],[-35.0097617,-8.0438039],[-35.0096198,-8.0436905],[-35.0095191,-8.0436106],[-35.0092138,-8.0434273],[-35.0091447,-8.0434187],[-35.0090058,-8.0434494],[-35.0089206,-8.0434299],[-35.0088694,-8.0433813],[-35.0088186,-8.0433082],[-35.0087927,-8.0432733],[-35.0087598,-8.0432402],[-35.008652,-8.0431935],[-35.0083742,-8.0431074],[-35.0080112,-8.0430426],[-35.007459,-8.0430077],[-35.0070637,-8.043004],[-35.0060791,-8.0430029],[-35.0060249,-8.0430176],[-35.0059226,-8.0430892],[-35.0058515,-8.0431397],[-35.0058231,-8.0431541],[-35.0057948,-8.0431597],[-35.0057706,-8.043161],[-35.005745,-8.0431585],[-35.005723,-8.0431523],[-35.0056866,-8.0431377],[-35.0056496,-8.0431152],[-35.0056169,-8.0430928],[-35.0055321,-8.0430417],[-35.0054727,-8.0430355],[-35.0054183,-8.0430361],[-35.0053067,-8.043061],[-35.0051568,-8.043111],[-35.0050468,-8.0431642],[-35.0050261,-8.0431746],[-35.004978,-8.0431987],[-35.0048942,-8.0432513],[-35.0047728,-8.0433433],[-35.0046975,-8.0434119],[-35.004672,-8.0434352],[-35.0044493,-8.0436869],[-35.0043185,-8.0438335],[-35.0038968,-8.0442995],[-35.0036797,-8.0444792],[-35.0035013,-8.0445737],[-35.0032842,-8.0446554],[-35.003077,-8.0447025],[-35.0028308,-8.0447096],[-35.002553,-8.0446757],[-35.0019399,-8.0445804],[-35.0011028,-8.0444583],[-35.0005216,-8.0443821],[-35.0001019,-8.044346],[-34.9998774,-8.0443384],[-34.9996917,-8.0443382],[-34.9993791,-8.044349],[-34.9990009,-8.0443582]]}},{"type":"Feature","id":"way/282936767","properties":{"name":"Ciclovia da Arena de Pernambuco","id":"way/282936767","type":"Ciclovia"},"geometry":{"type":"LineString","coordinates":[[-34.9972022,-8.0426872],[-34.997242,-8.0425972],[-34.9972909,-8.0424983],[-34.9973515,-8.0424112]]}},{"type":"Feature","id":"way/589707777","properties":{"name":"Ciclovia da Arena de Pernambuco","id":"way/589707777","type":"Ciclovia"},"geometry":{"type":"LineString","coordinates":[[-34.994653,-8.042056],[-34.99467,-8.0419721],[-34.994604,-8.0419194],[-34.9946202,-8.0418984],[-34.994618,-8.0418521],[-34.9946068,-8.0418125],[-34.9945847,-8.0417541],[-34.9945387,-8.0417206],[-34.9944888,-8.0417103],[-34.9944365,-8.0417015],[-34.9943842,-8.0417015],[-34.9943486,-8.0417151],[-34.9943208,-8.0417482],[-34.9943193,-8.0418008],[-34.9944284,-8.0422373],[-34.9944549,-8.0422796],[-34.9945213,-8.0423088],[-34.994741,-8.042319],[-34.9949252,-8.0423745],[-34.9952127,-8.0424548],[-34.9955563,-8.0425176],[-34.9958217,-8.0425541],[-34.9960233,-8.0425646],[-34.996572,-8.0425747],[-34.9968701,-8.0425948],[-34.9970513,-8.0426266],[-34.9972022,-8.0426872],[-34.9973426,-8.0427776],[-34.9974391,-8.0428535],[-34.9974747,-8.0428815],[-34.9976388,-8.0430466],[-34.997781,-8.0433049],[-34.9979422,-8.043642],[-34.9980051,-8.0437691],[-34.9981389,-8.0439441],[-34.9982092,-8.0440216],[-34.9983422,-8.0441253],[-34.998451,-8.0441984],[-34.9985812,-8.044263],[-34.9987108,-8.0442991],[-34.9988571,-8.0443388],[-34.9990009,-8.0443582]]}},{"type":"Feature","id":"way/589707779","properties":{"name":"Ciclovia da Arena de Pernambuco","id":"way/589707779","type":"Ciclovia"},"geometry":{"type":"LineString","coordinates":[[-34.9973515,-8.0424112],[-34.9971966,-8.0423725],[-34.9969843,-8.0423061],[-34.9966692,-8.0422774],[-34.9962804,-8.0422729],[-34.9958848,-8.042284],[-34.9955519,-8.0422331],[-34.9951451,-8.0421335],[-34.9947585,-8.0419941],[-34.99467,-8.0419721]]}},{"type":"Feature","id":"way/589707780","properties":{"name":"Ciclovia da Arena de Pernambuco","id":"way/589707780","type":"Ciclovia"},"geometry":{"type":"LineString","coordinates":[[-35.0048883,-8.0429491],[-35.0049404,-8.043013],[-35.0049444,-8.0430193],[-35.0049929,-8.0431085],[-35.0050261,-8.0431746]]}},{"type":"Feature","id":"way/589707781","properties":{"name":"Ciclovia da Arena de Pernambuco","id":"way/589707781","type":"Ciclovia"},"geometry":{"type":"LineString","coordinates":[[-34.9973515,-8.0424112],[-34.9973844,-8.0423677],[-34.9974055,-8.0423269],[-34.9975186,-8.0421075],[-34.9976635,-8.041759],[-34.9980152,-8.0409131],[-34.9981202,-8.0406749],[-34.9981887,-8.0404925],[-34.9983345,-8.0401574],[-34.9983965,-8.0400245],[-34.9984783,-8.0398977],[-34.9985937,-8.0397647],[-34.9987301,-8.0396608],[-34.9988833,-8.0395829],[-34.9990229,-8.0395361],[-34.9991404,-8.0395102],[-34.999302,-8.0394998],[-34.9994699,-8.0395112],[-34.9996252,-8.0395496],[-34.9999525,-8.0396598],[-35.0000795,-8.0397034],[-35.0002306,-8.039746],[-35.0005422,-8.0398281],[-35.000709,-8.0398696],[-35.0009388,-8.0399112],[-35.0012158,-8.0399382],[-35.0014425,-8.0399403],[-35.0017415,-8.0399195],[-35.0021382,-8.0398509],[-35.0025169,-8.0397751],[-35.0026743,-8.0397502],[-35.0028338,-8.0397429],[-35.0030059,-8.0397502],[-35.0032137,-8.0397928],[-35.0034309,-8.0398665],[-35.0036355,-8.0399767],[-35.0038306,-8.0401356],[-35.0040059,-8.0403185],[-35.0041202,-8.0405003],[-35.0042073,-8.0406967],[-35.0042493,-8.0408265],[-35.0042829,-8.0409876],[-35.0042986,-8.0411278],[-35.0043062,-8.0412114],[-35.0043049,-8.041347],[-35.0043007,-8.0416286],[-35.0042954,-8.0418405],[-35.0042996,-8.0420244],[-35.0043133,-8.0421335],[-35.0043741,-8.0423237],[-35.0044319,-8.0424577],[-35.0044938,-8.0425668],[-35.0045746,-8.04268],[-35.0047026,-8.042839],[-35.0047771,-8.0428972],[-35.0048582,-8.0429397]]}},{"type":"Feature","id":"way/616816021","properties":{"name":"Ciclovia da Arena de Pernambuco","id":"way/616816021","type":"Ciclovia"},"geometry":{"type":"LineString","coordinates":[[-35.0048582,-8.0429397],[-35.0048883,-8.0429491]]}},{"type":"Feature","id":"way/706191508","properties":{"name":"Ciclovia da Arena de Pernambuco","id":"way/706191508","type":"Ciclovia"},"geometry":{"type":"LineString","coordinates":[[-35.0047026,-8.042839],[-35.0046374,-8.0428958],[-35.0045646,-8.0429599],[-35.0045068,-8.0430094]]}},{"type":"Feature","id":"way/706191509","properties":{"name":"Ciclovia da Arena de Pernambuco","id":"way/706191509","type":"Ciclovia"},"geometry":{"type":"LineString","coordinates":[[-35.0046975,-8.0434119],[-35.0046579,-8.0433707],[-35.0045597,-8.0432754],[-35.0044867,-8.0431993]]}},{"type":"Feature","id":"way/706191511","properties":{"name":"Ciclovia da Arena de Pernambuco","id":"way/706191511","type":"Ciclovia"},"geometry":{"type":"LineString","coordinates":[[-34.997688,-8.0424537],[-34.9976043,-8.042417],[-34.9974954,-8.0423687],[-34.9974055,-8.0423269]]}},{"type":"Feature","id":"way/706191512","properties":{"name":"Ciclovia da Arena de Pernambuco","id":"way/706191512","type":"Ciclovia"},"geometry":{"type":"LineString","coordinates":[[-34.9976569,-8.042561],[-34.9975791,-8.0426655],[-34.9975024,-8.0427685],[-34.9974391,-8.0428535]]}},{"type":"Feature","id":"way/757433306","properties":{"name":"Residencial São Lourenço","id":"way/757433306","type":"Ciclofaixa"},"geometry":{"type":"LineString","coordinates":[[-35.0557389,-7.9794586],[-35.0556982,-7.9795371],[-35.0556465,-7.9796266],[-35.0554795,-7.9798549],[-35.0552973,-7.9801994],[-35.0552646,-7.9802619],[-35.0546095,-7.9815206],[-35.0538618,-7.9829872],[-35.0537914,-7.9831263],[-35.0537418,-7.9832156],[-35.0536977,-7.9832768],[-35.0536425,-7.983338],[-35.0535168,-7.9834635],[-35.053042,-7.9838326],[-35.0527687,-7.9840622],[-35.0526403,-7.9841973],[-35.0525531,-7.9843315],[-35.0515459,-7.9864285]]}},{"type":"Feature","id":"way/759372754","properties":{"name":"Residencial São Lourenço","id":"way/759372754","type":"Ciclofaixa"},"geometry":{"type":"LineString","coordinates":[[-35.0554496,-7.9822432],[-35.0550247,-7.9818759],[-35.0546095,-7.9815206]]}},{"type":"Feature","id":"way/936158271","properties":{"name":"Bulgária","id":"way/936158271","type":"Baixa velocidade"},"geometry":{"type":"LineString","coordinates":[[-35.0196728,-7.9693796],[-35.019417,-7.9694204]]}},{"type":"Feature","id":"way/936211762","properties":{"name":"Segunda Antônio de Almeida passage","id":"way/936211762","type":"Baixa velocidade"},"geometry":{"type":"LineString","coordinates":[[-35.0212094,-7.9998706],[-35.0215835,-7.9997055]]}},{"type":"Feature","id":"way/1011556075","properties":{"name":"Residencial São Lourenço","id":"way/1011556075","type":"Ciclofaixa"},"geometry":{"type":"LineString","coordinates":[[-35.0552646,-7.9802619],[-35.0559155,-7.9808153],[-35.0563634,-7.9811962]]}}]}