{"type":"FeatureCollection","features":[{"type":"Feature","id":"way/23393273","properties":{"name":"Avenida Manoel Gomes da Silva","id":"way/23393273","type":"Ciclofaixa"},"geometry":{"type":"LineString","coordinates":[[-35.0150988,-8.4379263],[-35.0152101,-8.4381757],[-35.0155107,-8.4387575],[-35.0155748,-8.4388642],[-35.0156902,-8.4390287],[-35.0158069,-8.439168],[-35.0159252,-8.4393004],[-35.0159784,-8.4393499],[-35.0170672,-8.4402629]]}},{"type":"Feature","id":"way/89525981","properties":{"name":"Estrada TDR Sul","id":"way/89525981","type":"Proibido"},"geometry":{"type":"LineString","coordinates":[[-35.0112338,-8.3946903],[-35.011255,-8.3945013],[-35.0112692,-8.394378],[-35.0112766,-8.3942911],[-35.0112806,-8.3942234],[-35.0112766,-8.3941199],[-35.0112605,-8.3939793],[-35.0111975,-8.3933942],[-35.0109226,-8.3913736],[-35.0107737,-8.390279],[-35.0107482,-8.3900893],[-35.0106986,-8.3897854],[-35.0106584,-8.3895864],[-35.0106114,-8.3893795],[-35.010543,-8.3890783],[-35.0104572,-8.38874],[-35.0103593,-8.3884215],[-35.0102761,-8.3881668],[-35.0099382,-8.3872925],[-35.0095117,-8.3862098],[-35.0090316,-8.3850118],[-35.0085434,-8.3837526],[-35.0083168,-8.3831689],[-35.0078514,-8.3820079],[-35.0077213,-8.3816205],[-35.007661,-8.3814043],[-35.0075658,-8.3809956],[-35.0075416,-8.380843],[-35.0075269,-8.3806944],[-35.007496,-8.3803481],[-35.0074893,-8.3801093],[-35.0074947,-8.3796755],[-35.0075631,-8.3788542],[-35.0075886,-8.3786538],[-35.0076234,-8.3781337],[-35.0077334,-8.3770471],[-35.0080191,-8.3739862],[-35.0081639,-8.3722533],[-35.008188,-8.3717929],[-35.0082028,-8.3713644],[-35.0082028,-8.371038],[-35.0081825,-8.3706816],[-35.0081465,-8.3701702],[-35.008003,-8.3689947],[-35.0079842,-8.3687439],[-35.0078469,-8.3674951],[-35.0078369,-8.3674045],[-35.0077229,-8.3666351],[-35.0076871,-8.3663355]]}},{"type":"Feature","id":"way/189139471","properties":{"name":"Rua Mario Julio do Rego","id":"way/189139471","type":"Ciclofaixa"},"geometry":{"type":"LineString","coordinates":[[-35.0140708,-8.4429759],[-35.0138369,-8.4430449],[-35.012883,-8.4433084]]}},{"type":"Feature","id":"way/189139479","properties":{"name":"Rua Silvino Alves da Silva","id":"way/189139479","type":"Ciclofaixa"},"geometry":{"type":"LineString","coordinates":[[-35.0170672,-8.4402629],[-35.0166862,-8.4406793],[-35.0163103,-8.441064],[-35.0159015,-8.4415077],[-35.0155126,-8.4419129],[-35.015119,-8.4423213],[-35.0147708,-8.44268]]}},{"type":"Feature","id":"way/189139487","properties":{"id":"way/189139487","type":"Ciclofaixa"},"geometry":{"type":"LineString","coordinates":[[-35.0147128,-8.4426527],[-35.0147442,-8.4426614],[-35.0147708,-8.44268],[-35.0147888,-8.4427052],[-35.0147975,-8.4427347],[-35.0147962,-8.4427654],[-35.0147854,-8.4427926],[-35.0147771,-8.442805],[-35.0147648,-8.4428175],[-35.0147386,-8.442833],[-35.0147088,-8.4428396],[-35.0146786,-8.4428364],[-35.0146508,-8.4428239],[-35.0146285,-8.4428033],[-35.014614,-8.4427769],[-35.0146088,-8.4427472],[-35.0146133,-8.4427176],[-35.014627,-8.4426907],[-35.0146504,-8.4426684],[-35.0146803,-8.4426551],[-35.0147128,-8.4426527]]}},{"type":"Feature","id":"way/189139488","properties":{"name":"Rua Cristovão de Souza Leão","id":"way/189139488","type":"Ciclofaixa"},"geometry":{"type":"LineString","coordinates":[[-35.012883,-8.4433084],[-35.012849,-8.4432152],[-35.0124588,-8.4422748],[-35.0123552,-8.4420438],[-35.0119795,-8.4411011],[-35.0114149,-8.4395038]]}},{"type":"Feature","id":"way/291018614","properties":{"name":"Rua Trinta e Tres","id":"way/291018614","type":"Baixa velocidade"},"geometry":{"type":"LineString","coordinates":[[-35.02224,-8.4440452],[-35.0215332,-8.4447603],[-35.0214309,-8.4448749]]}},{"type":"Feature","id":"way/324492543","properties":{"id":"way/324492543","type":"Proibido"},"geometry":{"type":"LineString","coordinates":[[-35.0083049,-8.3612394],[-35.008754,-8.3612745],[-35.0099301,-8.3613919],[-35.0129539,-8.3615287],[-35.0139183,-8.3615765],[-35.0155086,-8.3616489],[-35.0170445,-8.3617047],[-35.0173113,-8.3616848],[-35.0175903,-8.3616344],[-35.0178545,-8.3615441],[-35.0180329,-8.3614552],[-35.0184113,-8.3612187],[-35.0184516,-8.3611942]]}},{"type":"Feature","id":"way/337236701","properties":{"name":"Ciclovia de Porto de Galinhas","id":"way/337236701","type":"Ciclovia"},"geometry":{"type":"LineString","coordinates":[[-35.0054223,-8.4990533],[-35.0052184,-8.4982682],[-35.0051129,-8.4978003],[-35.0049873,-8.4972731],[-35.0049,-8.4968683],[-35.0048509,-8.4966847],[-35.0048545,-8.4965839],[-35.0048472,-8.4964634],[-35.0048072,-8.4962799],[-35.0047199,-8.4961251],[-35.0045889,-8.4955817],[-35.0044761,-8.4950815],[-35.0043215,-8.4944391],[-35.0042305,-8.494045],[-35.0040795,-8.493444],[-35.0039103,-8.4926901],[-35.0037593,-8.4920747],[-35.0035883,-8.4913405],[-35.00351,-8.4909986],[-35.0034973,-8.4907611],[-35.00345,-8.490565],[-35.0033827,-8.4904246],[-35.0032171,-8.4897408],[-35.0031152,-8.4893126],[-35.003057,-8.4890589],[-35.0030097,-8.4887764],[-35.0029933,-8.4884291],[-35.0029351,-8.4876607],[-35.0028969,-8.4872361],[-35.0028532,-8.4870201],[-35.0027641,-8.4866099],[-35.0027077,-8.4864065],[-35.0027132,-8.4862554],[-35.0026367,-8.4859873],[-35.0025731,-8.4858595],[-35.0024766,-8.4854096],[-35.0023657,-8.4849293],[-35.0021948,-8.4841942],[-35.00206,-8.4836162],[-35.0019581,-8.4831687],[-35.0019641,-8.482976],[-35.0019251,-8.4827567],[-35.0018292,-8.4826085],[-35.0018007,-8.482449],[-35.0017213,-8.4821372],[-35.0015625,-8.48174],[-35.0013647,-8.4812776],[-35.0013437,-8.4812302],[-35.00108,-8.4806196],[-35.0006755,-8.4796978],[-35.000124,-8.4783818],[-34.9999173,-8.4778956],[-34.9999113,-8.4778008],[-34.9998214,-8.4776111],[-34.9997435,-8.4774985],[-34.9995756,-8.4771013],[-34.9994348,-8.4766656],[-34.999273,-8.4760253],[-34.9991711,-8.4755274],[-34.9990062,-8.4747508],[-34.9989959,-8.4746055],[-34.9989913,-8.4745403],[-34.9989373,-8.473823],[-34.9988804,-8.4730316],[-34.9988324,-8.4726878],[-34.9987245,-8.472175],[-34.9985298,-8.4715762],[-34.99832,-8.4708826],[-34.998317,-8.470687],[-34.9982391,-8.4704795],[-34.9981552,-8.4703076],[-34.9977776,-8.4689708],[-34.9976607,-8.4687188],[-34.9974479,-8.4683839],[-34.9972172,-8.46796],[-34.9970583,-8.4676666],[-34.9969205,-8.4673227],[-34.9968456,-8.466967],[-34.9967377,-8.4663149],[-34.9967646,-8.4661608],[-34.9967347,-8.4659533],[-34.9966687,-8.4657992],[-34.9966028,-8.4654998],[-34.996402,-8.4651471],[-34.9961683,-8.4648744],[-34.9959795,-8.4646343],[-34.9958776,-8.4644297],[-34.9958087,-8.4642548],[-34.9957397,-8.4638043],[-34.9957038,-8.4631047],[-34.9956378,-8.4622866],[-34.9955599,-8.4608283],[-34.9955629,-8.4604577],[-34.9955719,-8.4599805],[-34.9955899,-8.4594529],[-34.9955449,-8.4589964],[-34.995452,-8.4585844],[-34.9952902,-8.4581012],[-34.9951763,-8.4577366],[-34.9951284,-8.4574669],[-34.9951434,-8.4572208],[-34.9952333,-8.4569333],[-34.9953951,-8.4565835],[-34.995482,-8.4564383],[-34.9955509,-8.4562338],[-34.9955809,-8.4560766],[-34.9958027,-8.4555787],[-34.9958956,-8.4552852],[-34.9959435,-8.4550036],[-34.9959375,-8.4547872],[-34.9959225,-8.4545768],[-34.9956918,-8.4536519],[-34.995485,-8.4527686],[-34.9953052,-8.4520334],[-34.9951554,-8.4513398],[-34.9949209,-8.4504731],[-34.9949048,-8.4503766],[-34.9948886,-8.4502799],[-34.9948724,-8.4501828],[-34.9948617,-8.4501185],[-34.9948497,-8.4497361],[-34.9949156,-8.4493893],[-34.9950055,-8.4490277],[-34.9951014,-8.4486245],[-34.9953382,-8.4481591],[-34.9956289,-8.4478094],[-34.9960214,-8.4475544],[-34.9962881,-8.447427],[-34.9967047,-8.4472402],[-34.9971752,-8.4470357],[-34.9974869,-8.4468519],[-34.9978375,-8.4465495],[-34.9983889,-8.4460812],[-34.9986586,-8.4459241],[-34.9989103,-8.4458381],[-34.9990512,-8.4457966],[-34.9998753,-8.445764]]}},{"type":"Feature","id":"way/337243583","properties":{"name":"Ciclovia de Porto de Galinhas","id":"way/337243583","type":"Ciclovia"},"geometry":{"type":"LineString","coordinates":[[-35.0005406,-8.4457344],[-35.0009841,-8.4456899],[-35.0011969,-8.445601],[-35.0015056,-8.4454587],[-35.0030639,-8.444682],[-35.0034535,-8.4444745],[-35.0036932,-8.4444004],[-35.003948,-8.4444034],[-35.0049639,-8.4446287],[-35.0052366,-8.4446613],[-35.005779,-8.4446494],[-35.0063424,-8.4446227],[-35.0065582,-8.4446287],[-35.0070377,-8.4446909],[-35.0073313,-8.4447324],[-35.007649,-8.4447354],[-35.0080775,-8.4446287],[-35.0087875,-8.4442886],[-35.0091774,-8.444104],[-35.0093171,-8.4440126],[-35.0093812,-8.4439736],[-35.0094863,-8.4438769],[-35.0096168,-8.4437321],[-35.0097137,-8.4436031],[-35.0098145,-8.443431],[-35.00986,-8.4433332],[-35.0099351,-8.4431415],[-35.0099648,-8.443001],[-35.0099707,-8.4429733],[-35.0100142,-8.4426252],[-35.0101249,-8.4417158],[-35.0101474,-8.4415578],[-35.0101724,-8.4414048],[-35.0102198,-8.4411173],[-35.0103227,-8.4407723],[-35.0104433,-8.4403839],[-35.010548,-8.440116],[-35.0106805,-8.4397894],[-35.010948,-8.4391992],[-35.0109698,-8.439141],[-35.0110819,-8.4388741],[-35.0112104,-8.4385573],[-35.0114556,-8.4380019],[-35.0116256,-8.437597],[-35.0117343,-8.4373643],[-35.0118727,-8.4372098],[-35.0120012,-8.4371276],[-35.0121179,-8.4371081],[-35.0122306,-8.4371452],[-35.0122998,-8.4372117],[-35.0123492,-8.4373525],[-35.0123512,-8.4375403],[-35.0123492,-8.4376557],[-35.0124555,-8.4376584]]}},{"type":"Feature","id":"way/337243584","properties":{"name":"Ciclovia de Porto de Galinhas","id":"way/337243584","type":"Ciclovia"},"geometry":{"type":"LineString","coordinates":[[-34.9998753,-8.445764],[-35.0005406,-8.4457344]]}},{"type":"Feature","id":"way/364079329","properties":{"name":"Rua Marcílio Fragoso","id":"way/364079329","type":"Baixa velocidade"},"geometry":{"type":"LineString","coordinates":[[-35.0107717,-8.5295892],[-35.0102936,-8.5294871],[-35.0098054,-8.529389],[-35.0091322,-8.5292524],[-35.0082296,-8.5290707]]}},{"type":"Feature","id":"way/364084408","properties":{"name":"Travessa Cristóvão de Souza Leão","id":"way/364084408","type":"Ciclofaixa"},"geometry":{"type":"LineString","coordinates":[[-35.0123774,-8.4391103],[-35.0121999,-8.4391766],[-35.0114004,-8.439463]]}},{"type":"Feature","id":"way/394907080","properties":{"name":"Estrada TDR Sul","id":"way/394907080","type":"Proibido"},"geometry":{"type":"LineString","coordinates":[[-35.0075358,-8.3632553],[-35.0077476,-8.3654095],[-35.0077577,-8.3655125],[-35.0077931,-8.3656948],[-35.0078233,-8.3658037],[-35.0079101,-8.3659989],[-35.0085542,-8.3672645],[-35.0086319,-8.3674555],[-35.0087055,-8.3676874],[-35.008737,-8.3680239],[-35.0087291,-8.368272],[-35.0087285,-8.3682915],[-35.0086722,-8.3687227],[-35.0086145,-8.3690955],[-35.0085694,-8.3693626],[-35.0084742,-8.370046],[-35.0084402,-8.3704369],[-35.0084268,-8.3707315],[-35.0084254,-8.3713033],[-35.0084133,-8.3717412],[-35.0083919,-8.3720875],[-35.0083007,-8.3731118],[-35.0082189,-8.3739901],[-35.0081438,-8.3747822],[-35.0079812,-8.3765318],[-35.007954,-8.376811],[-35.0079091,-8.3771917],[-35.0078796,-8.3775075],[-35.0077763,-8.3788528],[-35.0077066,-8.3796662],[-35.0076972,-8.3799395],[-35.0077039,-8.3802221],[-35.0077187,-8.3805087],[-35.0077401,-8.3807103],[-35.007783,-8.3809876],[-35.0078326,-8.3812251],[-35.0079051,-8.3814971],[-35.0079681,-8.3817015],[-35.0080419,-8.3819297],[-35.0082631,-8.3825294],[-35.0087202,-8.3836551],[-35.0090839,-8.3845633],[-35.0093763,-8.3853143],[-35.0101454,-8.3872706],[-35.0103882,-8.3878807],[-35.0104424,-8.3880169],[-35.0105149,-8.3882199],[-35.0105967,-8.3884812],[-35.0107335,-8.3889881],[-35.0108153,-8.3893609],[-35.0108568,-8.3895546],[-35.0108628,-8.3895883],[-35.0109145,-8.3898783],[-35.0111599,-8.391745],[-35.0112659,-8.3924416],[-35.0113799,-8.393292],[-35.0114456,-8.3937962],[-35.0114845,-8.3940602],[-35.0115274,-8.3941703],[-35.0115757,-8.3942645],[-35.0116387,-8.3943707],[-35.0117634,-8.3945591],[-35.0118587,-8.3946716]]}},{"type":"Feature","id":"way/394907081","properties":{"name":"Estrada TDR Sul","id":"way/394907081","type":"Proibido"},"geometry":{"type":"LineString","coordinates":[[-35.0076871,-8.3663355],[-35.0075824,-8.3655359],[-35.0074464,-8.364368],[-35.007441,-8.3642168],[-35.007423,-8.3632411]]}},{"type":"Feature","id":"way/488151048","properties":{"name":"Avenida Califórnia","id":"way/488151048","type":"Ciclofaixa"},"geometry":{"type":"LineString","coordinates":[[-35.0479696,-8.3919231],[-35.0477895,-8.3919421],[-35.0476983,-8.3919713],[-35.0476246,-8.392019],[-35.0474899,-8.3921427],[-35.0473676,-8.3922745],[-35.0462349,-8.3934751],[-35.0451321,-8.3946679]]}},{"type":"Feature","id":"way/547542955","properties":{"name":"Rua Cristóvão Souza Leão","id":"way/547542955","type":"Ciclofaixa"},"geometry":{"type":"LineString","coordinates":[[-35.0124489,-8.4379965],[-35.0124555,-8.4376584],[-35.0124621,-8.437427]]}},{"type":"Feature","id":"way/548908039","properties":{"name":"Avenida Califórnia","id":"way/548908039","type":"Ciclofaixa"},"geometry":{"type":"LineString","coordinates":[[-35.0440333,-8.3958645],[-35.0429213,-8.3971223],[-35.0423105,-8.3977676],[-35.0417545,-8.398392],[-35.0411183,-8.3990408],[-35.040978,-8.3991947],[-35.0409016,-8.3992716],[-35.0407802,-8.3993844],[-35.0407125,-8.3994321],[-35.0406663,-8.3994673]]}},{"type":"Feature","id":"way/548908047","properties":{"name":"Avenida Califórnia","id":"way/548908047","type":"Ciclofaixa"},"geometry":{"type":"LineString","coordinates":[[-35.0451321,-8.3946679],[-35.0440333,-8.3958645]]}},{"type":"Feature","id":"way/578918239","properties":{"name":"Ciclovia de Maracaípe","id":"way/578918239","type":"Ciclovia"},"geometry":{"type":"LineString","coordinates":[[-35.0107227,-8.5244061],[-35.0107785,-8.5243564],[-35.010612,-8.52357],[-35.0104227,-8.5224501],[-35.0101296,-8.5212436],[-35.0098837,-8.5183941],[-35.0099898,-8.5176712],[-35.0100212,-8.5172165],[-35.0099561,-8.5167033],[-35.0097905,-8.5156964],[-35.0097766,-8.5150371],[-35.0099118,-8.5139522],[-35.009866,-8.5134457],[-35.0097641,-8.5130425],[-35.0094288,-8.5119085],[-35.009395,-8.5117942],[-35.0093081,-8.5114215],[-35.0088834,-8.5096002]]}},{"type":"Feature","id":"way/578918242","properties":{"name":"Ciclovia de Maracaípe","id":"way/578918242","type":"Ciclovia"},"geometry":{"type":"LineString","coordinates":[[-35.0107227,-8.5244061],[-35.0106707,-8.5244395],[-35.0106707,-8.5244992],[-35.0107029,-8.5245681],[-35.0107082,-8.5246344],[-35.0106975,-8.5246848],[-35.0106626,-8.5247512],[-35.0105446,-8.5247989],[-35.0104668,-8.524836],[-35.0102169,-8.5249949],[-35.0095967,-8.5251127],[-35.0093304,-8.5252874],[-35.0079239,-8.5254349],[-35.007766,-8.5253674],[-35.0076413,-8.5253212],[-35.0075649,-8.5253417]]}},{"type":"Feature","id":"way/578927420","properties":{"name":"Ciclovia de Maracaípe","id":"way/578927420","type":"Ciclovia"},"geometry":{"type":"LineString","coordinates":[[-35.0088834,-8.5096002],[-35.0087292,-8.5090029],[-35.0083567,-8.5075594],[-35.0083383,-8.5073341],[-35.0083645,-8.5071092],[-35.0084268,-8.5069186]]}},{"type":"Feature","id":"way/578927422","properties":{"name":"Ciclovia de Maracaípe","id":"way/578927422","type":"Ciclovia"},"geometry":{"type":"LineString","coordinates":[[-35.0084268,-8.5069186],[-35.0083613,-8.5068079],[-35.0082969,-8.5067429],[-35.0082245,-8.5066991],[-35.0081708,-8.5066832],[-35.0081254,-8.5064835],[-35.0078011,-8.5050582],[-35.0078934,-8.5049396],[-35.0079674,-8.5047759]]}},{"type":"Feature","id":"way/579591599","properties":{"name":"Ciclovia da PE-09","id":"way/579591599","type":"Ciclovia"},"geometry":{"type":"LineString","coordinates":[[-35.0114192,-8.5047764],[-35.0116587,-8.5046839],[-35.0119654,-8.5046755],[-35.0195604,-8.5037661],[-35.0204968,-8.5038363],[-35.0240633,-8.5042245],[-35.024575,-8.5042059],[-35.0255135,-8.5039873],[-35.0259237,-8.5038355],[-35.0262588,-8.503652],[-35.0276445,-8.5027515],[-35.0303828,-8.5009721],[-35.0308474,-8.5007394],[-35.031269,-8.5006021],[-35.031653,-8.5005657],[-35.0319309,-8.500619],[-35.0321551,-8.5007361],[-35.0323675,-8.5009473]]}},{"type":"Feature","id":"way/579591600","properties":{"name":"Ciclovia da PE-09","id":"way/579591600","type":"Ciclovia"},"geometry":{"type":"LineString","coordinates":[[-35.0326598,-8.5013602],[-35.0328103,-8.5016603],[-35.033041,-8.5019628],[-35.034453,-8.5034682],[-35.0353947,-8.5044722],[-35.0355411,-8.5047019]]}},{"type":"Feature","id":"way/579591601","properties":{"name":"Ciclovia da PE-09","id":"way/579591601","type":"Ciclovia"},"geometry":{"type":"LineString","coordinates":[[-35.0355411,-8.5047019],[-35.0355891,-8.5049709],[-35.0355944,-8.505215],[-35.0355569,-8.5053954],[-35.0354764,-8.5055811],[-35.0354296,-8.5056489],[-35.0346825,-8.5067323]]}},{"type":"Feature","id":"way/579591612","properties":{"name":"Ciclovia da PE-09","id":"way/579591612","type":"Ciclovia"},"geometry":{"type":"LineString","coordinates":[[-35.0293871,-8.5241315],[-35.0292406,-8.5241643],[-35.0291423,-8.5241513],[-35.0290601,-8.524117],[-35.0289966,-8.5240669],[-35.0289386,-8.5239531],[-35.0288441,-8.5233873],[-35.0286101,-8.5227693],[-35.0281498,-8.5220265],[-35.0273102,-8.520857],[-35.0268898,-8.5202647],[-35.0263052,-8.5195965],[-35.0256817,-8.5189985],[-35.025437,-8.5187127],[-35.0252833,-8.5184768],[-35.0251457,-8.5182197],[-35.0250563,-8.5179042],[-35.0250172,-8.5173367],[-35.0250524,-8.5170131],[-35.0251921,-8.5163407],[-35.0253787,-8.5156485],[-35.0254854,-8.5152838],[-35.0256136,-8.5149351],[-35.0259358,-8.514491],[-35.0262569,-8.5142415],[-35.0269159,-8.5138541],[-35.0271967,-8.5136152],[-35.0275986,-8.513208],[-35.0278795,-8.512779],[-35.0284193,-8.511997],[-35.0285687,-8.5117638],[-35.0293064,-8.5107329],[-35.0294406,-8.5105907],[-35.02954,-8.5104919],[-35.0296714,-8.5104091],[-35.0297922,-8.5103813],[-35.0299397,-8.5103587],[-35.0302885,-8.5104237],[-35.0306694,-8.5104462],[-35.0313651,-8.5104098],[-35.031774,-8.5103522],[-35.0321289,-8.510268],[-35.0325679,-8.5101052],[-35.0331143,-8.5098524],[-35.0332745,-8.5097562],[-35.0333954,-8.5096784],[-35.0335108,-8.5095741],[-35.0336692,-8.5093816],[-35.0337981,-8.5091952],[-35.0338625,-8.5090867],[-35.03393,-8.5089371],[-35.0339815,-8.5087848],[-35.0343568,-8.5073313],[-35.0343993,-8.5071812],[-35.0345666,-8.5068869],[-35.0346825,-8.5067323]]}},{"type":"Feature","id":"way/651480480","properties":{"name":"Rua Sacramento","id":"way/651480480","type":"Baixa velocidade"},"geometry":{"type":"LineString","coordinates":[[-35.0420453,-8.3998784],[-35.0417123,-8.3995775],[-35.0411183,-8.3990408]]}},{"type":"Feature","id":"way/651480481","properties":{"name":"Rua Orange","id":"way/651480481","type":"Baixa velocidade"},"geometry":{"type":"LineString","coordinates":[[-35.0406535,-8.399793],[-35.0408627,-8.3999814],[-35.0414611,-8.4005413]]}},{"type":"Feature","id":"way/651480482","properties":{"name":"Rua Ventura","id":"way/651480482","type":"Baixa velocidade"},"geometry":{"type":"LineString","coordinates":[[-35.0406132,-8.4008292],[-35.0406346,-8.4003718],[-35.0406395,-8.4001949],[-35.0406535,-8.399793],[-35.0406508,-8.3996637],[-35.0406528,-8.399586],[-35.0406582,-8.3995336],[-35.0406663,-8.3994673]]}},{"type":"Feature","id":"way/651480484","properties":{"name":"Rua Malibu","id":"way/651480484","type":"Baixa velocidade"},"geometry":{"type":"LineString","coordinates":[[-35.0417545,-8.398392],[-35.04224,-8.3988358],[-35.0425947,-8.399182],[-35.0426209,-8.3992597],[-35.0426115,-8.3993054],[-35.0425921,-8.399334],[-35.0425646,-8.3993691],[-35.042527,-8.3994109]]}},{"type":"Feature","id":"way/651480486","properties":{"name":"Rua Santa Ana","id":"way/651480486","type":"Baixa velocidade"},"geometry":{"type":"LineString","coordinates":[[-35.0432754,-8.3986321],[-35.0427983,-8.3982046],[-35.0423105,-8.3977676]]}},{"type":"Feature","id":"way/651480488","properties":{"name":"Rua Santa Mônica","id":"way/651480488","type":"Baixa velocidade"},"geometry":{"type":"LineString","coordinates":[[-35.0438078,-8.3978109],[-35.0437541,-8.3978215],[-35.0437032,-8.3978202],[-35.0436629,-8.3978042],[-35.0436053,-8.3977698],[-35.0434555,-8.3976329],[-35.0432327,-8.3974229],[-35.0431809,-8.397374],[-35.0429591,-8.397159],[-35.0429213,-8.3971223]]}},{"type":"Feature","id":"way/675826328","properties":{"name":"Barra do Sirinhaém - Ilha de Santo Aleixo","id":"way/675826328","type":"Proibido"},"geometry":{"type":"LineString","coordinates":[[-35.0243681,-8.6119609],[-35.0249753,-8.6120588],[-35.0252636,-8.612194],[-35.0255305,-8.6123399],[-35.0258926,-8.6126263],[-35.0267456,-8.6134855],[-35.0278238,-8.6144296],[-35.0282952,-8.6147751],[-35.028831,-8.6151205],[-35.0297436,-8.6156608],[-35.0306562,-8.6160845],[-35.0325552,-8.6168694],[-35.034583,-8.6175801],[-35.0366376,-8.6183227],[-35.0384346,-8.6188743],[-35.0403658,-8.6194683],[-35.0429193,-8.6202745],[-35.0442067,-8.6205927],[-35.0447807,-8.6206405],[-35.0453547,-8.6206458],[-35.0456766,-8.6205927],[-35.0461057,-8.620423],[-35.046449,-8.6202321],[-35.0469575,-8.6198952],[-35.0471933,-8.6193871],[-35.0472287,-8.6188727],[-35.0471089,-8.6184659],[-35.046905,-8.6177631],[-35.0463794,-8.6166148],[-35.0459523,-8.6155198],[-35.0456303,-8.6148334],[-35.0452419,-8.6140087],[-35.0451335,-8.6134935],[-35.0451965,-8.6129392],[-35.0453792,-8.6123751],[-35.0455631,-8.6118842],[-35.0457903,-8.6114595],[-35.0460799,-8.6109306],[-35.046669,-8.6098577],[-35.0471599,-8.6090701],[-35.0474791,-8.6085211],[-35.0478197,-8.6079721],[-35.0479495,-8.6075887],[-35.0480793,-8.6071629],[-35.0481335,-8.6066741],[-35.0482091,-8.6061218],[-35.0483006,-8.6057581],[-35.048435,-8.605405],[-35.0485504,-8.6052682],[-35.0487303,-8.6051421],[-35.049071,-8.6050079],[-35.0493574,-8.6050354],[-35.049633,-8.6051318],[-35.050032,-8.6053847],[-35.050629,-8.6058492],[-35.0507701,-8.6060114],[-35.0508856,-8.6062359],[-35.0509662,-8.6065026],[-35.050987,-8.6066426]]}},{"type":"Feature","id":"way/682031048","properties":{"id":"way/682031048","type":"Proibido"},"geometry":{"type":"LineString","coordinates":[[-35.0191623,-8.5564585],[-35.0191186,-8.5564616],[-35.0190088,-8.5564746],[-35.0189849,-8.5565183],[-35.0189529,-8.556554],[-35.0189356,-8.5565681],[-35.0189092,-8.5565802],[-35.0188828,-8.5565862],[-35.0188421,-8.5565862],[-35.0188442,-8.5566062]]}},{"type":"Feature","id":"way/682031050","properties":{"id":"way/682031050","type":"Proibido"},"geometry":{"type":"LineString","coordinates":[[-35.0189305,-8.5563379],[-35.0189865,-8.556367],[-35.0189985,-8.5563732],[-35.0190038,-8.556376],[-35.0190404,-8.5563951],[-35.0190615,-8.556406],[-35.0191623,-8.5564585],[-35.0190006,-8.5565881],[-35.0189905,-8.5565962],[-35.0189374,-8.5565998],[-35.0188442,-8.5566062]]}},{"type":"Feature","id":"way/792512027","properties":{"name":"Terceira Travessa João Rufino de Souza","id":"way/792512027","type":"Baixa velocidade"},"geometry":{"type":"LineString","coordinates":[[-35.0214309,-8.4448749],[-35.0205843,-8.4458465]]}},{"type":"Feature","id":"way/802199626","properties":{"id":"way/802199626","type":"Proibido"},"geometry":{"type":"LineString","coordinates":[[-35.0184516,-8.3611942],[-35.0188307,-8.3609415]]}},{"type":"Feature","id":"way/826484171","properties":{"name":"Rua Santa Mônica","id":"way/826484171","type":"Baixa velocidade"},"geometry":{"type":"LineString","coordinates":[[-35.0428221,-8.3970347],[-35.042527,-8.3967296],[-35.0423285,-8.3965359]]}},{"type":"Feature","id":"way/826484172","properties":{"name":"Rua Santa Mônica","id":"way/826484172","type":"Baixa velocidade"},"geometry":{"type":"LineString","coordinates":[[-35.0429213,-8.3971223],[-35.0428221,-8.3970347]]}},{"type":"Feature","id":"way/1302726895","properties":{"name":"Rua do Colégio","id":"way/1302726895","type":"Ciclofaixa"},"geometry":{"type":"LineString","coordinates":[[-35.0123774,-8.4391103],[-35.0124489,-8.4379965]]}},{"type":"Feature","id":"way/1305013762","properties":{"name":"Rua Mario Julio do Rego","id":"way/1305013762","type":"Ciclofaixa"},"geometry":{"type":"LineString","coordinates":[[-35.0146285,-8.4428033],[-35.0140708,-8.4429759]]}},{"type":"Feature","id":"way/1335158488","properties":{"name":"Estrada Do Açude Utinga","id":"way/1335158488","type":"Baixa velocidade"},"geometry":{"type":"LineString","coordinates":[[-35.0883426,-8.3359609],[-35.0882953,-8.3359597],[-35.0882525,-8.3359807],[-35.0882191,-8.3360059],[-35.088199,-8.3360466],[-35.0881456,-8.3362678],[-35.0880987,-8.3364844],[-35.0880655,-8.3366376],[-35.0880037,-8.336961],[-35.0879841,-8.3370199],[-35.0879451,-8.3370744],[-35.0879041,-8.3371249],[-35.0878542,-8.3371717],[-35.087809,-8.3372082],[-35.0877564,-8.3372328],[-35.0877,-8.3372403],[-35.0876511,-8.3372374],[-35.0875844,-8.3372163],[-35.0875266,-8.3371863],[-35.0874152,-8.3370993],[-35.0872298,-8.3369247],[-35.0871216,-8.3368342],[-35.0870192,-8.3367613],[-35.0869018,-8.3366862],[-35.0867949,-8.3366348],[-35.0866774,-8.3365662],[-35.0866096,-8.3365219],[-35.0865549,-8.3364981],[-35.0863631,-8.3364382],[-35.0862678,-8.336405],[-35.0862184,-8.336377],[-35.0861708,-8.3363253],[-35.0861294,-8.336266],[-35.0860326,-8.3360576],[-35.0859316,-8.335781],[-35.0859144,-8.3357385],[-35.0857867,-8.3357014],[-35.0857348,-8.3356816],[-35.0856609,-8.3356498],[-35.0856001,-8.3356131],[-35.0855294,-8.3355571],[-35.0854676,-8.3354894],[-35.085395,-8.3354026],[-35.0853378,-8.3353019],[-35.085291,-8.3351978],[-35.0851913,-8.3350138],[-35.0850951,-8.3348308],[-35.0851341,-8.3346325],[-35.0851528,-8.3345789],[-35.0851792,-8.334524],[-35.08521,-8.3344721],[-35.0852523,-8.3344241],[-35.0853534,-8.3343262],[-35.0854351,-8.3342369],[-35.0854825,-8.3341786],[-35.0855146,-8.3341242],[-35.0855399,-8.3340608],[-35.0855576,-8.3339987],[-35.0856005,-8.3338232],[-35.0856197,-8.3337458],[-35.0856414,-8.3336796],[-35.0856784,-8.3336064],[-35.0857153,-8.3335426],[-35.0857541,-8.3334743],[-35.0857789,-8.3334138],[-35.0858058,-8.3333402],[-35.0858292,-8.3332752],[-35.0858477,-8.3332107],[-35.0858714,-8.3331513],[-35.0859073,-8.3330891],[-35.0859363,-8.3330406],[-35.0859809,-8.3329809],[-35.0860178,-8.3329466],[-35.086033,-8.332914],[-35.0860361,-8.332878],[-35.0860175,-8.3328446],[-35.0859762,-8.3328033],[-35.0859166,-8.3327438],[-35.0859003,-8.3327098],[-35.0859023,-8.3326581],[-35.0859166,-8.3326098],[-35.0859519,-8.3324917],[-35.0859811,-8.3323857],[-35.0859896,-8.3322929],[-35.0859772,-8.3322373],[-35.0859467,-8.3321908],[-35.0858972,-8.332144],[-35.0858478,-8.3321163],[-35.0857876,-8.3320887],[-35.0857274,-8.3320717],[-35.0856887,-8.3320717],[-35.0856285,-8.3320972],[-35.0854479,-8.332212],[-35.0851405,-8.3324311],[-35.0847429,-8.33268],[-35.0845687,-8.3327735],[-35.0844376,-8.3328629],[-35.0843344,-8.3329671],[-35.0842269,-8.3330352],[-35.0841469,-8.3330686],[-35.0840722,-8.3330883],[-35.0839806,-8.3330892],[-35.0838916,-8.3330564],[-35.0837992,-8.3330394],[-35.0835799,-8.3330394],[-35.0834208,-8.3330607],[-35.0831779,-8.3331266],[-35.0829694,-8.3331989],[-35.0827286,-8.3332925],[-35.0824513,-8.3334286],[-35.082288,-8.3334967],[-35.0821181,-8.3335605],[-35.0818623,-8.3336499],[-35.0816474,-8.33372],[-35.0814517,-8.3337966],[-35.0812497,-8.3339136],[-35.0811293,-8.3339965],[-35.0809702,-8.3341603],[-35.0808391,-8.3342858],[-35.0807639,-8.334356],[-35.0806607,-8.3344177],[-35.0805661,-8.3344581],[-35.0804672,-8.3344921],[-35.0803554,-8.3345219],[-35.0802458,-8.3345432],[-35.0801039,-8.3345793],[-35.0800007,-8.3346282],[-35.0798954,-8.3347048],[-35.0798073,-8.3347963],[-35.0797815,-8.3349198],[-35.0797772,-8.3350666],[-35.0797987,-8.3352389],[-35.0797923,-8.3353877],[-35.0797686,-8.3354303],[-35.0797106,-8.3354622],[-35.0796397,-8.3354452],[-35.0795386,-8.3354537],[-35.0794333,-8.3354941],[-35.0793108,-8.3355579],[-35.0791581,-8.3356557],[-35.0790163,-8.335777],[-35.0789066,-8.3358791],[-35.0787798,-8.3359982],[-35.078696,-8.3360833],[-35.0786379,-8.336196],[-35.0785756,-8.3363491],[-35.0785261,-8.3364938],[-35.0784875,-8.3366384],[-35.0784617,-8.3367362],[-35.0784294,-8.3368085],[-35.0783929,-8.3368936],[-35.0783124,-8.3370238],[-35.0782048,-8.3371418],[-35.0781146,-8.3372742]]}},{"type":"Feature","id":"way/1336934201","properties":{"id":"way/1336934201","type":"Baixa velocidade"},"geometry":{"type":"LineString","coordinates":[[-35.091759,-8.3269022],[-35.092264,-8.327742],[-35.092779,-8.3286762],[-35.0950749,-8.3297802],[-35.0949677,-8.3301836],[-35.0951822,-8.3310328],[-35.0952681,-8.3316698],[-35.0955899,-8.3323704],[-35.0954397,-8.3334107],[-35.0949516,-8.3346233],[-35.0943722,-8.3353877],[-35.0941791,-8.3358017],[-35.0938894,-8.3357061],[-35.0936856,-8.3357804],[-35.0934496,-8.3360034],[-35.0923659,-8.3370437],[-35.0921728,-8.3373728],[-35.0920333,-8.3374895],[-35.0918402,-8.3375108],[-35.0916471,-8.3373621],[-35.0913467,-8.3371286],[-35.0909819,-8.3370755],[-35.0907137,-8.3371605],[-35.0904991,-8.3370012],[-35.0900914,-8.336842],[-35.0896837,-8.3365766],[-35.0892224,-8.3366191],[-35.0890185,-8.3366403],[-35.0888469,-8.3365448],[-35.0886108,-8.3362688],[-35.0884285,-8.3359927],[-35.0883426,-8.3359609]]}},{"type":"Feature","id":"node/7313012800","properties":{"name":"Pedalar Bike","id":"node/7313012800","type":"Oficinas & lojas"},"geometry":{"type":"Point","coordinates":[-35.0616368,-8.4017951]}},{"type":"Feature","id":"node/7703358829","properties":{"name":"Bike Porto - Aluguel de Bicicleta","id":"node/7703358829","type":"Estações de bicicleta"},"geometry":{"type":"Point","coordinates":[-35.0004387,-8.4844379]}},{"type":"Feature","id":"node/7795553591","properties":{"id":"node/7795553591","type":"Bicicletários"},"geometry":{"type":"Point","coordinates":[-35.0045624,-8.5046873]}}]}