{"type":"FeatureCollection","features":[{"type":"Feature","id":"way/1036403150","properties":{"id":"way/1036403150","type":"Bicicletários"},"geometry":{"type":"Polygon","coordinates":[[[-34.8446521,-7.9569542],[-34.8446637,-7.9569688],[-34.8446368,-7.9569894],[-34.8446269,-7.9569761],[-34.8446521,-7.9569542]]]}},{"type":"Feature","id":"way/1036403151","properties":{"id":"way/1036403151","type":"Bicicletários"},"geometry":{"type":"Polygon","coordinates":[[[-34.8452897,-7.9571763],[-34.8453025,-7.9571928],[-34.8452875,-7.9572042],[-34.8452747,-7.9571877],[-34.8452897,-7.9571763]]]}},{"type":"Feature","id":"way/144425255","properties":{"name":"Avenida B","id":"way/144425255","type":"Baixa velocidade"},"geometry":{"type":"LineString","coordinates":[[-34.8551083,-7.9347456],[-34.8550106,-7.934647]]}},{"type":"Feature","id":"way/144425257","properties":{"name":"Avenida B","id":"way/144425257","type":"Baixa velocidade"},"geometry":{"type":"LineString","coordinates":[[-34.860666,-7.931744],[-34.8605873,-7.9317343],[-34.8604825,-7.9317368],[-34.8604406,-7.9317631],[-34.8604037,-7.9318182],[-34.8603728,-7.9318985],[-34.8602508,-7.932382],[-34.8601998,-7.9325401],[-34.8601381,-7.9326982],[-34.8600671,-7.932823],[-34.8600071,-7.9329125],[-34.8599128,-7.9330329],[-34.8598096,-7.9331219],[-34.8596474,-7.9332329],[-34.8595998,-7.9332559],[-34.8595532,-7.9332784],[-34.8594328,-7.9333365],[-34.8590808,-7.9334574],[-34.8585573,-7.9336197],[-34.8584969,-7.9336402]]}},{"type":"Feature","id":"way/144428572","properties":{"name":"Avenida E","id":"way/144428572","type":"Baixa velocidade"},"geometry":{"type":"LineString","coordinates":[[-34.8491981,-7.9277091],[-34.849178,-7.9276593],[-34.8491753,-7.9276015],[-34.8491887,-7.9275378],[-34.8492457,-7.9272655],[-34.8493168,-7.9269042],[-34.8493792,-7.9265873],[-34.8494423,-7.9262766],[-34.8495148,-7.9259396]]}},{"type":"Feature","id":"way/144429458","properties":{"name":"Avenida E","id":"way/144429458","type":"Baixa velocidade"},"geometry":{"type":"LineString","coordinates":[[-34.8495148,-7.9259396],[-34.8495294,-7.9258796],[-34.8495891,-7.9253349],[-34.8496756,-7.9244478],[-34.8498421,-7.9227415],[-34.8498706,-7.9224542],[-34.849915,-7.9220913],[-34.8499845,-7.9212208]]}},{"type":"Feature","id":"way/144429916","properties":{"name":"Avenida A","id":"way/144429916","type":"Baixa velocidade"},"geometry":{"type":"LineString","coordinates":[[-34.8541984,-7.9292915],[-34.8545192,-7.9296242],[-34.8548549,-7.9299615],[-34.8551654,-7.9302648],[-34.85549,-7.9305862],[-34.8558003,-7.9308864]]}},{"type":"Feature","id":"way/144429921","properties":{"name":"Avenida A","id":"way/144429921","type":"Baixa velocidade"},"geometry":{"type":"LineString","coordinates":[[-34.8507269,-7.92644],[-34.8508832,-7.9265582],[-34.8509509,-7.92661],[-34.8513123,-7.9269009]]}},{"type":"Feature","id":"way/144429950","properties":{"name":"Avenida A","id":"way/144429950","type":"Baixa velocidade"},"geometry":{"type":"LineString","coordinates":[[-34.8509134,-7.9266512],[-34.8506947,-7.9264893],[-34.8505539,-7.9263981],[-34.8504601,-7.926349],[-34.8496238,-7.9259837]]}},{"type":"Feature","id":"way/144429951","properties":{"name":"Avenida A","id":"way/144429951","type":"Baixa velocidade"},"geometry":{"type":"LineString","coordinates":[[-34.8554537,-7.9306228],[-34.8551298,-7.9303009],[-34.8548153,-7.9299978],[-34.8544919,-7.9296713],[-34.8541524,-7.9293363],[-34.8539758,-7.929177],[-34.8539154,-7.9291224],[-34.8534254,-7.9287018],[-34.8532067,-7.9285141],[-34.8531631,-7.9284795],[-34.852973,-7.9283226],[-34.8523281,-7.9277894],[-34.8518213,-7.9273851],[-34.8516335,-7.9272356]]}},{"type":"Feature","id":"way/144430917","properties":{"name":"Avenida A","id":"way/144430917","type":"Baixa velocidade"},"geometry":{"type":"LineString","coordinates":[[-34.8558003,-7.9308864],[-34.8561423,-7.9312185],[-34.8564501,-7.9315253],[-34.8564747,-7.9315507],[-34.8568088,-7.9318896],[-34.857095,-7.9321798],[-34.8580692,-7.9331387],[-34.8584428,-7.9335064]]}},{"type":"Feature","id":"way/144430918","properties":{"name":"Avenida A","id":"way/144430918","type":"Baixa velocidade"},"geometry":{"type":"LineString","coordinates":[[-34.858384,-7.9335253],[-34.8580305,-7.9331771],[-34.8570556,-7.9322186],[-34.8560935,-7.9312652],[-34.8557845,-7.9309561],[-34.8554537,-7.9306228]]}},{"type":"Feature","id":"way/165916142","properties":{"name":"Avenida B","id":"way/165916142","type":"Baixa velocidade"},"geometry":{"type":"LineString","coordinates":[[-34.8550071,-7.9346435],[-34.855083,-7.9346163],[-34.855951,-7.9343286],[-34.8564322,-7.9341674]]}},{"type":"Feature","id":"way/165919151","properties":{"name":"Avenida C","id":"way/165919151","type":"Baixa velocidade"},"geometry":{"type":"LineString","coordinates":[[-34.8571044,-7.9267617],[-34.8569765,-7.9267129],[-34.8569155,-7.9266996],[-34.8568437,-7.9267003],[-34.8567847,-7.9267169],[-34.8566988,-7.9267758]]}},{"type":"Feature","id":"way/165920787","properties":{"name":"Avenida C","id":"way/165920787","type":"Baixa velocidade"},"geometry":{"type":"LineString","coordinates":[[-34.8541984,-7.9292915],[-34.8545337,-7.9289524],[-34.8546959,-7.928793],[-34.8548569,-7.928631],[-34.8551694,-7.9283241],[-34.8554979,-7.927996],[-34.855746,-7.927741],[-34.8559578,-7.9275132],[-34.856182,-7.9272889],[-34.8566988,-7.9267758]]}},{"type":"Feature","id":"way/170538886","properties":{"name":"Avenida A","id":"way/170538886","type":"Baixa velocidade"},"geometry":{"type":"LineString","coordinates":[[-34.8495294,-7.9258796],[-34.8496496,-7.9259329],[-34.8499303,-7.9260545],[-34.8502391,-7.9261919]]}},{"type":"Feature","id":"way/171708835","properties":{"name":"Ciclovia da PE-15","id":"way/171708835","type":"Ciclovia"},"geometry":{"type":"LineString","coordinates":[[-34.876099,-7.9534745],[-34.8762565,-7.9533057],[-34.8764019,-7.9531544],[-34.8764975,-7.9530349],[-34.8766383,-7.9527347],[-34.8767033,-7.9525692],[-34.8767364,-7.9524573],[-34.8767952,-7.9521583],[-34.8769042,-7.951499],[-34.876926,-7.9509085],[-34.8769939,-7.9499893],[-34.877093,-7.9489514],[-34.8771263,-7.9487307],[-34.8771879,-7.948081],[-34.8772716,-7.9475471],[-34.8774717,-7.9465806],[-34.8774913,-7.9464863],[-34.8775116,-7.9460932],[-34.8772011,-7.9449482],[-34.8771463,-7.9445639],[-34.8771672,-7.9440625],[-34.8773666,-7.9432076],[-34.877511,-7.9426692],[-34.8777979,-7.941572],[-34.8778379,-7.9414393],[-34.8779438,-7.9411106],[-34.878059,-7.9407776],[-34.8781353,-7.9406811],[-34.878594,-7.9399595],[-34.8786142,-7.9399349],[-34.8793345,-7.938887]]}},{"type":"Feature","id":"way/171710214","properties":{"name":"Ciclovia da PE-15","id":"way/171710214","type":"Ciclovia"},"geometry":{"type":"LineString","coordinates":[[-34.876099,-7.9534745],[-34.8759176,-7.9535575],[-34.8758224,-7.9536252],[-34.8756983,-7.9537002],[-34.8753295,-7.9538882],[-34.8750888,-7.9539938],[-34.8745041,-7.9542289],[-34.874198,-7.9543829],[-34.8740246,-7.9544729],[-34.8738556,-7.9545702],[-34.8737014,-7.9546751],[-34.8735572,-7.954792],[-34.8733735,-7.9549839],[-34.873224,-7.9551526],[-34.8730583,-7.9553711],[-34.8729068,-7.9556361],[-34.8727338,-7.9559781],[-34.8722842,-7.9568285]]}},{"type":"Feature","id":"way/173416929","properties":{"name":"Rua Caruaru","id":"way/173416929","type":"Baixa velocidade"},"geometry":{"type":"LineString","coordinates":[[-34.8940245,-7.9359872],[-34.8927303,-7.9363502],[-34.8918219,-7.936632],[-34.8915504,-7.9367135],[-34.8914663,-7.9367374],[-34.8901336,-7.9371438],[-34.8898258,-7.9372478]]}},{"type":"Feature","id":"way/194726617","properties":{"name":"Avenida A","id":"way/194726617","type":"Baixa velocidade"},"geometry":{"type":"LineString","coordinates":[[-34.8513123,-7.9269009],[-34.8515184,-7.9270777],[-34.8516368,-7.9271745],[-34.851849,-7.92735],[-34.8519334,-7.9274182],[-34.8523512,-7.9277583],[-34.8530064,-7.9282828],[-34.8532438,-7.9284719],[-34.8534678,-7.9286613],[-34.8539588,-7.9290762],[-34.8540192,-7.9291272],[-34.8541984,-7.9292915]]}},{"type":"Feature","id":"way/222828335","properties":{"name":"Travessa da Jaqueira","id":"way/222828335","type":"Baixa velocidade"},"geometry":{"type":"LineString","coordinates":[[-34.8750056,-7.9574644],[-34.8752169,-7.9574145],[-34.8753932,-7.9574059],[-34.8755132,-7.9574152],[-34.875646,-7.9574431],[-34.8760155,-7.957568],[-34.8761147,-7.9576144]]}},{"type":"Feature","id":"way/245195616","properties":{"name":"Rua Amazonita","id":"way/245195616","type":"Baixa velocidade"},"geometry":{"type":"LineString","coordinates":[[-34.8319243,-7.884108],[-34.8313246,-7.8839833],[-34.8300797,-7.8836958]]}},{"type":"Feature","id":"way/307650964","properties":{"name":"Rua Doutor Luís Ignácio de Andrade Lima","id":"way/307650964","type":"Baixa velocidade"},"geometry":{"type":"LineString","coordinates":[[-34.8210451,-7.9194066],[-34.8217155,-7.919394],[-34.8223985,-7.9193951]]}},{"type":"Feature","id":"way/548633553","properties":{"name":"Rua Ramiro Ramos","id":"way/548633553","type":"Baixa velocidade"},"geometry":{"type":"LineString","coordinates":[[-34.8777281,-7.9565579],[-34.8778059,-7.9564509],[-34.8778421,-7.9563646],[-34.8778903,-7.956188],[-34.8779473,-7.9560173],[-34.8779862,-7.9558831],[-34.8779976,-7.9558194],[-34.8779938,-7.9558089],[-34.8779849,-7.9557842],[-34.8779494,-7.9557523],[-34.8778441,-7.955672],[-34.8776992,-7.9555856],[-34.8776132,-7.9555342]]}},{"type":"Feature","id":"way/548633913","properties":{"name":"Rua Babilônia","id":"way/548633913","type":"Baixa velocidade"},"geometry":{"type":"LineString","coordinates":[[-34.876043,-7.958853],[-34.8759498,-7.9589845],[-34.8757456,-7.9593563]]}},{"type":"Feature","id":"way/548636081","properties":{"name":"Avenida Manoel Gonçalves da Silva","id":"way/548636081","type":"Baixa velocidade"},"geometry":{"type":"LineString","coordinates":[[-34.8765623,-7.9571324],[-34.8764169,-7.9573938]]}},{"type":"Feature","id":"way/548636337","properties":{"name":"Rua Ramiro Ramos","id":"way/548636337","type":"Baixa velocidade"},"geometry":{"type":"LineString","coordinates":[[-34.8763333,-7.9580972],[-34.8762254,-7.9580375],[-34.8761818,-7.9580229],[-34.8761228,-7.957999],[-34.8759793,-7.9579226],[-34.8758385,-7.9578588],[-34.8756822,-7.957811],[-34.8755662,-7.9577844],[-34.8754836,-7.9577615],[-34.8753597,-7.9576994],[-34.8752732,-7.9576297],[-34.8751773,-7.9575447],[-34.8750982,-7.9574962],[-34.8750056,-7.9574644]]}},{"type":"Feature","id":"way/548636355","properties":{"name":"Travessa da Jaqueira","id":"way/548636355","type":"Baixa velocidade"},"geometry":{"type":"LineString","coordinates":[[-34.8761147,-7.9576144],[-34.8763058,-7.957734]]}},{"type":"Feature","id":"way/548636447","properties":{"id":"way/548636447","type":"Proibido"},"geometry":{"type":"LineString","coordinates":[[-34.8764169,-7.9573938],[-34.8764115,-7.9575055],[-34.8763598,-7.9576403],[-34.8763058,-7.957734],[-34.8762564,-7.9578559],[-34.8761818,-7.9580229]]}},{"type":"Feature","id":"way/558137130","properties":{"name":"Avenida B","id":"way/558137130","type":"Baixa velocidade"},"geometry":{"type":"LineString","coordinates":[[-34.8564322,-7.9341674],[-34.8570263,-7.9339705],[-34.8574972,-7.9338133],[-34.8575516,-7.9337956],[-34.858384,-7.9335253]]}},{"type":"Feature","id":"way/575171579","properties":{"name":"Avenida B","id":"way/575171579","type":"Baixa velocidade"},"geometry":{"type":"LineString","coordinates":[[-34.8584969,-7.9336402],[-34.8580004,-7.9338072],[-34.8575914,-7.9339419],[-34.8575263,-7.933964],[-34.8570456,-7.9341207],[-34.8565668,-7.9342802],[-34.8560759,-7.9344355],[-34.8555851,-7.9345909],[-34.8551118,-7.9347491]]}},{"type":"Feature","id":"way/575171580","properties":{"name":"Avenida B","id":"way/575171580","type":"Baixa velocidade"},"geometry":{"type":"LineString","coordinates":[[-34.858384,-7.9335253],[-34.8584428,-7.9335064],[-34.8584864,-7.9334926],[-34.859127,-7.9332667],[-34.8595038,-7.9331245],[-34.8595668,-7.9330887],[-34.8596768,-7.9329983],[-34.8598069,-7.9328868],[-34.8598699,-7.9328177],[-34.859937,-7.9327167],[-34.8600309,-7.9325175],[-34.860114,-7.9322997],[-34.8601905,-7.9319915],[-34.8601947,-7.9319745],[-34.860228,-7.9318388],[-34.8602749,-7.931601],[-34.8602763,-7.9315173],[-34.8602615,-7.9314297],[-34.8602334,-7.931346],[-34.8601436,-7.9311662]]}},{"type":"Feature","id":"way/591658502","properties":{"name":"Ciclovia da PE-15","id":"way/591658502","type":"Ciclovia"},"geometry":{"type":"LineString","coordinates":[[-34.8793345,-7.938887],[-34.8794822,-7.9386408],[-34.8797069,-7.9383079],[-34.8797857,-7.9381986],[-34.8798199,-7.9381512],[-34.8798838,-7.9380625],[-34.8800693,-7.9377888],[-34.880307,-7.9374467],[-34.880714,-7.9368696],[-34.8808515,-7.9367118]]}},{"type":"Feature","id":"way/591658530","properties":{"name":"Ciclovia da PE-15","id":"way/591658530","type":"Ciclovia"},"geometry":{"type":"LineString","coordinates":[[-34.8820957,-7.935658],[-34.8821723,-7.9355985],[-34.8823666,-7.9354739],[-34.8833334,-7.9346852],[-34.8837729,-7.9343131],[-34.8842596,-7.933707],[-34.8849071,-7.9327658],[-34.8851611,-7.9323648]]}},{"type":"Feature","id":"way/591658538","properties":{"name":"Ciclovia da PE-15","id":"way/591658538","type":"Ciclovia"},"geometry":{"type":"LineString","coordinates":[[-34.8818674,-7.9358435],[-34.8820957,-7.935658]]}},{"type":"Feature","id":"way/591658550","properties":{"name":"Ciclovia da PE-15","id":"way/591658550","type":"Ciclovia"},"geometry":{"type":"LineString","coordinates":[[-34.8808515,-7.9367118],[-34.8808879,-7.9366749],[-34.8810803,-7.9364952]]}},{"type":"Feature","id":"way/591658553","properties":{"name":"Ciclovia da PE-15","id":"way/591658553","type":"Ciclovia"},"geometry":{"type":"LineString","coordinates":[[-34.8810803,-7.9364952],[-34.8811065,-7.9364713],[-34.8813323,-7.9362738],[-34.881734,-7.9359504],[-34.8818674,-7.9358435]]}},{"type":"Feature","id":"way/754344801","properties":{"name":"Avenida C","id":"way/754344801","type":"Baixa velocidade"},"geometry":{"type":"LineString","coordinates":[[-34.8566988,-7.9267758],[-34.8567867,-7.9266465],[-34.8568035,-7.9265801],[-34.8568082,-7.9265349],[-34.8567974,-7.9264671]]}},{"type":"Feature","id":"way/778292930","properties":{"name":"Ciclovia da PE-15","id":"way/778292930","type":"Ciclovia"},"geometry":{"type":"LineString","coordinates":[[-34.8851611,-7.9323648],[-34.8851768,-7.932337],[-34.8852025,-7.9322873],[-34.8852285,-7.9322219],[-34.8852692,-7.9321265],[-34.8856295,-7.9314423],[-34.8856714,-7.9313549],[-34.8856865,-7.9313051],[-34.8856909,-7.931262],[-34.8856926,-7.9312052],[-34.8856959,-7.9311487],[-34.8857097,-7.9310936],[-34.8857361,-7.9310405],[-34.885767,-7.930984],[-34.8857851,-7.9309455],[-34.8858099,-7.9308917],[-34.8858377,-7.9308253],[-34.8859095,-7.9306908],[-34.8860054,-7.9305231],[-34.8863437,-7.9299191],[-34.8864201,-7.9298118],[-34.8864536,-7.9297919],[-34.886524,-7.9297806],[-34.886567,-7.9297773],[-34.886617,-7.929787]]}},{"type":"Feature","id":"way/893559795","properties":{"name":"Canal do Maceio","id":"way/893559795","type":"Baixa velocidade"},"geometry":{"type":"LineString","coordinates":[[-34.8300797,-7.8836958],[-34.8282231,-7.883278]]}},{"type":"Feature","id":"way/966852598","properties":{"name":"Ciclovia da PE-15","id":"way/966852598","type":"Ciclovia"},"geometry":{"type":"LineString","coordinates":[[-34.8717149,-7.9579284],[-34.8718668,-7.9576105],[-34.872184,-7.9570479],[-34.8722842,-7.9568285]]}},{"type":"Feature","id":"way/1000342283","properties":{"name":"Rua Amazonita","id":"way/1000342283","type":"Baixa velocidade"},"geometry":{"type":"LineString","coordinates":[[-34.8331223,-7.884542],[-34.8319926,-7.8839609]]}},{"type":"Feature","id":"way/1000343293","properties":{"name":"Rua Amazonita","id":"way/1000343293","type":"Baixa velocidade"},"geometry":{"type":"LineString","coordinates":[[-34.8319926,-7.8839609],[-34.8319243,-7.884108]]}},{"type":"Feature","id":"way/1022692612","properties":{"name":"Travessa Barão do Rio Branco","id":"way/1022692612","type":"Baixa velocidade"},"geometry":{"type":"LineString","coordinates":[[-34.874313,-7.957293],[-34.8745336,-7.9574338],[-34.8746295,-7.9574843],[-34.8747434,-7.9575108],[-34.8748655,-7.9575095],[-34.8750056,-7.9574644]]}},{"type":"Feature","id":"way/1265657166","properties":{"name":"Ciclovia da PE-15","id":"way/1265657166","type":"Ciclovia"},"geometry":{"type":"LineString","coordinates":[[-34.8556378,-7.9845551],[-34.8555073,-7.9842706],[-34.8554668,-7.9840838],[-34.8554528,-7.9839495],[-34.8554484,-7.9837459],[-34.8554545,-7.9836616],[-34.8554645,-7.9835001],[-34.85548,-7.9833659],[-34.8556398,-7.9828601],[-34.8557779,-7.9825091],[-34.8559479,-7.9821201],[-34.8561052,-7.9818916],[-34.8563039,-7.9816643],[-34.8568536,-7.9812356],[-34.8576082,-7.9806567],[-34.858051,-7.9803102],[-34.8588818,-7.9796354],[-34.8592809,-7.9793215],[-34.8593308,-7.9792823],[-34.8598572,-7.9788683],[-34.8609384,-7.9780274],[-34.8615284,-7.9775614],[-34.8624483,-7.9768461],[-34.8629748,-7.9764569],[-34.8631869,-7.9762462],[-34.8634069,-7.9758714],[-34.8636938,-7.9752764],[-34.8638847,-7.9748801],[-34.8640152,-7.9746074],[-34.8641302,-7.9743972],[-34.8643217,-7.9740346],[-34.864757,-7.9730886],[-34.8652601,-7.971995],[-34.8657464,-7.9709696]]}},{"type":"Feature","id":"way/1265657167","properties":{"name":"Ciclovia da PE-15","id":"way/1265657167","type":"Ciclovia"},"geometry":{"type":"LineString","coordinates":[[-34.8657849,-7.9708934],[-34.8659047,-7.9706564],[-34.8664698,-7.969476],[-34.8669273,-7.9685414],[-34.8673849,-7.9675646],[-34.867482,-7.9673346],[-34.8675277,-7.9671702],[-34.8675761,-7.9669178],[-34.8676187,-7.9666568],[-34.8677442,-7.9659889],[-34.8678308,-7.965521],[-34.8678629,-7.9653449],[-34.8680338,-7.9643926],[-34.8681793,-7.963784],[-34.8683097,-7.9634963],[-34.8687523,-7.9627065],[-34.8693264,-7.9617942],[-34.8700263,-7.9606753],[-34.8708357,-7.9593879],[-34.8709766,-7.9591694],[-34.8710689,-7.9590218]]}},{"type":"Feature","id":"way/1265657168","properties":{"name":"Ciclovia da PE-15","id":"way/1265657168","type":"Ciclovia"},"geometry":{"type":"LineString","coordinates":[[-34.8657464,-7.9709696],[-34.8657849,-7.9708934]]}},{"type":"Feature","id":"way/1265657169","properties":{"name":"Ciclovia da PE-15","id":"way/1265657169","type":"Ciclovia"},"geometry":{"type":"LineString","coordinates":[[-34.8710689,-7.9590218],[-34.8712111,-7.9588039],[-34.8712605,-7.9587301],[-34.8713944,-7.9585156],[-34.8715694,-7.9582247],[-34.8716772,-7.9580455],[-34.8717149,-7.9579284]]}},{"type":"Feature","id":"way/1265657171","properties":{"name":"Ciclovia da PE-15","id":"way/1265657171","type":"Ciclovia"},"geometry":{"type":"LineString","coordinates":[[-34.886524,-7.9297806],[-34.8867282,-7.9294529],[-34.8871465,-7.9286802],[-34.8873532,-7.9283049],[-34.8876484,-7.9277847],[-34.8878702,-7.9273724],[-34.8880911,-7.9270034],[-34.8883199,-7.9266435],[-34.8885783,-7.9262594],[-34.8889377,-7.9258832],[-34.8893709,-7.9254305],[-34.8898263,-7.9249975],[-34.8902584,-7.9245549],[-34.8907586,-7.9240696],[-34.8912208,-7.9236293],[-34.8916165,-7.9232485],[-34.8919367,-7.9229364],[-34.8922541,-7.9226258],[-34.8923637,-7.9224084],[-34.8923916,-7.9223998],[-34.8924859,-7.9223709],[-34.8930112,-7.9218251],[-34.8932293,-7.9215868],[-34.893234,-7.9215738],[-34.8936116,-7.9212034],[-34.8938656,-7.9209378],[-34.8938913,-7.9209045],[-34.8940666,-7.9207467],[-34.894289,-7.9205175],[-34.8948298,-7.919904],[-34.8948647,-7.9198614],[-34.8949774,-7.9196989],[-34.8950967,-7.919543],[-34.8951575,-7.9194761],[-34.8952357,-7.9193552],[-34.8956677,-7.9187069],[-34.8960819,-7.9181934],[-34.8961925,-7.9180491],[-34.8967051,-7.9173179],[-34.8975447,-7.9160729],[-34.8977325,-7.915759],[-34.8981281,-7.915195],[-34.8984371,-7.9147618],[-34.8986929,-7.9144288],[-34.8989911,-7.9140075],[-34.899415,-7.9134035]]}},{"type":"Feature","id":"way/1307361605","properties":{"name":"Avenida A","id":"way/1307361605","type":"Baixa velocidade"},"geometry":{"type":"LineString","coordinates":[[-34.8516335,-7.9272356],[-34.8515276,-7.9271508],[-34.8512728,-7.9269467],[-34.8509134,-7.9266512]]}},{"type":"Feature","id":"way/1307361606","properties":{"name":"Avenida A","id":"way/1307361606","type":"Baixa velocidade"},"geometry":{"type":"LineString","coordinates":[[-34.8502391,-7.9261919],[-34.8504889,-7.9263011],[-34.8505864,-7.9263498],[-34.8507269,-7.92644]]}},{"type":"Feature","id":"way/1308933499","properties":{"name":"Avenida B","id":"way/1308933499","type":"Baixa velocidade"},"geometry":{"type":"LineString","coordinates":[[-34.8550106,-7.934647],[-34.8550071,-7.9346435]]}},{"type":"Feature","id":"way/1308933500","properties":{"name":"Avenida B","id":"way/1308933500","type":"Baixa velocidade"},"geometry":{"type":"LineString","coordinates":[[-34.8551118,-7.9347491],[-34.8551083,-7.9347456]]}},{"type":"Feature","id":"node/5330851902","properties":{"name":"Super Bike Moto","id":"node/5330851902","type":"Oficinas & lojas"},"geometry":{"type":"Point","coordinates":[-34.8558882,-7.9309145]}}]}