{"type":"FeatureCollection","features":[{"type":"Feature","id":"way/144183679","properties":{"name":"Rua Jovelino Francisco de Barros","id":"way/144183679","type":"Baixa velocidade"},"geometry":{"type":"LineString","coordinates":[[-34.8416685,-7.975878],[-34.8410576,-7.9745884]]}},{"type":"Feature","id":"way/359248059","properties":{"name":"Avenida Beira Mar","id":"way/359248059","type":"Ciclovia"},"geometry":{"type":"LineString","coordinates":[[-34.8387167,-7.9923166],[-34.8387301,-7.9913537],[-34.8387274,-7.991124],[-34.8387207,-7.9909945],[-34.8387093,-7.990873],[-34.8386959,-7.99079],[-34.8385846,-7.9902262],[-34.8384471,-7.9894632],[-34.8381674,-7.98805],[-34.8380052,-7.9873104],[-34.8378892,-7.9867944],[-34.8378356,-7.9865859],[-34.8377377,-7.9862565],[-34.8376425,-7.9859969],[-34.837587,-7.9858534],[-34.8373738,-7.9853742],[-34.8370262,-7.9846243],[-34.8368274,-7.9842297],[-34.8364381,-7.9834881],[-34.8362155,-7.9830173],[-34.8354062,-7.9813611],[-34.8353626,-7.9812575],[-34.8351762,-7.980812],[-34.8347752,-7.979711],[-34.8347095,-7.9795031],[-34.8346686,-7.9793497],[-34.8345881,-7.9790602],[-34.8345358,-7.9788596],[-34.8344989,-7.9786963],[-34.83445,-7.9784731],[-34.8343889,-7.9781849],[-34.8343085,-7.9778051],[-34.8342481,-7.9775129],[-34.8341504,-7.9770632],[-34.8340711,-7.9766954],[-34.8340047,-7.9764119],[-34.8339368,-7.9761692],[-34.8338445,-7.9758361],[-34.8336989,-7.9753733],[-34.8336359,-7.9751634],[-34.8335974,-7.9750157],[-34.833483,-7.974688],[-34.8334254,-7.9745316],[-34.8333006,-7.9742437],[-34.8332265,-7.9740422],[-34.8331518,-7.973832],[-34.8330136,-7.9734674],[-34.8329338,-7.973237],[-34.8328755,-7.9730949],[-34.8328339,-7.9730085],[-34.832787,-7.9729242],[-34.832614,-7.972638],[-34.8325013,-7.9724633],[-34.8324457,-7.972375],[-34.8323049,-7.9721824],[-34.8322405,-7.9721001],[-34.8321125,-7.9719607],[-34.8320393,-7.9718783],[-34.8319981,-7.9718149],[-34.8319558,-7.9717256],[-34.8317989,-7.9712976],[-34.8317316,-7.9710177],[-34.8317195,-7.9709672],[-34.831639,-7.9706232],[-34.8315317,-7.9702128],[-34.831297,-7.9691742],[-34.8312508,-7.9689092],[-34.8312266,-7.9687126],[-34.8312011,-7.9684072],[-34.8312025,-7.9679981],[-34.8312031,-7.9678487],[-34.8311978,-7.9677066],[-34.8311911,-7.9675631],[-34.8311556,-7.9672056],[-34.8311113,-7.9668824],[-34.8310073,-7.9663751],[-34.8309497,-7.9661334],[-34.8308974,-7.9659441],[-34.8308726,-7.9658365],[-34.8308323,-7.9656446],[-34.8307867,-7.9653823],[-34.8307358,-7.9650934],[-34.8305963,-7.9643204],[-34.8305406,-7.9640468],[-34.8304334,-7.9635401],[-34.8303589,-7.9632745],[-34.8303207,-7.9631623],[-34.8302449,-7.9629982],[-34.8300384,-7.9625261],[-34.829962,-7.9623162],[-34.8299325,-7.9621728],[-34.8298982,-7.9619966],[-34.8298278,-7.9615631]]}},{"type":"Feature","id":"way/627213638","properties":{"name":"Ciclovia Avenida Beira-Mar","id":"way/627213638","type":"Ciclovia"},"geometry":{"type":"LineString","coordinates":[[-34.8311113,-7.9668824],[-34.831083,-7.9668876]]}},{"type":"Feature","id":"way/655083897","properties":{"id":"way/655083897","type":"Proibido"},"geometry":{"type":"LineString","coordinates":[[-34.8381123,-7.9953564],[-34.8377107,-7.9954238],[-34.8375308,-7.9955013],[-34.8374059,-7.9955328],[-34.836309,-7.9957955]]}},{"type":"Feature","id":"way/656127761","properties":{"name":"Travessa Vasco Rodrigues","id":"way/656127761","type":"Baixa velocidade"},"geometry":{"type":"LineString","coordinates":[[-34.8794326,-8.0051875],[-34.878958,-8.0054872],[-34.8787266,-8.0056366],[-34.8778604,-8.0061877]]}},{"type":"Feature","id":"way/656127762","properties":{"name":"Travessa Vasco Rodrigues","id":"way/656127762","type":"Baixa velocidade"},"geometry":{"type":"LineString","coordinates":[[-34.8778604,-8.0061877],[-34.8777764,-8.0062393]]}},{"type":"Feature","id":"way/690508636","properties":{"name":"Ciclovia Camilo Simões","id":"way/690508636","type":"Ciclovia"},"geometry":{"type":"LineString","coordinates":[[-34.8544872,-8.0197995],[-34.8546296,-8.0198137],[-34.8547347,-8.019808],[-34.854808,-8.0197743],[-34.8548767,-8.0197489],[-34.855101,-8.0197711],[-34.8553998,-8.019776],[-34.8555051,-8.0197604],[-34.8556513,-8.0197407],[-34.8558574,-8.0197005],[-34.856645,-8.0195584],[-34.8568458,-8.0195732],[-34.8570993,-8.0195264],[-34.8575406,-8.0194111],[-34.8580077,-8.019276],[-34.8582373,-8.0192654],[-34.8583963,-8.0192459]]}},{"type":"Feature","id":"way/690508640","properties":{"name":"Ciclovia Camilo Simões","id":"way/690508640","type":"Ciclovia"},"geometry":{"type":"LineString","coordinates":[[-34.8628087,-8.0241474],[-34.863026,-8.0244127]]}},{"type":"Feature","id":"way/690508643","properties":{"name":"Ciclovia Camilo Simões","id":"way/690508643","type":"Ciclovia"},"geometry":{"type":"LineString","coordinates":[[-34.863026,-8.0244127],[-34.8630497,-8.0244515],[-34.8631236,-8.0245452],[-34.8635417,-8.0250149],[-34.8637725,-8.0253043],[-34.8638445,-8.0253946],[-34.8638869,-8.0254245],[-34.8639197,-8.0254669],[-34.8639254,-8.0255174],[-34.8641018,-8.0257593],[-34.8641441,-8.0257921],[-34.8641577,-8.0258323],[-34.8642501,-8.0259454],[-34.8644818,-8.0262432],[-34.8645336,-8.026302],[-34.8646026,-8.0263979],[-34.8649458,-8.026904],[-34.8650225,-8.0270025],[-34.8651591,-8.0272638],[-34.8653933,-8.0276408],[-34.865788,-8.028367],[-34.8661763,-8.0290811],[-34.866201,-8.0291252],[-34.8662455,-8.0291443],[-34.8662929,-8.0292216],[-34.8662911,-8.0292862],[-34.8664679,-8.0296018],[-34.8666514,-8.0299248],[-34.8667209,-8.0299873],[-34.8667746,-8.0300179],[-34.8668575,-8.0300369],[-34.866956,-8.0300247],[-34.8670147,-8.0299993],[-34.8671648,-8.0298378]]}},{"type":"Feature","id":"way/700750679","properties":{"name":"Ciclovia Camilo Simões","id":"way/700750679","type":"Ciclovia"},"geometry":{"type":"LineString","coordinates":[[-34.8671648,-8.0298378],[-34.8672078,-8.0298724],[-34.8672478,-8.0299047]]}},{"type":"Feature","id":"way/700750680","properties":{"name":"Ciclovia Camilo Simões","id":"way/700750680","type":"Ciclovia"},"geometry":{"type":"LineString","coordinates":[[-34.8672478,-8.0299047],[-34.8670367,-8.0301457],[-34.8669655,-8.0302526],[-34.8669362,-8.0303294],[-34.8669183,-8.0304256],[-34.8669683,-8.0305402],[-34.8671096,-8.0307873],[-34.8672227,-8.0309582],[-34.8672883,-8.0309946],[-34.8673592,-8.031057],[-34.8675583,-8.0313595],[-34.8677446,-8.0316332],[-34.8680199,-8.0320689],[-34.8681366,-8.0321856],[-34.8682705,-8.0323598],[-34.869019,-8.0333558],[-34.8693076,-8.0337103],[-34.8693683,-8.0337848],[-34.8697596,-8.0342399],[-34.8701929,-8.034721],[-34.8704818,-8.0350877],[-34.8706324,-8.0352843],[-34.8706596,-8.0353209],[-34.8707607,-8.0354517],[-34.870948,-8.0356452]]}},{"type":"Feature","id":"way/762906977","properties":{"name":"Ciclovia Camilo Simões","id":"way/762906977","type":"Ciclovia"},"geometry":{"type":"LineString","coordinates":[[-34.8616471,-8.0227681],[-34.8617893,-8.022951],[-34.8620385,-8.0234037],[-34.8622548,-8.0236953],[-34.8623812,-8.0238654],[-34.8623874,-8.0238737],[-34.8624083,-8.0238582],[-34.8624319,-8.0238411],[-34.8624777,-8.0238057],[-34.8625017,-8.0237862],[-34.8625494,-8.0237447],[-34.8627698,-8.0240699],[-34.8627996,-8.0241334],[-34.8628087,-8.0241474]]}},{"type":"Feature","id":"way/762906978","properties":{"name":"Ciclovia Camilo Simões","id":"way/762906978","type":"Ciclovia"},"geometry":{"type":"LineString","coordinates":[[-34.858473,-8.0192232],[-34.8585026,-8.0192123],[-34.8585873,-8.0191881],[-34.8586231,-8.019202],[-34.8586395,-8.019244],[-34.8586649,-8.0193496],[-34.8586801,-8.0194056],[-34.8587077,-8.0194423],[-34.8587488,-8.0194422],[-34.8590573,-8.0193619],[-34.8590934,-8.0193487],[-34.8591011,-8.0193235],[-34.8590938,-8.0192867],[-34.8591068,-8.019272],[-34.8596645,-8.0191259],[-34.8599504,-8.0190518],[-34.8600595,-8.0190344],[-34.8601382,-8.0190377],[-34.8602323,-8.0190555],[-34.8603054,-8.0190836]]}},{"type":"Feature","id":"way/762906979","properties":{"name":"Ciclovia Camilo Simões","id":"way/762906979","type":"Ciclovia"},"geometry":{"type":"LineString","coordinates":[[-34.8583963,-8.0192459],[-34.858473,-8.0192232]]}},{"type":"Feature","id":"way/966301854","properties":{"name":"Avenida Beira Mar","id":"way/966301854","type":"Ciclovia"},"geometry":{"type":"LineString","coordinates":[[-34.8418676,-8.0100095],[-34.8418474,-8.0099602],[-34.8417719,-8.0097763],[-34.8417218,-8.0096542],[-34.8416113,-8.0093773],[-34.8414666,-8.0090148],[-34.8414588,-8.0089957],[-34.8412955,-8.008596],[-34.8411401,-8.0082154],[-34.8410136,-8.0078693],[-34.8409121,-8.0075916],[-34.8408461,-8.0074172],[-34.8406395,-8.0068943],[-34.840609,-8.0067957],[-34.8405896,-8.0067457],[-34.8404898,-8.0064877],[-34.8404749,-8.0064491],[-34.8403582,-8.0061171],[-34.8403505,-8.0060915],[-34.8402757,-8.0058422],[-34.8402132,-8.0055902],[-34.8401946,-8.0055155],[-34.8401328,-8.0052155],[-34.8399518,-8.0043375],[-34.8396101,-8.0024575],[-34.8395985,-8.0023939],[-34.8395441,-8.0021064],[-34.8395012,-8.0018767],[-34.839345,-8.0010804],[-34.8392981,-8.0008414],[-34.8392437,-8.0004563],[-34.839172,-8.0000001],[-34.8391173,-7.9996343],[-34.8390788,-7.9993766],[-34.8389795,-7.9987132],[-34.8388327,-7.9978779],[-34.8386402,-7.996579],[-34.8385397,-7.99566],[-34.8385356,-7.995587],[-34.8385376,-7.9955007],[-34.838542,-7.9954735],[-34.8385584,-7.9953954],[-34.8385799,-7.9953253]]}},{"type":"Feature","id":"way/1183583039","properties":{"name":"Avenida Beira Mar","id":"way/1183583039","type":"Ciclovia"},"geometry":{"type":"LineString","coordinates":[[-34.8385799,-7.9953253],[-34.8386074,-7.9952589],[-34.8386322,-7.9952075],[-34.8386533,-7.995158],[-34.8386718,-7.9950982],[-34.8386879,-7.9950249],[-34.8386999,-7.994915],[-34.8387455,-7.9944515],[-34.8387382,-7.994148],[-34.8387368,-7.9940902],[-34.8387362,-7.9938955],[-34.8387355,-7.9937005],[-34.8387261,-7.9934534],[-34.838716,-7.992709],[-34.8387167,-7.9923166]]}},{"type":"Feature","id":"way/1183969262","properties":{"name":"Ciclovia Camilo Simões","id":"way/1183969262","type":"Ciclovia"},"geometry":{"type":"LineString","coordinates":[[-34.8603054,-8.0190836],[-34.8603875,-8.0191312],[-34.8604754,-8.019203],[-34.8605335,-8.0192721],[-34.8605691,-8.0193439],[-34.8606749,-8.0196128],[-34.8608007,-8.0200259],[-34.8609771,-8.0206531],[-34.861221,-8.0215462],[-34.8613375,-8.0219016],[-34.8614354,-8.0222132],[-34.8615151,-8.0224503],[-34.8616471,-8.0227681]]}},{"type":"Feature","id":"way/1265657166","properties":{"name":"Ciclovia da PE-15","id":"way/1265657166","type":"Ciclovia"},"geometry":{"type":"LineString","coordinates":[[-34.8556378,-7.9845551],[-34.8555073,-7.9842706],[-34.8554668,-7.9840838],[-34.8554528,-7.9839495],[-34.8554484,-7.9837459],[-34.8554545,-7.9836616],[-34.8554645,-7.9835001],[-34.85548,-7.9833659],[-34.8556398,-7.9828601],[-34.8557779,-7.9825091],[-34.8559479,-7.9821201],[-34.8561052,-7.9818916],[-34.8563039,-7.9816643],[-34.8568536,-7.9812356],[-34.8576082,-7.9806567],[-34.858051,-7.9803102],[-34.8588818,-7.9796354],[-34.8592809,-7.9793215],[-34.8593308,-7.9792823],[-34.8598572,-7.9788683],[-34.8609384,-7.9780274],[-34.8615284,-7.9775614],[-34.8624483,-7.9768461],[-34.8629748,-7.9764569],[-34.8631869,-7.9762462],[-34.8634069,-7.9758714],[-34.8636938,-7.9752764],[-34.8638847,-7.9748801],[-34.8640152,-7.9746074],[-34.8641302,-7.9743972],[-34.8643217,-7.9740346],[-34.864757,-7.9730886],[-34.8652601,-7.971995],[-34.8657464,-7.9709696]]}},{"type":"Feature","id":"node/7204299971","properties":{"name":"Praia da Casa Caiada","id":"node/7204299971","type":"Estações de bicicleta"},"geometry":{"type":"Point","coordinates":[-34.8382621,-7.9885679]}},{"type":"Feature","id":"node/7204299973","properties":{"name":"Alberto Lundgren","id":"node/7204299973","type":"Estações de bicicleta"},"geometry":{"type":"Point","coordinates":[-34.8395305,-8.0026105]}},{"type":"Feature","id":"node/7204299974","properties":{"name":"R. Dr. Manoel de Barros Lima","id":"node/7204299974","type":"Estações de bicicleta"},"geometry":{"type":"Point","coordinates":[-34.8387641,-7.9965628]}},{"type":"Feature","id":"node/7204299975","properties":{"name":"Praça Doze de Março","id":"node/7204299975","type":"Estações de bicicleta"},"geometry":{"type":"Point","coordinates":[-34.8423464,-8.0098717]}},{"type":"Feature","id":"node/7204299977","properties":{"name":"Mercado Eufrásio Barbosa","id":"node/7204299977","type":"Estações de bicicleta"},"geometry":{"type":"Point","coordinates":[-34.8537242,-8.0203374]}},{"type":"Feature","id":"node/7204299978","properties":{"name":"Praça do Carmo","id":"node/7204299978","type":"Estações de bicicleta"},"geometry":{"type":"Point","coordinates":[-34.8485236,-8.0169892]}}]}